{"type":"FeatureCollection","metadata":{"routeId":"100","sourceDate":"20260905","source":"https://bus.data.tfl.gov.uk/bus-geometry/"},"features":[{"type":"Feature","properties":{"routeId":"100","direction":"1","sourceDate":"20260905"},"geometry":{"type":"LineString","coordinates":[[-0.101427,51.517295],[-0.101979,51.516282],[-0.101683,51.516125],[-0.09906,51.515417],[-0.097759,51.515153],[-0.097353,51.515209],[-0.097245,51.515387],[-0.097182,51.515863],[-0.097418,51.516083],[-0.098295,51.516142],[-0.098562,51.516325],[-0.098639,51.517208],[-0.0979,51.517655],[-0.097336,51.517671],[-0.097129,51.51784],[-0.096868,51.517872],[-0.096161,51.517546],[-0.089775,51.517559],[-0.088748,51.51729],[-0.085654,51.516844],[-0.084083,51.516486],[-0.081632,51.516176],[-0.080962,51.515985],[-0.080163,51.516152],[-0.078839,51.51542],[-0.077857,51.514774],[-0.07694,51.51431],[-0.074954,51.514916],[-0.074666,51.514911],[-0.074234,51.514571],[-0.07433,51.514339],[-0.076084,51.513738],[-0.075736,51.513112],[-0.075275,51.511396],[-0.075178,51.511313],[-0.074937,51.511211],[-0.073306,51.511211],[-0.072808,51.511121],[-0.072753,51.510383],[-0.073481,51.509532],[-0.07351,51.509182],[-0.073361,51.508945],[-0.071853,51.508413],[-0.071285,51.508291],[-0.069167,51.508625],[-0.067751,51.50906],[-0.067342,51.508505],[-0.066894,51.508174],[-0.066691,51.507864],[-0.066645,51.506919],[-0.06675,51.506489],[-0.066606,51.506146],[-0.065231,51.505251],[-0.064264,51.504965],[-0.064011,51.504817],[-0.064285,51.503901],[-0.060061,51.503142],[-0.059543,51.503133],[-0.057636,51.503587],[-0.056596,51.503993],[-0.056394,51.504161],[-0.057163,51.504559],[-0.057806,51.505029],[-0.05827,51.505621],[-0.058607,51.505843],[-0.058678,51.508919],[-0.058894,51.509597],[-0.057276,51.509756],[-0.054973,51.509613],[-0.050643,51.509766],[-0.050297,51.511127],[-0.052851,51.510823],[-0.053637,51.510868],[-0.054881,51.511113],[-0.058574,51.511082]]}},{"type":"Feature","properties":{"routeId":"100","direction":"2","sourceDate":"20260905"},"geometry":{"type":"MultiLineString","coordinates":[[[-0.058906,51.511074],[-0.061008,51.511053],[-0.060514,51.509444],[-0.058894,51.509597],[-0.058678,51.508919],[-0.058607,51.5072],[-0.058654,51.506428],[-0.05858,51.505797],[-0.05827,51.505621],[-0.057874,51.505102],[-0.057583,51.504874],[-0.057076,51.505242],[-0.056958,51.505635],[-0.05676,51.505884],[-0.055493,51.506555],[-0.054731,51.506839],[-0.054262,51.505671],[-0.055948,51.504613],[-0.056596,51.503993],[-0.057636,51.503587],[-0.059543,51.503133],[-0.060061,51.503142],[-0.064285,51.503901],[-0.064011,51.504817],[-0.064264,51.504965],[-0.065231,51.505251],[-0.066606,51.506146],[-0.06675,51.506489],[-0.066645,51.506911],[-0.066691,51.507864],[-0.066894,51.508174],[-0.067342,51.508505],[-0.067751,51.50906],[-0.069167,51.508625],[-0.071285,51.508291],[-0.0717,51.508361],[-0.07356,51.509003],[-0.074799,51.510048],[-0.075163,51.51098],[-0.074937,51.511211],[-0.073306,51.511211],[-0.073103,51.511297],[-0.072994,51.511493],[-0.073296,51.513216],[-0.073635,51.514076],[-0.07405,51.514487],[-0.074666,51.514911],[-0.074954,51.514916],[-0.077294,51.514118],[-0.077553,51.514122],[-0.078331,51.514468],[-0.080639,51.515782],[-0.081793,51.516116],[-0.084602,51.516494],[-0.085784,51.516838],[-0.086814,51.517007],[-0.089808,51.517461],[-0.090392,51.517488],[-0.096555,51.517418],[-0.096848,51.517314],[-0.097047,51.515987],[-0.097277,51.515316],[-0.097428,51.515156],[-0.097759,51.515153],[-0.101969,51.516165],[-0.101979,51.516282],[-0.101366,51.517437]],[[-0.058906,51.511074],[-0.061008,51.511053],[-0.060514,51.509444],[-0.058894,51.509597],[-0.058678,51.508919],[-0.058607,51.5072],[-0.058654,51.506428],[-0.05858,51.505797],[-0.05827,51.505621],[-0.057874,51.505102],[-0.057583,51.504874],[-0.057076,51.505242],[-0.056958,51.505635],[-0.05676,51.505884],[-0.055493,51.506555],[-0.054731,51.506839],[-0.054262,51.505671],[-0.055948,51.504613],[-0.056596,51.503993],[-0.057636,51.503587],[-0.059543,51.503133],[-0.060061,51.503142],[-0.064285,51.503901],[-0.064011,51.504817],[-0.064264,51.504965],[-0.065231,51.505251],[-0.066606,51.506146],[-0.06675,51.506489],[-0.066645,51.506911],[-0.066691,51.507864],[-0.066894,51.508174],[-0.067342,51.508505],[-0.067751,51.50906],[-0.069167,51.508625],[-0.071285,51.508291],[-0.0717,51.508361],[-0.07356,51.509003],[-0.074799,51.510048],[-0.075163,51.51098],[-0.074937,51.511211],[-0.073306,51.511211],[-0.073103,51.511297],[-0.072994,51.511493],[-0.073296,51.513216],[-0.073635,51.514076],[-0.07405,51.514487],[-0.074666,51.514911],[-0.074954,51.514916],[-0.077294,51.514118],[-0.077553,51.514122],[-0.078331,51.514468],[-0.080639,51.515782],[-0.081793,51.516116],[-0.084602,51.516494],[-0.085784,51.516838],[-0.089808,51.517461],[-0.096555,51.517418],[-0.096848,51.517314],[-0.097047,51.515987],[-0.097277,51.515316],[-0.097457,51.515148],[-0.098588,51.515319],[-0.098769,51.515475],[-0.098835,51.515629],[-0.098652,51.515992],[-0.098569,51.516554]]]}}]}