{"type":"FeatureCollection","metadata":{"routeId":"108","sourceDate":"atlas-canonical","source":"atlas routes-overview (diversion-frozen canonical)"},"features":[{"type":"Feature","properties":{"routeId":"108","direction":"1","sourceDate":"atlas-canonical"},"geometry":{"type":"LineString","coordinates":[[-0.0073,51.5455],[-0.0039,51.5455],[-0.0041,51.5426],[-0.0076,51.5397],[-0.0073,51.5386],[-0.0041,51.5363],[-0.0137,51.5295],[-0.0217,51.5278],[-0.0182,51.5223],[-0.0133,51.5112],[-0.0078,51.5117],[-0.0066,51.5091],[-0.0038,51.5064],[0.0018,51.503],[0.002,51.4982],[0.0025,51.4983],[0.0022,51.5011],[0.003,51.5011],[0.0032,51.4999],[0.0058,51.4989],[0.0066,51.4993],[0.0082,51.4968],[0.0145,51.4933],[0.0147,51.4926],[0.0119,51.4904],[0.0176,51.4891],[0.0174,51.4872],[0.0182,51.4864],[0.0171,51.4864],[0.0172,51.4858],[0.0199,51.484],[0.0192,51.4779],[0.0207,51.4779],[0.0098,51.4691],[0.0085,51.4665],[0.009,51.4646],[-0.0014,51.4625],[-0.0062,51.4632],[-0.0092,51.4624],[-0.0103,51.4627],[-0.0113,51.465],[-0.0132,51.4649]]}},{"type":"Feature","properties":{"routeId":"108","direction":"2","sourceDate":"atlas-canonical"},"geometry":{"type":"LineString","coordinates":[[-0.0104,51.4612],[-0.0093,51.4624],[-0.0071,51.4631],[-0.0016,51.4624],[0.0089,51.4646],[0.0091,51.4659],[0.0069,51.4672],[0.0092,51.4683],[0.0189,51.4766],[0.0199,51.4812],[0.0198,51.4844],[0.0172,51.4873],[0.0174,51.4891],[0.0119,51.4905],[0.0148,51.4929],[0.0082,51.4966],[0.0065,51.4993],[0.0057,51.4989],[0.005,51.4997],[0.0032,51.4997],[0.0027,51.5009],[0.0034,51.4997],[0.0058,51.4989],[0.0035,51.4976],[0.0101,51.4935],[0.0087,51.4918],[0.0023,51.4963],[0.0002,51.5016],[-0.0071,51.5056],[-0.0076,51.5111],[-0.0135,51.5112],[-0.0182,51.5223],[-0.0217,51.5278],[-0.0123,51.5306],[-0.0043,51.5364],[-0.0073,51.5386],[-0.008,51.5402],[-0.0093,51.539],[-0.0082,51.5384],[-0.0067,51.5408],[-0.0041,51.5426],[-0.0041,51.5461],[-0.0082,51.5458]]}}]}