{"type":"FeatureCollection","metadata":{"routeId":"135","sourceDate":"atlas-canonical","source":"atlas routes-overview (diversion-frozen canonical)"},"features":[{"type":"Feature","properties":{"routeId":"135","direction":"1","sourceDate":"atlas-canonical"},"geometry":{"type":"LineString","coordinates":[[-0.0138,51.4945],[-0.0143,51.4945],[-0.0134,51.4998],[-0.0094,51.4997],[-0.0096,51.4973],[-0.0088,51.4948],[-0.0056,51.4917],[-0.0068,51.4889],[-0.0134,51.4872],[-0.0142,51.4898],[-0.0157,51.4908],[-0.0203,51.4911],[-0.0224,51.4901],[-0.024,51.4914],[-0.0257,51.4954],[-0.0258,51.504],[-0.0176,51.5028],[-0.0172,51.5043],[-0.0272,51.5055],[-0.0266,51.5102],[-0.0294,51.5122],[-0.0707,51.5156],[-0.0776,51.5141],[-0.0817,51.5162],[-0.0795,51.5187],[-0.0779,51.5228],[-0.0835,51.526],[-0.087,51.5257],[-0.0887,51.5281]]}},{"type":"Feature","properties":{"routeId":"135","direction":"2","sourceDate":"atlas-canonical"},"geometry":{"type":"LineString","coordinates":[[-0.088,51.5272],[-0.0871,51.5258],[-0.0843,51.5264],[-0.0792,51.5237],[-0.0773,51.5238],[-0.0797,51.5183],[-0.0816,51.5162],[-0.08,51.5161],[-0.077,51.5143],[-0.0707,51.5156],[-0.0281,51.5118],[-0.0257,51.5097],[-0.0273,51.5079],[-0.0271,51.5061],[-0.0144,51.5046],[-0.0172,51.5043],[-0.0177,51.5026],[-0.0257,51.5036],[-0.0257,51.4954],[-0.024,51.4914],[-0.0224,51.4901],[-0.0203,51.4911],[-0.0157,51.4908],[-0.0142,51.4898],[-0.0134,51.4872],[-0.0069,51.4889],[-0.0056,51.4916],[-0.0087,51.4946],[-0.0096,51.4972],[-0.0095,51.4998],[-0.0134,51.4998],[-0.0142,51.4951],[-0.0131,51.4949]]}}]}