{"type":"FeatureCollection","metadata":{"routeId":"148X","sourceDate":"20260905","source":"https://bus.data.tfl.gov.uk/bus-geometry/"},"features":[{"type":"Feature","properties":{"routeId":"148X","direction":"1","sourceDate":"20260905"},"geometry":{"type":"MultiLineString","coordinates":[[[-0.1457,51.496983],[-0.146378,51.497281],[-0.146909,51.498044],[-0.147734,51.499011],[-0.148999,51.500155],[-0.150966,51.5014],[-0.152041,51.502235],[-0.152365,51.502789],[-0.152285,51.502985],[-0.151178,51.503274],[-0.151128,51.503435],[-0.151336,51.503996],[-0.152008,51.504123],[-0.152231,51.504324],[-0.151966,51.505156],[-0.151965,51.505543],[-0.15224,51.506222],[-0.154093,51.507798],[-0.157267,51.510213],[-0.158038,51.511233],[-0.158576,51.512419],[-0.158885,51.512612],[-0.160811,51.512382],[-0.161094,51.512512],[-0.161694,51.512998],[-0.162008,51.513075],[-0.174903,51.511721],[-0.182818,51.510566],[-0.187218,51.510213],[-0.191054,51.51001],[-0.192883,51.509724]],[[-0.123845,51.486226],[-0.124679,51.486451],[-0.127935,51.488001],[-0.129799,51.488714],[-0.133229,51.490463],[-0.140535,51.493942],[-0.140899,51.494209],[-0.141824,51.493765],[-0.142047,51.493966],[-0.143258,51.496063],[-0.14321,51.496188],[-0.142944,51.496354],[-0.142916,51.496558],[-0.145088,51.496757],[-0.146322,51.497235],[-0.147596,51.498857],[-0.148456,51.499688],[-0.149097,51.500228],[-0.150966,51.5014],[-0.151959,51.502144],[-0.152365,51.502789],[-0.152285,51.502985],[-0.151178,51.503274],[-0.151128,51.503435],[-0.151336,51.503996],[-0.152008,51.504123],[-0.152231,51.504324],[-0.151966,51.505156],[-0.151965,51.505543],[-0.15224,51.506222],[-0.154093,51.507798],[-0.157267,51.510213],[-0.158038,51.511233],[-0.158576,51.512419],[-0.158885,51.512612],[-0.160811,51.512382],[-0.161094,51.512512],[-0.161694,51.512998],[-0.162008,51.513075],[-0.174903,51.511721],[-0.182818,51.510566],[-0.187218,51.510213],[-0.191054,51.51001],[-0.192883,51.509724]]]}},{"type":"Feature","properties":{"routeId":"148X","direction":"2","sourceDate":"20260905"},"geometry":{"type":"MultiLineString","coordinates":[[[-0.193398,51.509627],[-0.191575,51.509964],[-0.187544,51.510208],[-0.18512,51.510461],[-0.184899,51.510419],[-0.182818,51.510566],[-0.174903,51.511721],[-0.15864,51.513373],[-0.158313,51.513215],[-0.1567,51.510339],[-0.154824,51.508969],[-0.153784,51.507964],[-0.151444,51.505958],[-0.151037,51.505486],[-0.150913,51.505059],[-0.151119,51.504028],[-0.150886,51.503377],[-0.150788,51.503303],[-0.149996,51.503291],[-0.149787,51.503108],[-0.149869,51.502498],[-0.151201,51.501997],[-0.151323,51.501837],[-0.151316,51.501657],[-0.148999,51.500155],[-0.147886,51.499166],[-0.147144,51.4983],[-0.146758,51.498213],[-0.145301,51.498271],[-0.144468,51.498195],[-0.143011,51.497902],[-0.142316,51.497663]],[[-0.193398,51.509627],[-0.191575,51.509964],[-0.187544,51.510208],[-0.18512,51.510461],[-0.184899,51.510419],[-0.182818,51.510566],[-0.174903,51.511721],[-0.161762,51.513098],[-0.158753,51.513374],[-0.158461,51.513326],[-0.158313,51.513215],[-0.158015,51.512743],[-0.1567,51.510339],[-0.154824,51.508969],[-0.153784,51.507964],[-0.151444,51.505958],[-0.151037,51.505486],[-0.150913,51.505059],[-0.151119,51.504028],[-0.150886,51.503377],[-0.150788,51.503303],[-0.149996,51.503291],[-0.149787,51.503108],[-0.149869,51.502498],[-0.151201,51.501997],[-0.151323,51.501837],[-0.151316,51.501657],[-0.148999,51.500155],[-0.147886,51.499166],[-0.147144,51.4983],[-0.146758,51.498213],[-0.145301,51.498271],[-0.144468,51.498195],[-0.143011,51.497902],[-0.142272,51.497639],[-0.142025,51.497338],[-0.141821,51.496687],[-0.141878,51.496608],[-0.142537,51.496447],[-0.142517,51.496213],[-0.141827,51.495114],[-0.14076,51.494089],[-0.13268,51.490166],[-0.125492,51.486849],[-0.124059,51.486477],[-0.123925,51.486214],[-0.12447,51.485309]]]}}]}