{"type":"FeatureCollection","metadata":{"routeId":"166X","sourceDate":"20260905","source":"https://bus.data.tfl.gov.uk/bus-geometry/"},"features":[{"type":"Feature","properties":{"routeId":"166X","direction":"1","sourceDate":"20260905"},"geometry":{"type":"LineString","coordinates":[[-0.204049,51.322089],[-0.20232,51.322401],[-0.19823,51.323489],[-0.197469,51.323864],[-0.195199,51.324596],[-0.194974,51.324896],[-0.195045,51.325292],[-0.194989,51.325624],[-0.194454,51.326452],[-0.194051,51.326851],[-0.193893,51.326866],[-0.193787,51.326999],[-0.193168,51.327044],[-0.19189,51.32742],[-0.19013,51.328373],[-0.188844,51.329315],[-0.187775,51.329856],[-0.183779,51.331431],[-0.182077,51.332007],[-0.180631,51.332385],[-0.176962,51.333223],[-0.174648,51.333645],[-0.172951,51.334455],[-0.17208,51.334693],[-0.167498,51.334757],[-0.168781,51.332592],[-0.169094,51.33158],[-0.169879,51.330136],[-0.169976,51.329472],[-0.16987,51.328535],[-0.170029,51.32744],[-0.169695,51.325366],[-0.169433,51.324733],[-0.170491,51.324377],[-0.170193,51.324025],[-0.169893,51.322555],[-0.171175,51.315228],[-0.171211,51.314302],[-0.171149,51.314068],[-0.170737,51.313602],[-0.16813,51.312779],[-0.167541,51.313157],[-0.16687,51.313425],[-0.164625,51.315377],[-0.163996,51.315691],[-0.164133,51.315846],[-0.164447,51.315724],[-0.164813,51.315695],[-0.164991,51.315563],[-0.16467,51.315342],[-0.164214,51.315604],[-0.160109,51.317078],[-0.158915,51.317313],[-0.153065,51.318091],[-0.150489,51.318859],[-0.148176,51.319408],[-0.147397,51.319503],[-0.146488,51.319489],[-0.143923,51.319188],[-0.14076,51.320028],[-0.139459,51.320619],[-0.138226,51.320923],[-0.135768,51.322742],[-0.13501,51.323093],[-0.134417,51.323713],[-0.130495,51.326474],[-0.128363,51.327717],[-0.127322,51.328618],[-0.124609,51.331784],[-0.120093,51.335498],[-0.11739,51.338102],[-0.117508,51.338316],[-0.11833,51.338701]]}},{"type":"Feature","properties":{"routeId":"166X","direction":"2","sourceDate":"20260905"},"geometry":{"type":"LineString","coordinates":[[-0.117372,51.339228],[-0.117267,51.338951],[-0.116881,51.338558],[-0.116625,51.338077],[-0.116349,51.337875],[-0.116328,51.337695],[-0.116461,51.337589],[-0.116721,51.337557],[-0.117222,51.337658],[-0.11768,51.337618],[-0.117916,51.337459],[-0.124818,51.331572],[-0.127322,51.328618],[-0.128229,51.327823],[-0.130495,51.326474],[-0.134529,51.323634],[-0.134799,51.32299],[-0.13552,51.322903],[-0.138226,51.320923],[-0.139459,51.320619],[-0.14076,51.320028],[-0.143768,51.319196],[-0.144152,51.319182],[-0.146236,51.319467],[-0.147318,51.319507],[-0.148552,51.319342],[-0.151385,51.318611],[-0.153065,51.318091],[-0.156602,51.317571],[-0.158515,51.317386],[-0.160109,51.317078],[-0.163996,51.315691],[-0.164133,51.315846],[-0.164447,51.315724],[-0.164813,51.315695],[-0.164991,51.315563],[-0.16467,51.315342],[-0.165058,51.314952],[-0.166752,51.313504],[-0.167658,51.313096],[-0.16813,51.312779],[-0.170737,51.313602],[-0.171055,51.313904],[-0.171211,51.314302],[-0.171175,51.315228],[-0.169889,51.322654],[-0.170153,51.323944],[-0.170491,51.324377],[-0.169433,51.324733],[-0.169695,51.325366],[-0.169879,51.326829],[-0.170029,51.32744],[-0.16987,51.328535],[-0.169976,51.329472],[-0.169879,51.330136],[-0.169344,51.331027],[-0.169094,51.33158],[-0.168956,51.332172],[-0.168593,51.332958],[-0.167498,51.334757],[-0.17208,51.334693],[-0.172572,51.334593],[-0.174648,51.333645],[-0.176962,51.333223],[-0.181511,51.332178],[-0.183779,51.331431],[-0.187775,51.329856],[-0.188844,51.329315],[-0.19013,51.328373],[-0.19189,51.32742],[-0.193168,51.327044],[-0.193787,51.326999],[-0.193893,51.326866],[-0.194051,51.326851],[-0.194454,51.326452],[-0.194989,51.325624],[-0.195045,51.325292],[-0.194974,51.324896],[-0.195199,51.324596],[-0.197469,51.323864],[-0.19823,51.323489],[-0.201712,51.322546],[-0.203479,51.322192]]}}]}