{"type":"FeatureCollection","metadata":{"routeId":"173","sourceDate":"atlas-canonical","source":"atlas routes-overview (diversion-frozen canonical)"},"features":[{"type":"Feature","properties":{"routeId":"173","direction":"1","sourceDate":"atlas-canonical"},"geometry":{"type":"LineString","coordinates":[[0.06,51.5144],[0.0607,51.5142],[0.0604,51.5163],[0.0588,51.5205],[0.069,51.5239],[0.0727,51.526],[0.0857,51.529],[0.1093,51.5333],[0.1396,51.5308],[0.1482,51.5322],[0.1479,51.5452],[0.1466,51.5568],[0.148,51.5606],[0.142,51.5722],[0.1304,51.5708],[0.1299,51.5694],[0.1288,51.5704],[0.1299,51.5707],[0.1297,51.5718],[0.1239,51.574],[0.1212,51.5777],[0.121,51.5796],[0.1189,51.5811],[0.1155,51.5803],[0.1145,51.5784],[0.1111,51.5795]]}},{"type":"Feature","properties":{"routeId":"173","direction":"2","sourceDate":"atlas-canonical"},"geometry":{"type":"LineString","coordinates":[[0.1117,51.5798],[0.1126,51.5789],[0.1149,51.5792],[0.1172,51.5817],[0.1188,51.5812],[0.1209,51.5797],[0.1212,51.5777],[0.1239,51.574],[0.1296,51.5719],[0.1305,51.5705],[0.1299,51.5694],[0.1288,51.5704],[0.1421,51.5722],[0.148,51.5611],[0.1469,51.5566],[0.1479,51.543],[0.1526,51.5427],[0.1602,51.545],[0.1655,51.5456],[0.1662,51.5439],[0.1654,51.5396],[0.1662,51.5384],[0.1641,51.5379],[0.1588,51.5386],[0.1578,51.5398],[0.1481,51.5402],[0.1482,51.5322],[0.1477,51.5316],[0.141,51.531],[0.1388,51.5297],[0.1354,51.5314],[0.1095,51.5328],[0.0853,51.5288],[0.0771,51.5265],[0.0747,51.5254],[0.074,51.5242],[0.0704,51.5241],[0.0595,51.5201],[0.0607,51.5142],[0.0597,51.5141]]}}]}