{"type":"FeatureCollection","metadata":{"routeId":"174","sourceDate":"atlas-canonical","source":"atlas routes-overview (diversion-frozen canonical)"},"features":[{"type":"Feature","properties":{"routeId":"174","direction":"1","sourceDate":"atlas-canonical"},"geometry":{"type":"LineString","coordinates":[[0.2435,51.6056],[0.2405,51.6083],[0.2338,51.6096],[0.2203,51.608],[0.2094,51.6049],[0.2132,51.5926],[0.2072,51.5888],[0.1954,51.5856],[0.1845,51.5804],[0.1862,51.578],[0.183,51.5767],[0.184,51.5756],[0.1834,51.5752],[0.1841,51.5718],[0.1748,51.5696],[0.1763,51.5662],[0.1754,51.5602],[0.1763,51.5568],[0.1743,51.5558],[0.1743,51.5535],[0.1659,51.5529],[0.159,51.5513],[0.1474,51.5512],[0.1479,51.543],[0.1526,51.5427],[0.1602,51.545],[0.1658,51.5453],[0.1662,51.5439],[0.1655,51.542],[0.1655,51.5383],[0.1588,51.5386],[0.1578,51.5398],[0.1481,51.5402],[0.1482,51.5322],[0.1569,51.5281],[0.1701,51.5254],[0.1687,51.5179],[0.1709,51.5176]]}},{"type":"Feature","properties":{"routeId":"174","direction":"2","sourceDate":"atlas-canonical"},"geometry":{"type":"LineString","coordinates":[[0.1709,51.5176],[0.1739,51.5177],[0.1742,51.5169],[0.1687,51.5175],[0.1685,51.5196],[0.1699,51.5253],[0.1572,51.5279],[0.1477,51.5316],[0.1482,51.5385],[0.1474,51.5512],[0.159,51.5513],[0.1667,51.553],[0.1743,51.5535],[0.1743,51.5558],[0.1763,51.5568],[0.1754,51.5598],[0.1763,51.5662],[0.1748,51.5696],[0.1838,51.572],[0.1838,51.5742],[0.1824,51.5764],[0.1857,51.5781],[0.1838,51.5805],[0.197,51.5862],[0.2072,51.5888],[0.2131,51.5932],[0.2091,51.605],[0.2228,51.6085],[0.2335,51.6096],[0.2378,51.609],[0.238,51.6037],[0.2438,51.6036],[0.2435,51.6056]]}}]}