{"type":"FeatureCollection","metadata":{"routeId":"175","sourceDate":"atlas-canonical","source":"atlas routes-overview (diversion-frozen canonical)"},"features":[{"type":"Feature","properties":{"routeId":"175","direction":"1","sourceDate":"atlas-canonical"},"geometry":{"type":"LineString","coordinates":[[0.1729,51.6072],[0.1715,51.6066],[0.1732,51.6059],[0.1747,51.6065],[0.1759,51.6034],[0.1711,51.6008],[0.1637,51.5994],[0.164,51.5961],[0.1668,51.59],[0.1715,51.5892],[0.173,51.5852],[0.1784,51.5802],[0.1845,51.5805],[0.1843,51.5798],[0.1862,51.578],[0.183,51.5767],[0.184,51.5756],[0.1834,51.5752],[0.1841,51.5718],[0.1791,51.5708],[0.1812,51.5685],[0.1839,51.569],[0.1857,51.567],[0.1859,51.5656],[0.1723,51.5653],[0.1573,51.5623],[0.1539,51.5613],[0.1536,51.5605],[0.1501,51.5614],[0.148,51.5611],[0.1469,51.5566],[0.1479,51.543],[0.1526,51.5427],[0.1624,51.5454],[0.1655,51.5456],[0.1661,51.5445],[0.1654,51.5396],[0.1662,51.5384],[0.1635,51.5376],[0.1569,51.5335],[0.1557,51.5319],[0.1559,51.5295]]}},{"type":"Feature","properties":{"routeId":"175","direction":"2","sourceDate":"atlas-canonical"},"geometry":{"type":"LineString","coordinates":[[0.1559,51.5295],[0.1553,51.5288],[0.1477,51.5316],[0.1482,51.5322],[0.1482,51.5396],[0.1466,51.5568],[0.1478,51.5612],[0.153,51.5609],[0.1723,51.5653],[0.1857,51.566],[0.1844,51.5685],[0.1812,51.5686],[0.1791,51.5708],[0.1838,51.572],[0.1838,51.5742],[0.1824,51.5764],[0.1857,51.5783],[0.1833,51.5804],[0.1779,51.5799],[0.1779,51.5807],[0.173,51.5851],[0.1715,51.5892],[0.1668,51.59],[0.163,51.5992],[0.1713,51.6009],[0.1759,51.6034],[0.1746,51.6075],[0.1729,51.6072]]}}]}