{"type":"FeatureCollection","metadata":{"routeId":"18X","sourceDate":"20260905","source":"https://bus.data.tfl.gov.uk/bus-geometry/"},"features":[{"type":"Feature","properties":{"routeId":"18X","direction":"1","sourceDate":"20260905"},"geometry":{"type":"LineString","coordinates":[[-0.271053,51.543707],[-0.270484,51.543246],[-0.270128,51.543097],[-0.268234,51.542801],[-0.262528,51.54117],[-0.261521,51.541111],[-0.258898,51.541449],[-0.258019,51.541436],[-0.254866,51.540544],[-0.253123,51.539745],[-0.250402,51.538868],[-0.24912,51.53884],[-0.247978,51.537798],[-0.246686,51.537257],[-0.245858,51.53666],[-0.245415,51.536195],[-0.244957,51.536098],[-0.244534,51.535858],[-0.240457,51.533144],[-0.239681,51.532692],[-0.239085,51.532458],[-0.23735,51.532207],[-0.234333,51.532665],[-0.231428,51.531363],[-0.23049,51.531016],[-0.229233,51.530709],[-0.22837,51.530282],[-0.228013,51.530196],[-0.225492,51.530158],[-0.223827,51.529962],[-0.221661,51.529309],[-0.217639,51.528546],[-0.216134,51.527957],[-0.213969,51.527285],[-0.212921,51.527113],[-0.209029,51.526714],[-0.20562,51.526232],[-0.205207,51.526108],[-0.202554,51.524665],[-0.201293,51.524097],[-0.200652,51.523898],[-0.194664,51.522961],[-0.194015,51.522609],[-0.193393,51.521916],[-0.191331,51.5205],[-0.190466,51.520127],[-0.189448,51.519861],[-0.187511,51.519766],[-0.183893,51.519773],[-0.182613,51.52005],[-0.180546,51.520926],[-0.180317,51.520887],[-0.179309,51.52032],[-0.178959,51.520236],[-0.16987,51.520086],[-0.165009,51.520873],[-0.152538,51.523097],[-0.148995,51.523373],[-0.144988,51.524074],[-0.142549,51.52403],[-0.14085,51.524432],[-0.139484,51.524865]]}},{"type":"Feature","properties":{"routeId":"18X","direction":"2","sourceDate":"20260905"},"geometry":{"type":"LineString","coordinates":[[-0.139223,51.524633],[-0.142456,51.523936],[-0.142904,51.523898],[-0.144659,51.524006],[-0.148949,51.523268],[-0.152484,51.522988],[-0.161125,51.521415],[-0.166854,51.520516],[-0.168503,51.520038],[-0.169678,51.519849],[-0.176811,51.519897],[-0.177588,51.519577],[-0.177789,51.519571],[-0.178981,51.520048],[-0.180204,51.520094],[-0.184883,51.519528],[-0.189132,51.519594],[-0.190274,51.51989],[-0.191671,51.520653],[-0.191653,51.520716],[-0.192825,51.521438],[-0.192784,51.521493],[-0.193393,51.521916],[-0.194015,51.522609],[-0.19451,51.522894],[-0.195249,51.523096],[-0.200288,51.523831],[-0.201293,51.524097],[-0.203254,51.525018],[-0.205378,51.526174],[-0.209362,51.526774],[-0.213296,51.527167],[-0.214901,51.52754],[-0.217312,51.528442],[-0.21821,51.528699],[-0.221661,51.529309],[-0.223827,51.529962],[-0.225492,51.530158],[-0.227626,51.530154],[-0.228199,51.530235],[-0.229233,51.530709],[-0.23049,51.531016],[-0.231428,51.531363],[-0.234333,51.532665],[-0.23735,51.532207],[-0.238914,51.53241],[-0.23954,51.532627],[-0.240118,51.532937],[-0.244802,51.536006],[-0.245404,51.536104],[-0.246867,51.535784],[-0.247347,51.535828],[-0.248434,51.536788],[-0.249871,51.538437],[-0.250402,51.538868],[-0.253123,51.539745],[-0.254866,51.540544],[-0.258019,51.541436],[-0.258898,51.541449],[-0.261521,51.541111],[-0.262528,51.54117],[-0.268234,51.542801],[-0.270128,51.543097],[-0.270484,51.543246],[-0.271144,51.543726]]}}]}