{"type":"FeatureCollection","metadata":{"routeId":"209","sourceDate":"20260905","source":"https://bus.data.tfl.gov.uk/bus-geometry/"},"features":[{"type":"Feature","properties":{"routeId":"209","direction":"1","sourceDate":"20260905"},"geometry":{"type":"LineString","coordinates":[[-0.246908,51.473541],[-0.245265,51.474082],[-0.244083,51.474118],[-0.242787,51.474485],[-0.241395,51.474725],[-0.24033,51.475096],[-0.239273,51.475251],[-0.23928,51.47544],[-0.236107,51.482667],[-0.235879,51.482969],[-0.232932,51.485803],[-0.233329,51.485962],[-0.238447,51.486218],[-0.2394,51.486152],[-0.240777,51.485921],[-0.24406,51.484828],[-0.244984,51.484401],[-0.245981,51.483562],[-0.246285,51.483153],[-0.249612,51.47599],[-0.251376,51.473584],[-0.253005,51.472372],[-0.253859,51.471863],[-0.255473,51.471078],[-0.256056,51.47052],[-0.257509,51.470164],[-0.259566,51.469862],[-0.264133,51.469786],[-0.265301,51.469666],[-0.266551,51.469417],[-0.266704,51.469454],[-0.266772,51.469663],[-0.266955,51.469773],[-0.267574,51.469704],[-0.268549,51.469518],[-0.270144,51.468831],[-0.271028,51.468691],[-0.273358,51.468735],[-0.275601,51.468972],[-0.276144,51.469315],[-0.275311,51.469636],[-0.268702,51.473828],[-0.267297,51.474805],[-0.263582,51.477088],[-0.258149,51.481711],[-0.257859,51.482422],[-0.256955,51.482826],[-0.256195,51.48348],[-0.255696,51.48412],[-0.255258,51.485031],[-0.253234,51.485981],[-0.252673,51.486332],[-0.252474,51.486644],[-0.252486,51.487085],[-0.252406,51.487299],[-0.252019,51.487609],[-0.249612,51.4884],[-0.244741,51.49035],[-0.241267,51.49122],[-0.240006,51.491368],[-0.236908,51.491402],[-0.235253,51.491341],[-0.231722,51.491018],[-0.229355,51.491144],[-0.227617,51.491379],[-0.227179,51.491525],[-0.226106,51.492075],[-0.225052,51.492158],[-0.224875,51.492263],[-0.224826,51.492784],[-0.224572,51.493005],[-0.224338,51.493092],[-0.223764,51.493111],[-0.223597,51.492892],[-0.223284,51.492788],[-0.22318,51.492661]]}},{"type":"Feature","properties":{"routeId":"209","direction":"2","sourceDate":"20260905"},"geometry":{"type":"LineString","coordinates":[[-0.222916,51.492408],[-0.222711,51.492348],[-0.222392,51.492388],[-0.222123,51.491538],[-0.222184,51.491449],[-0.222418,51.491345],[-0.22442,51.491357],[-0.224761,51.491488],[-0.224844,51.491939],[-0.224956,51.492031],[-0.22582,51.492035],[-0.226154,51.49195],[-0.227038,51.49146],[-0.227816,51.490716],[-0.227976,51.490656],[-0.228614,51.490926],[-0.231081,51.490829],[-0.23625,51.491275],[-0.239664,51.491273],[-0.241023,51.491149],[-0.244891,51.490182],[-0.249719,51.48824],[-0.251657,51.487279],[-0.251857,51.48695],[-0.252839,51.486128],[-0.255258,51.485031],[-0.255696,51.48412],[-0.256195,51.48348],[-0.256793,51.482932],[-0.257769,51.482448],[-0.258149,51.481711],[-0.258493,51.481392],[-0.263582,51.477088],[-0.266267,51.475386],[-0.267186,51.474714],[-0.268702,51.473828],[-0.27549,51.469486],[-0.276034,51.469238],[-0.275601,51.468972],[-0.274341,51.468834],[-0.272855,51.468709],[-0.271028,51.468691],[-0.270144,51.468831],[-0.268549,51.469518],[-0.267968,51.469653],[-0.266955,51.469773],[-0.266772,51.469663],[-0.266704,51.469454],[-0.265271,51.469766],[-0.26425,51.469862],[-0.259526,51.469867],[-0.257509,51.470164],[-0.255924,51.470581],[-0.255473,51.471078],[-0.253859,51.471863],[-0.252805,51.472523],[-0.251376,51.473584],[-0.249612,51.47599],[-0.246285,51.483153],[-0.245981,51.483562],[-0.244984,51.484401],[-0.24406,51.484828],[-0.240777,51.485921],[-0.2394,51.486152],[-0.238447,51.486218],[-0.233329,51.485962],[-0.232932,51.485803],[-0.235879,51.482969],[-0.236107,51.482667],[-0.23928,51.47544],[-0.239273,51.475251],[-0.240399,51.475077],[-0.241395,51.474725],[-0.242787,51.474485],[-0.244136,51.474112],[-0.245265,51.474082],[-0.246928,51.473534]]}}]}