{"type":"FeatureCollection","metadata":{"routeId":"230","sourceDate":"20260918","source":"https://bus.data.tfl.gov.uk/bus-geometry/"},"features":[{"type":"Feature","properties":{"routeId":"230","direction":"1","sourceDate":"20260918"},"geometry":{"type":"MultiLineString","coordinates":[[[0.000973,51.589871],[0.000697,51.589835],[0.000357,51.589652],[0.000451,51.588499],[-0.000151,51.587619],[-0.001014,51.587041],[-0.002505,51.586284],[-0.001894,51.585734],[-0.001381,51.584837],[-0.000695,51.584094],[-0.000148,51.583744],[-0.000268,51.582325],[-0.000084,51.581917],[0.00018,51.581688],[0.000479,51.581602],[0.001516,51.581872],[0.002106,51.581817],[0.002412,51.58156],[0.002371,51.581281],[0.002001,51.58109],[0.001467,51.581072],[0.001399,51.581829],[0.000174,51.581553],[-0.002624,51.580269],[-0.006237,51.578847],[-0.00758,51.577836],[-0.007741,51.577128],[-0.007568,51.575821],[-0.007618,51.575651],[-0.007755,51.575492],[-0.008449,51.575135],[-0.009142,51.574131],[-0.009843,51.573871],[-0.012761,51.575208],[-0.013191,51.575593],[-0.014272,51.575907],[-0.015648,51.576525],[-0.016578,51.577692],[-0.017738,51.578898],[-0.018292,51.579762],[-0.018406,51.580613],[-0.018423,51.581733],[-0.018868,51.583178],[-0.019431,51.583242],[-0.020341,51.583088],[-0.020394,51.583214],[-0.020169,51.583409],[-0.020181,51.584119],[-0.020365,51.584212],[-0.020514,51.584107],[-0.020523,51.583226],[-0.020428,51.583089],[-0.020299,51.583078],[-0.018935,51.583315],[-0.018929,51.583379],[-0.019623,51.585],[-0.019654,51.585576],[-0.019842,51.586272],[-0.020415,51.586704],[-0.020723,51.587267],[-0.020821,51.587655],[-0.020763,51.587996],[-0.020546,51.58834],[-0.019929,51.588917],[-0.018179,51.589661],[-0.017363,51.590159],[-0.020293,51.590838],[-0.021306,51.590784],[-0.023756,51.590213],[-0.028824,51.589543],[-0.02995,51.589211],[-0.030642,51.58889],[-0.033657,51.587992],[-0.03534,51.587737],[-0.040123,51.58722],[-0.050739,51.586159],[-0.051726,51.586274],[-0.053331,51.586976],[-0.056172,51.587724],[-0.058125,51.587954],[-0.060981,51.58802],[-0.061349,51.588871],[-0.061694,51.588886],[-0.064148,51.589592],[-0.065238,51.589412],[-0.067663,51.588741],[-0.068618,51.588685],[-0.070228,51.588838],[-0.070389,51.588786],[-0.070518,51.588483],[-0.072666,51.588554],[-0.073931,51.589006],[-0.077273,51.58952],[-0.077664,51.589481],[-0.079803,51.589084],[-0.080768,51.588794],[-0.082876,51.588528],[-0.084183,51.588266],[-0.085661,51.587463],[-0.086896,51.586916],[-0.086973,51.586792],[-0.08683,51.58643],[-0.086936,51.586314],[-0.087125,51.586273],[-0.088431,51.586447],[-0.091753,51.586078],[-0.094021,51.586034],[-0.098753,51.587469],[-0.101052,51.58774],[-0.101143,51.587642],[-0.100953,51.587351],[-0.101217,51.58723],[-0.102769,51.589845],[-0.103582,51.590639],[-0.105457,51.592218],[-0.107481,51.593586],[-0.108691,51.594625],[-0.108921,51.595007],[-0.109075,51.595803]],[[0.000973,51.589871],[0.000697,51.589835],[0.000357,51.589652],[0.000451,51.588499],[-0.000151,51.587619],[-0.001014,51.587041],[-0.002505,51.586284],[-0.001894,51.585734],[-0.001381,51.584837],[-0.000695,51.584094],[-0.000148,51.583744],[-0.000268,51.582325],[-0.000084,51.581917],[0.00018,51.581688],[0.000479,51.581602],[0.001516,51.581872],[0.002106,51.581817],[0.002412,51.58156],[0.002371,51.581281],[0.002001,51.58109],[0.001467,51.581072],[0.001399,51.581829],[0.000174,51.581553],[-0.002624,51.580269],[-0.006237,51.578847],[-0.00758,51.577836],[-0.007741,51.577128],[-0.007568,51.575821],[-0.007618,51.575651],[-0.007755,51.575492],[-0.008449,51.575135],[-0.009142,51.574131],[-0.009843,51.573871],[-0.012761,51.575208],[-0.013191,51.575593],[-0.014272,51.575907],[-0.015648,51.576525],[-0.016578,51.577692],[-0.017738,51.578898],[-0.018292,51.579762],[-0.018406,51.580613],[-0.018423,51.581733],[-0.018868,51.583178],[-0.019431,51.583242],[-0.020341,51.583088],[-0.020394,51.583214],[-0.020169,51.583409],[-0.020181,51.584119],[-0.020365,51.584212],[-0.020514,51.584107],[-0.020523,51.583226],[-0.020428,51.583089],[-0.020299,51.583078],[-0.018935,51.583315],[-0.018929,51.583379],[-0.019623,51.585],[-0.019654,51.585576],[-0.019842,51.586272],[-0.020415,51.586704],[-0.020723,51.587267],[-0.020821,51.587655],[-0.020763,51.587996],[-0.020546,51.58834],[-0.019929,51.588917],[-0.018179,51.589661],[-0.017363,51.590159],[-0.020293,51.590838],[-0.021306,51.590784],[-0.023756,51.590213],[-0.028824,51.589543],[-0.02995,51.589211],[-0.030642,51.58889],[-0.033657,51.587992],[-0.03534,51.587737],[-0.040123,51.58722],[-0.050739,51.586159],[-0.051726,51.586274],[-0.053331,51.586976],[-0.056515,51.587793],[-0.058125,51.587954],[-0.060981,51.58802],[-0.061349,51.588871],[-0.061694,51.588886],[-0.064148,51.589592],[-0.065238,51.589412],[-0.067663,51.588741],[-0.068618,51.588685],[-0.070228,51.588838],[-0.070389,51.588786],[-0.070518,51.588483],[-0.072666,51.588554],[-0.073931,51.589006],[-0.077273,51.58952],[-0.077664,51.589481],[-0.079803,51.589084],[-0.080768,51.588794],[-0.082876,51.588528],[-0.084183,51.588266],[-0.085661,51.587463],[-0.086896,51.586916],[-0.086973,51.586792],[-0.08683,51.58643],[-0.086936,51.586314],[-0.087125,51.586273],[-0.088431,51.586447],[-0.091753,51.586078],[-0.094021,51.586034],[-0.098753,51.587469],[-0.101052,51.58774],[-0.101143,51.587642],[-0.100953,51.587351],[-0.101217,51.58723],[-0.102769,51.589845],[-0.103582,51.590639],[-0.105457,51.592218],[-0.107481,51.593586],[-0.108691,51.594625],[-0.108921,51.595007],[-0.109075,51.595803]]]}},{"type":"Feature","properties":{"routeId":"230","direction":"2","sourceDate":"20260918"},"geometry":{"type":"MultiLineString","coordinates":[[[-0.109326,51.596608],[-0.109039,51.595989],[-0.108921,51.595007],[-0.10876,51.594708],[-0.107481,51.593586],[-0.1054,51.59218],[-0.103386,51.590536],[-0.103338,51.590393],[-0.102769,51.589845],[-0.102172,51.588909],[-0.10141,51.588501],[-0.098753,51.587469],[-0.094021,51.586034],[-0.091753,51.586078],[-0.088431,51.586447],[-0.087053,51.58628],[-0.086846,51.586385],[-0.086973,51.586792],[-0.086896,51.586916],[-0.085661,51.587463],[-0.084183,51.588266],[-0.08264,51.588564],[-0.080768,51.588794],[-0.079803,51.589084],[-0.077664,51.589481],[-0.077273,51.58952],[-0.073931,51.589006],[-0.072666,51.588554],[-0.070518,51.588483],[-0.070389,51.588786],[-0.070228,51.588838],[-0.068238,51.588681],[-0.067663,51.588741],[-0.065005,51.589462],[-0.064148,51.589592],[-0.062076,51.588995],[-0.061213,51.589013],[-0.061149,51.588823],[-0.060951,51.588712],[-0.060813,51.588233],[-0.060851,51.588009],[-0.058125,51.587954],[-0.056515,51.587793],[-0.053675,51.587089],[-0.05173,51.586275],[-0.050739,51.586159],[-0.040779,51.587214],[-0.040123,51.58722],[-0.034019,51.587913],[-0.030642,51.58889],[-0.02995,51.589211],[-0.028824,51.589543],[-0.023276,51.590295],[-0.021221,51.590793],[-0.020207,51.590828],[-0.017363,51.590159],[-0.018342,51.589564],[-0.019929,51.588917],[-0.020137,51.588786],[-0.020715,51.588112],[-0.020796,51.587541],[-0.020415,51.586704],[-0.019842,51.586272],[-0.019531,51.585358],[-0.019478,51.585016],[-0.01953,51.584828],[-0.019071,51.583759],[-0.018866,51.583486],[-0.01842,51.583118],[-0.018329,51.582892],[-0.018563,51.582168],[-0.018868,51.583178],[-0.019431,51.583242],[-0.020341,51.583088],[-0.020394,51.583214],[-0.020169,51.583409],[-0.020181,51.584119],[-0.02025,51.584192],[-0.020497,51.584169],[-0.020523,51.583226],[-0.020428,51.583089],[-0.020299,51.583078],[-0.018687,51.583334],[-0.01842,51.583118],[-0.018319,51.582784],[-0.018563,51.582168],[-0.0184,51.581589],[-0.018343,51.579934],[-0.01809,51.579429],[-0.017532,51.578652],[-0.016465,51.577549],[-0.015648,51.576525],[-0.014132,51.575861],[-0.013079,51.575528],[-0.01236,51.575786],[-0.011297,51.576667],[-0.011017,51.576806],[-0.00758,51.577836],[-0.006474,51.578716],[-0.002624,51.580269],[0.000057,51.581519],[-0.000268,51.582325],[-0.000148,51.583744],[-0.000695,51.584094],[-0.001274,51.584702],[-0.001894,51.585734],[-0.002505,51.586284],[-0.000554,51.587311],[0.000061,51.587841],[0.000419,51.588446],[0.000567,51.588524],[0.001996,51.588851],[0.002809,51.588954],[0.003152,51.589191],[0.003013,51.589975],[0.002843,51.590059],[0.002556,51.5901],[0.000973,51.589871]],[[-0.109326,51.596608],[-0.109039,51.595989],[-0.108921,51.595007],[-0.10876,51.594708],[-0.107481,51.593586],[-0.1054,51.59218],[-0.103386,51.590536],[-0.103338,51.590393],[-0.102769,51.589845],[-0.102172,51.588909],[-0.10141,51.588501],[-0.098753,51.587469],[-0.094021,51.586034],[-0.091753,51.586078],[-0.088431,51.586447],[-0.087053,51.58628],[-0.086846,51.586385],[-0.086973,51.586792],[-0.086896,51.586916],[-0.085661,51.587463],[-0.084183,51.588266],[-0.08264,51.588564],[-0.080768,51.588794],[-0.079803,51.589084],[-0.077664,51.589481],[-0.077273,51.58952],[-0.073931,51.589006],[-0.072666,51.588554],[-0.070518,51.588483],[-0.070389,51.588786],[-0.070228,51.588838],[-0.068238,51.588681],[-0.067663,51.588741],[-0.065005,51.589462],[-0.064148,51.589592],[-0.062076,51.588995],[-0.061213,51.589013],[-0.061149,51.588823],[-0.060951,51.588712],[-0.060813,51.588233],[-0.060851,51.588009],[-0.058365,51.587959],[-0.056343,51.587763],[-0.053675,51.587089],[-0.05173,51.586275],[-0.050999,51.586155],[-0.044534,51.586767],[-0.040779,51.587214],[-0.040123,51.58722],[-0.034019,51.587913],[-0.030642,51.58889],[-0.02995,51.589211],[-0.028824,51.589543],[-0.023276,51.590295],[-0.021221,51.590793],[-0.020207,51.590828],[-0.017363,51.590159],[-0.018342,51.589564],[-0.019929,51.588917],[-0.020137,51.588786],[-0.020715,51.588112],[-0.020796,51.587541],[-0.020415,51.586704],[-0.019842,51.586272],[-0.019531,51.585358],[-0.019478,51.585016],[-0.01953,51.584828],[-0.019071,51.583759],[-0.018866,51.583486],[-0.01842,51.583118],[-0.018329,51.582892],[-0.018563,51.582168],[-0.018868,51.583178],[-0.019431,51.583242],[-0.020341,51.583088],[-0.020394,51.583214],[-0.020169,51.583409],[-0.020181,51.584119],[-0.02025,51.584192],[-0.020497,51.584169],[-0.020523,51.583226],[-0.020428,51.583089],[-0.020299,51.583078],[-0.018687,51.583334],[-0.01842,51.583118],[-0.018319,51.582784],[-0.018563,51.582168],[-0.0184,51.581589],[-0.018343,51.579934],[-0.01809,51.579429],[-0.017532,51.578652],[-0.016465,51.577549],[-0.015648,51.576525],[-0.014132,51.575861],[-0.013079,51.575528],[-0.01236,51.575786],[-0.011297,51.576667],[-0.011017,51.576806],[-0.00758,51.577836],[-0.006474,51.578716],[-0.002624,51.580269],[0.000057,51.581519],[-0.000268,51.582325],[-0.000148,51.583744],[-0.000695,51.584094],[-0.001274,51.584702],[-0.001894,51.585734],[-0.002505,51.586284],[-0.000554,51.587311],[0.000061,51.587841],[0.000419,51.588446],[0.000567,51.588524],[0.001996,51.588851],[0.002809,51.588954],[0.003152,51.589191],[0.003013,51.589975],[0.002843,51.590059],[0.002556,51.5901],[0.000973,51.589871]],[[-0.109326,51.596608],[-0.109039,51.595989],[-0.108921,51.595007],[-0.10876,51.594708],[-0.107481,51.593586],[-0.1054,51.59218],[-0.103386,51.590536],[-0.103338,51.590393],[-0.102769,51.589845],[-0.102172,51.588909],[-0.10141,51.588501],[-0.098753,51.587469],[-0.094021,51.586034],[-0.091753,51.586078],[-0.088431,51.586447],[-0.087053,51.58628],[-0.086846,51.586385],[-0.086973,51.586792],[-0.086896,51.586916],[-0.085661,51.587463],[-0.084183,51.588266],[-0.08264,51.588564],[-0.080768,51.588794],[-0.079803,51.589084],[-0.077664,51.589481],[-0.077273,51.58952],[-0.073931,51.589006],[-0.072666,51.588554],[-0.070518,51.588483],[-0.070389,51.588786],[-0.070228,51.588838],[-0.068238,51.588681],[-0.067663,51.588741],[-0.065005,51.589462],[-0.064148,51.589592],[-0.062076,51.588995],[-0.061213,51.589013],[-0.061149,51.588823],[-0.060951,51.588712],[-0.060813,51.588233],[-0.060851,51.588009],[-0.058365,51.587959],[-0.056343,51.587763],[-0.053675,51.587089],[-0.05173,51.586275],[-0.050739,51.586159],[-0.040779,51.587214],[-0.040123,51.58722],[-0.034019,51.587913],[-0.030642,51.58889],[-0.02995,51.589211],[-0.028824,51.589543],[-0.023276,51.590295],[-0.021221,51.590793],[-0.020207,51.590828],[-0.017363,51.590159],[-0.018342,51.589564],[-0.019929,51.588917],[-0.020137,51.588786],[-0.020715,51.588112],[-0.020796,51.587541],[-0.020415,51.586704],[-0.019842,51.586272],[-0.019531,51.585358],[-0.019478,51.585016],[-0.01953,51.584828],[-0.019071,51.583759],[-0.018866,51.583486],[-0.01842,51.583118],[-0.018329,51.582892],[-0.018563,51.582168],[-0.018868,51.583178],[-0.019431,51.583242],[-0.020341,51.583088],[-0.020394,51.583214],[-0.020169,51.583409],[-0.020181,51.584119],[-0.02025,51.584192],[-0.020497,51.584169],[-0.020523,51.583226],[-0.020428,51.583089],[-0.020299,51.583078],[-0.018687,51.583334],[-0.01842,51.583118],[-0.018319,51.582784],[-0.018563,51.582168],[-0.0184,51.581589],[-0.018343,51.579934],[-0.01809,51.579429],[-0.017532,51.578652],[-0.016465,51.577549],[-0.015648,51.576525],[-0.014132,51.575861],[-0.013079,51.575528],[-0.01236,51.575786],[-0.011297,51.576667],[-0.011017,51.576806],[-0.00758,51.577836],[-0.006474,51.578716],[-0.002624,51.580269],[0.000057,51.581519],[-0.000268,51.582325],[-0.000148,51.583744],[-0.000695,51.584094],[-0.001274,51.584702],[-0.001894,51.585734],[-0.002505,51.586284],[-0.000554,51.587311],[0.000061,51.587841],[0.000419,51.588446],[0.000567,51.588524],[0.001996,51.588851],[0.002809,51.588954],[0.003152,51.589191],[0.003013,51.589975],[0.002843,51.590059],[0.002556,51.5901],[0.000973,51.589871]]]}}]}