{"type":"FeatureCollection","metadata":{"routeId":"232","sourceDate":"20260905","source":"https://bus.data.tfl.gov.uk/bus-geometry/"},"features":[{"type":"Feature","properties":{"routeId":"232","direction":"1","sourceDate":"20260905"},"geometry":{"type":"LineString","coordinates":[[-0.268031,51.548244],[-0.268116,51.548573],[-0.267921,51.548777],[-0.266443,51.548971],[-0.265475,51.549214],[-0.264859,51.54964],[-0.264803,51.549989],[-0.264905,51.550333],[-0.264956,51.55126],[-0.264841,51.552391],[-0.26475,51.552524],[-0.264399,51.552645],[-0.262067,51.552521],[-0.261453,51.552728],[-0.261184,51.552607],[-0.261231,51.552508],[-0.260999,51.552145],[-0.26063,51.552005],[-0.256001,51.552709],[-0.255273,51.552897],[-0.254849,51.553052],[-0.254257,51.553439],[-0.253656,51.554078],[-0.252774,51.555335],[-0.252714,51.555673],[-0.252913,51.556135],[-0.253313,51.556626],[-0.253551,51.557197],[-0.253802,51.558549],[-0.253826,51.559035],[-0.253754,51.559411],[-0.253431,51.560306],[-0.253579,51.560605],[-0.254083,51.560876],[-0.25543,51.561412],[-0.255844,51.561358],[-0.256053,51.561163],[-0.256047,51.560956],[-0.255866,51.560783],[-0.255101,51.560421],[-0.25106,51.558949],[-0.250289,51.558748],[-0.249599,51.558861],[-0.249526,51.559079],[-0.249955,51.559535],[-0.25078,51.559853],[-0.251181,51.559166],[-0.250289,51.558748],[-0.249599,51.558861],[-0.249322,51.558743],[-0.248223,51.557977],[-0.247589,51.558384],[-0.246586,51.558857],[-0.243199,51.559444],[-0.241991,51.559946],[-0.241096,51.559942],[-0.239024,51.56018],[-0.23714,51.560173],[-0.236569,51.560243],[-0.235024,51.560642],[-0.233066,51.56188],[-0.232602,51.562098],[-0.230611,51.562754],[-0.230127,51.562805],[-0.230268,51.563511],[-0.231236,51.564578],[-0.231863,51.565522],[-0.233378,51.566633],[-0.231904,51.56706],[-0.229538,51.568544],[-0.231216,51.569928],[-0.231562,51.570301],[-0.23162,51.570671],[-0.232185,51.570994],[-0.232291,51.571239],[-0.232038,51.571442],[-0.231224,51.571573],[-0.230416,51.571957],[-0.230343,51.572182],[-0.230529,51.57239],[-0.230489,51.572659],[-0.229983,51.573074],[-0.229476,51.573129],[-0.226785,51.572927],[-0.225885,51.573066],[-0.224468,51.573504],[-0.224303,51.573654],[-0.224174,51.574003],[-0.224688,51.574901],[-0.223243,51.57531],[-0.223473,51.575701],[-0.222859,51.575889],[-0.222426,51.575541],[-0.220513,51.576114],[-0.220124,51.576459],[-0.219925,51.577113],[-0.219468,51.577735],[-0.218798,51.577896],[-0.218719,51.578056],[-0.218302,51.578041],[-0.218132,51.577949],[-0.218159,51.577634],[-0.217679,51.577339],[-0.216859,51.577659],[-0.216479,51.577716],[-0.215515,51.578122],[-0.214863,51.578501],[-0.213655,51.579499],[-0.211776,51.581404],[-0.211386,51.582144],[-0.211051,51.583695],[-0.209775,51.586152],[-0.209355,51.586816],[-0.208874,51.587304],[-0.208101,51.587867],[-0.207564,51.588146],[-0.206092,51.588655],[-0.201358,51.589724],[-0.199939,51.589838],[-0.195615,51.589681],[-0.194265,51.589849],[-0.193028,51.590163],[-0.191663,51.590664],[-0.180008,51.59694],[-0.178791,51.597755],[-0.176494,51.599592],[-0.175618,51.60019],[-0.172826,51.601774],[-0.169667,51.60311],[-0.166405,51.604147],[-0.162899,51.605504],[-0.161502,51.605779],[-0.159592,51.605857],[-0.157387,51.60575],[-0.155034,51.606091],[-0.151998,51.606888],[-0.149102,51.607427],[-0.147308,51.607858],[-0.141473,51.609636],[-0.13647,51.610878],[-0.135706,51.611163],[-0.138225,51.612066],[-0.139943,51.612272],[-0.140917,51.612639],[-0.142175,51.613834],[-0.143881,51.615753],[-0.141848,51.616368],[-0.141743,51.616474],[-0.14168,51.61695],[-0.141486,51.617091],[-0.141154,51.617076],[-0.140441,51.616517],[-0.139898,51.616355],[-0.138934,51.616268],[-0.13666,51.61643],[-0.134609,51.616073],[-0.134046,51.616064],[-0.134013,51.616172],[-0.133103,51.616157],[-0.133023,51.615994],[-0.130978,51.615854],[-0.129011,51.615562],[-0.12662,51.614491],[-0.125149,51.613935],[-0.121508,51.612906],[-0.119459,51.612504],[-0.118699,51.612416],[-0.117009,51.612384],[-0.114126,51.612581],[-0.111259,51.612416],[-0.110706,51.612517],[-0.10964,51.612446],[-0.109542,51.611603],[-0.109619,51.610881],[-0.110161,51.608947],[-0.111834,51.605179],[-0.111913,51.603384],[-0.112012,51.602979],[-0.112311,51.602372],[-0.110828,51.598446],[-0.109955,51.597209],[-0.112863,51.596734],[-0.113973,51.596428],[-0.114335,51.596398],[-0.114267,51.595938],[-0.114077,51.595706],[-0.112019,51.594796],[-0.112873,51.594054],[-0.114939,51.593462]]}},{"type":"Feature","properties":{"routeId":"232","direction":"2","sourceDate":"20260905"},"geometry":{"type":"LineString","coordinates":[[-0.115407,51.593699],[-0.115876,51.594408],[-0.115665,51.595655],[-0.114077,51.595706],[-0.114267,51.595938],[-0.114335,51.596398],[-0.113973,51.596428],[-0.112863,51.596734],[-0.109955,51.597209],[-0.110828,51.598446],[-0.111839,51.601231],[-0.112303,51.602265],[-0.112195,51.602706],[-0.111928,51.603247],[-0.111834,51.605179],[-0.110102,51.609153],[-0.109619,51.610881],[-0.109542,51.611603],[-0.109619,51.612256],[-0.111993,51.612493],[-0.114126,51.612581],[-0.117009,51.612384],[-0.119459,51.612504],[-0.121508,51.612906],[-0.125149,51.613935],[-0.126784,51.614555],[-0.129011,51.615562],[-0.130978,51.615854],[-0.134983,51.616106],[-0.136948,51.616434],[-0.138934,51.616268],[-0.139898,51.616355],[-0.140626,51.616564],[-0.141089,51.616563],[-0.143881,51.615753],[-0.14322,51.614957],[-0.141225,51.612869],[-0.140662,51.612509],[-0.140206,51.612376],[-0.13855,51.612233],[-0.137935,51.612089],[-0.135706,51.611163],[-0.137055,51.610663],[-0.140777,51.609706],[-0.14828,51.607388],[-0.150515,51.606406],[-0.154456,51.605731],[-0.156386,51.605519],[-0.159423,51.605702],[-0.161087,51.605682],[-0.162979,51.605316],[-0.16581,51.604228],[-0.169937,51.602871],[-0.171669,51.60217],[-0.172941,51.601543],[-0.175686,51.599948],[-0.176785,51.599174],[-0.179216,51.597251],[-0.180177,51.596673],[-0.191273,51.590694],[-0.19364,51.58988],[-0.195489,51.589571],[-0.197208,51.589535],[-0.199815,51.589701],[-0.201886,51.589517],[-0.206536,51.588383],[-0.207341,51.588108],[-0.207979,51.58778],[-0.208896,51.587097],[-0.209305,51.586627],[-0.210848,51.58371],[-0.21101,51.583263],[-0.211214,51.582124],[-0.211374,51.581721],[-0.211786,51.581161],[-0.213783,51.579168],[-0.214469,51.578612],[-0.216302,51.577638],[-0.216551,51.577421],[-0.21768,51.576953],[-0.217803,51.576775],[-0.217751,51.576621],[-0.217944,51.576471],[-0.21829,51.576494],[-0.219013,51.576838],[-0.219007,51.576973],[-0.218799,51.577131],[-0.218223,51.577114],[-0.2179,51.577235],[-0.217897,51.577324],[-0.21836,51.577664],[-0.219263,51.577822],[-0.219468,51.577735],[-0.219925,51.577113],[-0.220216,51.576326],[-0.220513,51.576114],[-0.223243,51.57531],[-0.223473,51.575701],[-0.222931,51.575869],[-0.222718,51.575815],[-0.222426,51.575541],[-0.225546,51.574716],[-0.225651,51.574609],[-0.225516,51.574383],[-0.224825,51.574345],[-0.224513,51.574206],[-0.223629,51.572798],[-0.223377,51.572606],[-0.222989,51.572573],[-0.222174,51.572749],[-0.221933,51.572998],[-0.221964,51.573156],[-0.222279,51.573371],[-0.223926,51.572974],[-0.224253,51.572727],[-0.224957,51.572801],[-0.226555,51.572537],[-0.227188,51.572223],[-0.227399,51.571983],[-0.227683,51.571358],[-0.227816,51.57127],[-0.228148,51.571266],[-0.229726,51.571874],[-0.22997,51.571905],[-0.23104,51.571499],[-0.231346,51.571036],[-0.231598,51.570869],[-0.232509,51.57081],[-0.233518,51.570373],[-0.235841,51.569989],[-0.236314,51.569816],[-0.236392,51.569673],[-0.235649,51.568744],[-0.233983,51.567038],[-0.231863,51.565522],[-0.231218,51.564555],[-0.230268,51.563511],[-0.230127,51.562805],[-0.230863,51.562674],[-0.232939,51.561959],[-0.234657,51.560816],[-0.235244,51.560564],[-0.236853,51.560192],[-0.239183,51.560174],[-0.241096,51.559942],[-0.241991,51.559946],[-0.243296,51.559389],[-0.246672,51.55881],[-0.247751,51.558285],[-0.248376,51.557848],[-0.249298,51.55787],[-0.249612,51.557956],[-0.250879,51.558784],[-0.251876,51.559123],[-0.252335,51.559174],[-0.252727,51.559108],[-0.253461,51.558796],[-0.253641,51.558591],[-0.253377,51.557212],[-0.253086,51.556506],[-0.252685,51.556059],[-0.25257,51.55568],[-0.252611,51.555366],[-0.253437,51.554137],[-0.254492,51.552948],[-0.254441,51.552785],[-0.254136,51.552466],[-0.253422,51.55209],[-0.253001,51.551954],[-0.252372,51.552188],[-0.251982,51.552587],[-0.251807,51.553007],[-0.25189,51.553476],[-0.252444,51.554078],[-0.253168,51.554376],[-0.253654,51.554491],[-0.253959,51.554434],[-0.254005,51.554371],[-0.253939,51.554199],[-0.254216,51.553744],[-0.254931,51.553161],[-0.255954,51.552826],[-0.256357,51.55285],[-0.257526,51.553481],[-0.258838,51.554361],[-0.259468,51.554865],[-0.259517,51.55517],[-0.260058,51.55527],[-0.260638,51.555197],[-0.261568,51.554636],[-0.261725,51.554296],[-0.261652,51.55318],[-0.261408,51.55279],[-0.261184,51.552607],[-0.261231,51.552508],[-0.264399,51.552645],[-0.264646,51.552586],[-0.264841,51.552391],[-0.264942,51.551422],[-0.264916,51.550441],[-0.264796,51.549792],[-0.26501,51.54948],[-0.265366,51.549254],[-0.266443,51.548971],[-0.267834,51.548793],[-0.26793,51.548543],[-0.267673,51.547334],[-0.267933,51.547311],[-0.267837,51.547579],[-0.268031,51.548244]]}}]}