{"type":"FeatureCollection","metadata":{"routeId":"24","sourceDate":"20261009","source":"https://bus.data.tfl.gov.uk/bus-geometry/"},"features":[{"type":"Feature","properties":{"routeId":"24","direction":"1","sourceDate":"20261009"},"geometry":{"type":"MultiLineString","coordinates":[[[-0.143493,51.485462],[-0.139966,51.484913],[-0.139275,51.484911],[-0.137332,51.485231],[-0.138431,51.488133],[-0.134882,51.488789],[-0.139531,51.490994],[-0.139957,51.492224],[-0.142047,51.493966],[-0.143258,51.496063],[-0.14321,51.496188],[-0.142944,51.496354],[-0.142921,51.49657],[-0.142144,51.496539],[-0.13665,51.497343],[-0.134674,51.497687],[-0.133847,51.497909],[-0.127524,51.500326],[-0.127484,51.500946],[-0.127276,51.501105],[-0.126645,51.501032],[-0.126427,51.501091],[-0.126197,51.50186],[-0.126124,51.502578],[-0.126192,51.502714],[-0.126123,51.502764],[-0.126115,51.503006],[-0.126189,51.503708],[-0.126257,51.5038],[-0.12623,51.504128],[-0.126397,51.504274],[-0.126883,51.505784],[-0.127469,51.506953],[-0.127739,51.507209],[-0.127983,51.507287],[-0.128055,51.507412],[-0.127921,51.507564],[-0.127118,51.507784],[-0.127368,51.509406],[-0.128029,51.509813],[-0.128343,51.510231],[-0.128486,51.511275],[-0.128409,51.511797],[-0.128498,51.512086],[-0.129554,51.513891],[-0.1303,51.515937],[-0.130377,51.516514],[-0.130815,51.517078],[-0.134933,51.521166],[-0.137209,51.523591],[-0.13782,51.524509],[-0.138303,51.525021],[-0.138477,51.525365],[-0.13847,51.525536],[-0.138625,51.525897],[-0.138688,51.530099],[-0.139411,51.532511],[-0.139206,51.534351],[-0.139066,51.534961],[-0.13939,51.535487],[-0.141513,51.537544],[-0.142404,51.538664],[-0.142485,51.53916],[-0.142119,51.541061],[-0.143013,51.541066],[-0.144252,51.540744],[-0.146587,51.542193],[-0.147709,51.542615],[-0.14908,51.54296],[-0.149293,51.544798],[-0.149413,51.545061],[-0.149969,51.545573],[-0.150747,51.545936],[-0.153503,51.549819],[-0.154061,51.550305],[-0.154528,51.550536],[-0.155284,51.550738],[-0.156267,51.550789],[-0.156634,51.550876],[-0.156844,51.551023],[-0.158128,51.553156],[-0.159567,51.5529],[-0.161776,51.553546],[-0.163055,51.553674],[-0.164649,51.554007]],[[-0.143493,51.485462],[-0.139966,51.484913],[-0.139275,51.484911],[-0.137332,51.485231],[-0.138431,51.488133],[-0.134882,51.488789],[-0.139531,51.490994],[-0.139957,51.492224],[-0.142047,51.493966],[-0.143258,51.496063],[-0.14321,51.496188],[-0.142944,51.496354],[-0.142921,51.49657],[-0.142144,51.496539],[-0.13665,51.497343],[-0.134674,51.497687],[-0.133847,51.497909],[-0.127524,51.500326],[-0.127484,51.500946],[-0.127276,51.501105],[-0.125182,51.500951],[-0.117678,51.500816],[-0.117486,51.500921],[-0.11705,51.501706],[-0.116401,51.502554],[-0.115071,51.503931],[-0.114239,51.504547],[-0.114072,51.50507],[-0.114133,51.505373],[-0.118663,51.510463],[-0.119204,51.511188],[-0.118922,51.51223],[-0.118573,51.512665],[-0.117729,51.5132],[-0.117721,51.513398],[-0.120213,51.517087],[-0.120323,51.517405],[-0.120778,51.517565],[-0.122461,51.517286],[-0.123167,51.517298],[-0.125859,51.517044],[-0.128787,51.516632],[-0.129341,51.516488],[-0.130367,51.516406],[-0.130377,51.516514],[-0.130815,51.517078],[-0.134933,51.521166],[-0.137209,51.523591],[-0.13782,51.524509],[-0.138303,51.525021],[-0.138625,51.525897],[-0.138688,51.530099],[-0.139411,51.532511],[-0.139206,51.534351],[-0.139066,51.534961],[-0.13939,51.535487],[-0.141513,51.537544],[-0.142404,51.538664],[-0.142485,51.53916],[-0.142119,51.541061],[-0.143013,51.541066],[-0.144252,51.540744],[-0.146587,51.542193],[-0.147709,51.542615],[-0.14908,51.54296],[-0.149293,51.544798],[-0.149413,51.545061],[-0.149969,51.545573],[-0.150747,51.545936],[-0.153503,51.549819],[-0.154061,51.550305],[-0.154528,51.550536],[-0.155284,51.550738],[-0.156267,51.550789],[-0.156634,51.550876],[-0.156844,51.551023],[-0.158128,51.553156],[-0.159567,51.5529],[-0.161776,51.553546],[-0.163055,51.553674],[-0.164649,51.554007]]]}},{"type":"Feature","properties":{"routeId":"24","direction":"2","sourceDate":"20261009"},"geometry":{"type":"MultiLineString","coordinates":[[[-0.164846,51.554332],[-0.164764,51.554223],[-0.164445,51.554271],[-0.162986,51.554671],[-0.161133,51.554471],[-0.158436,51.553404],[-0.158128,51.553156],[-0.157277,51.551671],[-0.156742,51.551057],[-0.15653,51.550937],[-0.154856,51.55064],[-0.154258,51.550425],[-0.153503,51.549819],[-0.150747,51.545936],[-0.149997,51.545592],[-0.149508,51.545206],[-0.149293,51.544798],[-0.14908,51.54296],[-0.147353,51.542501],[-0.146587,51.542193],[-0.145893,51.541773],[-0.144384,51.542805],[-0.144063,51.542899],[-0.141864,51.542729],[-0.139922,51.540496],[-0.141411,51.539838],[-0.14176,51.539625],[-0.141779,51.539491],[-0.13747,51.534854],[-0.137504,51.53472],[-0.138261,51.534534],[-0.13894,51.5345],[-0.139059,51.534421],[-0.139146,51.534054],[-0.13914,51.533847],[-0.138194,51.532995],[-0.138101,51.532823],[-0.138238,51.532645],[-0.139093,51.532515],[-0.139155,51.532426],[-0.139163,51.532237],[-0.138668,51.530741],[-0.138618,51.530394],[-0.138688,51.530099],[-0.138641,51.525934],[-0.138238,51.525209],[-0.138052,51.525179],[-0.13782,51.524509],[-0.137209,51.523591],[-0.134861,51.521081],[-0.130815,51.517078],[-0.130377,51.516514],[-0.13035,51.516126],[-0.12965,51.514218],[-0.128498,51.512086],[-0.128409,51.511797],[-0.128418,51.51052],[-0.128343,51.510231],[-0.128015,51.509803],[-0.127368,51.509406],[-0.12708,51.507648],[-0.127489,51.507279],[-0.127469,51.506953],[-0.126883,51.505784],[-0.126701,51.505646],[-0.126194,51.50431],[-0.126123,51.502764],[-0.126046,51.502714],[-0.126126,51.502479],[-0.1261,51.500978],[-0.126276,51.500199],[-0.127081,51.500239],[-0.128011,51.500038],[-0.133847,51.497909],[-0.134837,51.497648],[-0.141566,51.49661],[-0.141872,51.496616],[-0.142537,51.496447],[-0.142517,51.496213],[-0.141666,51.494814],[-0.141758,51.494681],[-0.142356,51.494511],[-0.142047,51.493966],[-0.139957,51.492224],[-0.139531,51.490994],[-0.134882,51.488789],[-0.138431,51.488133],[-0.145144,51.487226],[-0.145638,51.485705],[-0.143493,51.485462]],[[-0.164846,51.554332],[-0.164764,51.554223],[-0.164445,51.554271],[-0.162986,51.554671],[-0.161133,51.554471],[-0.158436,51.553404],[-0.158128,51.553156],[-0.157277,51.551671],[-0.156742,51.551057],[-0.15653,51.550937],[-0.154856,51.55064],[-0.154047,51.550296],[-0.153503,51.549819],[-0.150747,51.545936],[-0.149997,51.545592],[-0.149508,51.545206],[-0.149293,51.544798],[-0.14908,51.54296],[-0.149001,51.542915],[-0.147643,51.542594],[-0.146587,51.542193],[-0.145893,51.541773],[-0.144384,51.542805],[-0.144063,51.542899],[-0.141864,51.542729],[-0.141737,51.542656],[-0.139922,51.540496],[-0.141411,51.539838],[-0.14176,51.539625],[-0.141779,51.539491],[-0.13747,51.534854],[-0.137504,51.53472],[-0.138261,51.534534],[-0.13894,51.5345],[-0.139059,51.534421],[-0.13914,51.533847],[-0.138194,51.532995],[-0.138101,51.532823],[-0.138238,51.532645],[-0.139093,51.532515],[-0.139163,51.532237],[-0.138668,51.530741],[-0.138618,51.530394],[-0.138688,51.530099],[-0.138641,51.525934],[-0.138238,51.525209],[-0.138052,51.525179],[-0.13782,51.524509],[-0.137209,51.523591],[-0.134861,51.521081],[-0.130815,51.517078],[-0.130377,51.516514],[-0.130367,51.516406],[-0.125627,51.517076],[-0.120992,51.519026],[-0.12027,51.517296],[-0.119803,51.516728],[-0.118049,51.514176],[-0.117568,51.513269],[-0.118573,51.512665],[-0.118871,51.512306],[-0.119164,51.511272],[-0.113766,51.505187],[-0.113253,51.505035],[-0.113173,51.504881],[-0.113173,51.504613],[-0.113288,51.504532],[-0.11414,51.504491],[-0.114717,51.504132],[-0.116432,51.502368],[-0.116923,51.501649],[-0.116932,51.501425],[-0.115964,51.501158],[-0.115798,51.500975],[-0.115879,51.500761],[-0.116469,51.500437],[-0.116816,51.500389],[-0.117594,51.500743],[-0.126044,51.500941],[-0.126276,51.500199],[-0.127081,51.500239],[-0.128522,51.499884],[-0.129797,51.499356],[-0.133847,51.497909],[-0.134837,51.497648],[-0.141566,51.49661],[-0.141872,51.496616],[-0.142537,51.496447],[-0.142517,51.496213],[-0.141666,51.494814],[-0.141758,51.494681],[-0.142356,51.494511],[-0.142047,51.493966],[-0.139957,51.492224],[-0.139531,51.490994],[-0.134882,51.488789],[-0.138431,51.488133],[-0.145144,51.487226],[-0.145638,51.485705],[-0.143493,51.485462]],[[-0.164846,51.554332],[-0.164764,51.554223],[-0.164445,51.554271],[-0.162986,51.554671],[-0.161133,51.554471],[-0.158436,51.553404],[-0.158128,51.553156],[-0.157277,51.551671],[-0.156742,51.551057],[-0.15653,51.550937],[-0.154856,51.55064],[-0.154258,51.550425],[-0.153503,51.549819],[-0.150747,51.545936],[-0.149997,51.545592],[-0.149508,51.545206],[-0.149293,51.544798],[-0.14908,51.54296],[-0.147643,51.542594],[-0.146587,51.542193],[-0.145893,51.541773],[-0.144384,51.542805],[-0.144063,51.542899],[-0.141864,51.542729],[-0.139922,51.540496],[-0.141411,51.539838],[-0.14176,51.539625],[-0.141779,51.539491],[-0.13747,51.534854],[-0.137504,51.53472],[-0.138261,51.534534],[-0.13894,51.5345],[-0.139059,51.534421],[-0.139146,51.534054],[-0.13914,51.533847],[-0.138194,51.532995],[-0.138101,51.532823],[-0.138238,51.532645],[-0.139093,51.532515],[-0.139155,51.532426],[-0.139163,51.532237],[-0.138668,51.530741],[-0.138618,51.530394],[-0.138688,51.530099],[-0.138641,51.525934],[-0.138238,51.525209],[-0.138052,51.525179],[-0.13782,51.524509],[-0.137209,51.523591],[-0.134861,51.521081],[-0.130815,51.517078],[-0.130377,51.516514],[-0.13035,51.516126],[-0.12965,51.514218],[-0.128498,51.512086],[-0.128409,51.511797],[-0.128418,51.51052],[-0.128343,51.510231],[-0.128015,51.509803],[-0.127368,51.509406],[-0.12708,51.507648],[-0.127489,51.507279],[-0.127469,51.506953],[-0.126883,51.505784],[-0.126701,51.505646],[-0.126194,51.50431],[-0.126123,51.502764],[-0.126046,51.502714],[-0.126126,51.502479],[-0.1261,51.500978],[-0.126276,51.500199],[-0.127081,51.500239],[-0.128011,51.500038],[-0.133847,51.497909],[-0.134837,51.497648],[-0.141566,51.49661],[-0.141872,51.496616],[-0.142537,51.496447],[-0.142517,51.496213],[-0.141666,51.494814],[-0.141758,51.494681],[-0.142356,51.494511],[-0.142047,51.493966],[-0.139957,51.492224],[-0.139531,51.490994],[-0.134882,51.488789],[-0.138431,51.488133],[-0.145144,51.487226],[-0.145638,51.485705],[-0.143493,51.485462]]]}}]}