{"type":"FeatureCollection","metadata":{"routeId":"254","sourceDate":"20260918","source":"https://bus.data.tfl.gov.uk/bus-geometry/"},"features":[{"type":"Feature","properties":{"routeId":"254","direction":"1","sourceDate":"20260918"},"geometry":{"type":"LineString","coordinates":[[-0.074696,51.514257],[-0.07004,51.515923],[-0.068026,51.516852],[-0.06558,51.517774],[-0.062636,51.518535],[-0.056904,51.51978],[-0.056638,51.519928],[-0.056486,51.520124],[-0.056413,51.520581],[-0.055105,51.522753],[-0.054944,51.523164],[-0.054906,51.524738],[-0.055522,51.526852],[-0.055559,51.527286],[-0.055503,51.527403],[-0.055593,51.527568],[-0.055528,51.527733],[-0.055568,51.528463],[-0.056328,51.530597],[-0.056471,51.530727],[-0.056435,51.530819],[-0.056851,51.531589],[-0.057199,51.53271],[-0.05734,51.533582],[-0.057222,51.536008],[-0.056999,51.536849],[-0.056954,51.537577],[-0.057174,51.538165],[-0.057136,51.538474],[-0.055245,51.540795],[-0.055388,51.543873],[-0.055364,51.544754],[-0.055292,51.545778],[-0.055062,51.547114],[-0.059473,51.54923],[-0.059493,51.549399],[-0.059345,51.549505],[-0.05519,51.549526],[-0.054549,51.549668],[-0.053415,51.550548],[-0.051764,51.55097],[-0.051599,51.551193],[-0.051814,51.551556],[-0.052755,51.552489],[-0.053364,51.553434],[-0.054502,51.55482],[-0.055697,51.556566],[-0.056049,51.558128],[-0.056401,51.558323],[-0.05644,51.558422],[-0.056109,51.55874],[-0.056119,51.559181],[-0.056541,51.559791],[-0.057545,51.562298],[-0.057832,51.562672],[-0.059994,51.564758],[-0.060413,51.56677],[-0.061436,51.568201],[-0.062301,51.569211],[-0.062746,51.569596],[-0.064674,51.570743],[-0.066951,51.571833],[-0.0674,51.572137],[-0.068053,51.572391],[-0.06999,51.572656],[-0.071132,51.572945],[-0.073166,51.573653],[-0.079239,51.574741],[-0.080381,51.574823],[-0.081401,51.574838],[-0.085613,51.574504],[-0.086389,51.574256],[-0.087015,51.57378],[-0.087549,51.573558],[-0.094804,51.57111],[-0.096317,51.570469],[-0.101308,51.566701],[-0.102999,51.565587],[-0.104508,51.564712],[-0.107398,51.563318],[-0.107684,51.56309],[-0.107917,51.562177],[-0.108485,51.561692],[-0.109999,51.559963],[-0.111108,51.559333],[-0.111189,51.559101],[-0.111165,51.558651],[-0.111277,51.558382],[-0.111544,51.558198],[-0.115371,51.556885],[-0.116719,51.556213],[-0.117388,51.556089],[-0.118874,51.555405]]}},{"type":"Feature","properties":{"routeId":"254","direction":"2","sourceDate":"20260918"},"geometry":{"type":"LineString","coordinates":[[-0.122499,51.554941],[-0.121073,51.556615],[-0.119406,51.557857],[-0.112958,51.561323],[-0.107334,51.563336],[-0.104508,51.564712],[-0.100996,51.566912],[-0.095957,51.570805],[-0.087392,51.573741],[-0.086859,51.574048],[-0.086306,51.574497],[-0.083091,51.574755],[-0.080419,51.574842],[-0.07889,51.57471],[-0.073069,51.573635],[-0.072294,51.573458],[-0.071132,51.572945],[-0.06999,51.572656],[-0.068053,51.572391],[-0.067655,51.572258],[-0.065656,51.571296],[-0.062592,51.569486],[-0.06153,51.568326],[-0.060413,51.56677],[-0.059994,51.564758],[-0.057832,51.562672],[-0.057531,51.562262],[-0.056461,51.559628],[-0.055733,51.558761],[-0.055309,51.558556],[-0.055274,51.558376],[-0.055748,51.558087],[-0.055936,51.55773],[-0.055795,51.556792],[-0.05563,51.556457],[-0.054699,51.555115],[-0.053364,51.553434],[-0.052659,51.552379],[-0.051814,51.551556],[-0.051512,51.550974],[-0.051743,51.550863],[-0.053415,51.550548],[-0.054549,51.549668],[-0.05519,51.549526],[-0.058573,51.549528],[-0.059345,51.549505],[-0.059493,51.549399],[-0.059473,51.54923],[-0.055062,51.547114],[-0.055175,51.545821],[-0.055252,51.545705],[-0.055364,51.544754],[-0.055388,51.543873],[-0.055221,51.541694],[-0.055261,51.540741],[-0.055725,51.540021],[-0.056069,51.539721],[-0.056996,51.538621],[-0.057042,51.538208],[-0.056906,51.537684],[-0.057329,51.534508],[-0.05734,51.533582],[-0.056846,51.531694],[-0.056507,51.530945],[-0.056339,51.530753],[-0.056364,51.530662],[-0.055606,51.528598],[-0.055473,51.527567],[-0.055533,51.527494],[-0.055468,51.527277],[-0.055545,51.526978],[-0.054917,51.52481],[-0.054944,51.523146],[-0.055487,51.522043],[-0.056348,51.520706],[-0.056499,51.520178],[-0.056383,51.519825],[-0.063846,51.518213],[-0.06576,51.517606],[-0.065933,51.517618],[-0.067783,51.516952],[-0.07004,51.515923],[-0.070307,51.515739],[-0.074951,51.514111]]}}]}