{"type":"FeatureCollection","metadata":{"routeId":"259","sourceDate":"20260905","source":"https://bus.data.tfl.gov.uk/bus-geometry/"},"features":[{"type":"Feature","properties":{"routeId":"259","direction":"1","sourceDate":"20260905"},"geometry":{"type":"MultiLineString","coordinates":[[[-0.048683,51.648647],[-0.046406,51.648441],[-0.04699,51.646626],[-0.046444,51.645187],[-0.046392,51.644757],[-0.046546,51.643839],[-0.047186,51.641672],[-0.048102,51.639243],[-0.048578,51.638577],[-0.049123,51.63801],[-0.052221,51.635374],[-0.052606,51.634966],[-0.054477,51.632478],[-0.055961,51.630364],[-0.056194,51.629801],[-0.056257,51.629425],[-0.056309,51.628121],[-0.056531,51.627565],[-0.056988,51.626774],[-0.058396,51.625619],[-0.059738,51.6253],[-0.059828,51.625221],[-0.059796,51.624977],[-0.060178,51.624822],[-0.060639,51.624496],[-0.061445,51.622661],[-0.061736,51.621475],[-0.063521,51.617388],[-0.063474,51.617313],[-0.063817,51.616717],[-0.064453,51.614677],[-0.064853,51.612399],[-0.065137,51.611496],[-0.065512,51.610818],[-0.066873,51.608889],[-0.067561,51.608487],[-0.06776,51.608212],[-0.068056,51.607362],[-0.068161,51.605921],[-0.068153,51.605089],[-0.067751,51.602349],[-0.068114,51.597508],[-0.068542,51.596256],[-0.069465,51.594239],[-0.069823,51.592544],[-0.069818,51.592059],[-0.070003,51.590749],[-0.070094,51.590643],[-0.070208,51.589997],[-0.070153,51.589924],[-0.070378,51.589264],[-0.070389,51.588786],[-0.071547,51.586],[-0.072245,51.583192],[-0.07247,51.583],[-0.073458,51.582562],[-0.080773,51.579443],[-0.081994,51.578554],[-0.085918,51.574823],[-0.086495,51.574131],[-0.087015,51.57378],[-0.091528,51.572179],[-0.094804,51.57111],[-0.096317,51.570469],[-0.101308,51.566701],[-0.102999,51.565587],[-0.104508,51.564712],[-0.107398,51.563318],[-0.107684,51.56309],[-0.107917,51.562177],[-0.108485,51.561692],[-0.109999,51.559963],[-0.111108,51.559333],[-0.111189,51.559101],[-0.111165,51.558651],[-0.111277,51.558382],[-0.111544,51.558198],[-0.115598,51.556806],[-0.116924,51.556135],[-0.117388,51.556089],[-0.117833,51.555772],[-0.117919,51.555301]],[[-0.058997,51.625435],[-0.059738,51.6253],[-0.059828,51.625221],[-0.059796,51.624977],[-0.060178,51.624822],[-0.060639,51.624496],[-0.061357,51.622917],[-0.061736,51.621475],[-0.063521,51.617388],[-0.063474,51.617313],[-0.063817,51.616717],[-0.064453,51.614677],[-0.064853,51.612399],[-0.065137,51.611496],[-0.065512,51.610818],[-0.066873,51.608889],[-0.067561,51.608487],[-0.06776,51.608212],[-0.068056,51.607362],[-0.068153,51.605089],[-0.067751,51.602349],[-0.068114,51.597508],[-0.068542,51.596256],[-0.069465,51.594239],[-0.069823,51.592544],[-0.069818,51.592059],[-0.070003,51.590749],[-0.070094,51.590643],[-0.070208,51.589997],[-0.070153,51.589924],[-0.070378,51.589264],[-0.070389,51.588786],[-0.071547,51.586],[-0.072245,51.583192],[-0.07247,51.583],[-0.073458,51.582562],[-0.080773,51.579443],[-0.081994,51.578554],[-0.085918,51.574823],[-0.086495,51.574131],[-0.087015,51.57378],[-0.091528,51.572179],[-0.094804,51.57111],[-0.096317,51.570469],[-0.101308,51.566701],[-0.102999,51.565587],[-0.104508,51.564712],[-0.107398,51.563318],[-0.107684,51.56309],[-0.107917,51.562177],[-0.108485,51.561692],[-0.109999,51.559963],[-0.111108,51.559333],[-0.111189,51.559101],[-0.111165,51.558651],[-0.111277,51.558382],[-0.111544,51.558198],[-0.115598,51.556806],[-0.116924,51.556135],[-0.117388,51.556089],[-0.117833,51.555772],[-0.117912,51.555611],[-0.117956,51.550001],[-0.118089,51.546775],[-0.116524,51.537865],[-0.116515,51.53732],[-0.117068,51.534843],[-0.118739,51.533467],[-0.120659,51.532023],[-0.120871,51.531757],[-0.121037,51.530887],[-0.119938,51.53096],[-0.117918,51.53053]]]}},{"type":"Feature","properties":{"routeId":"259","direction":"2","sourceDate":"20260905"},"geometry":{"type":"MultiLineString","coordinates":[[[-0.118713,51.550344],[-0.123758,51.55343],[-0.121073,51.556615],[-0.119406,51.557857],[-0.112958,51.561323],[-0.107334,51.563336],[-0.104508,51.564712],[-0.100996,51.566912],[-0.095957,51.570805],[-0.091459,51.5723],[-0.08717,51.573864],[-0.086636,51.574206],[-0.085828,51.574903],[-0.081994,51.578554],[-0.080773,51.579443],[-0.072379,51.583066],[-0.072286,51.58378],[-0.07202,51.584734],[-0.07152,51.586278],[-0.070604,51.588493],[-0.070378,51.589264],[-0.070094,51.590643],[-0.070146,51.59077],[-0.069855,51.592204],[-0.069859,51.592512],[-0.069515,51.594086],[-0.06919,51.594935],[-0.068542,51.596256],[-0.068131,51.597436],[-0.067815,51.602162],[-0.067831,51.602808],[-0.068182,51.605422],[-0.068003,51.607604],[-0.06776,51.608212],[-0.067561,51.608487],[-0.066863,51.608977],[-0.065806,51.610365],[-0.065137,51.611496],[-0.064872,51.612283],[-0.064453,51.614677],[-0.063659,51.617079],[-0.063696,51.617173],[-0.0633,51.617791],[-0.061736,51.621475],[-0.061439,51.622684],[-0.060638,51.624504],[-0.060598,51.624793],[-0.060704,51.62501],[-0.060539,51.625169],[-0.060188,51.625271],[-0.059957,51.62525],[-0.059803,51.625139],[-0.059796,51.624977],[-0.059653,51.624939],[-0.057792,51.625538],[-0.057746,51.6256],[-0.058104,51.625864],[-0.056988,51.626774],[-0.056442,51.627727],[-0.056241,51.628713],[-0.056272,51.629334],[-0.056194,51.629801],[-0.055961,51.630364],[-0.055211,51.631433],[-0.052606,51.634966],[-0.051814,51.635751],[-0.049123,51.63801],[-0.04838,51.638825],[-0.048102,51.639243],[-0.047056,51.642049],[-0.046546,51.643839],[-0.046392,51.644718],[-0.046395,51.644988],[-0.04699,51.646626],[-0.046631,51.647573],[-0.046406,51.648441],[-0.048112,51.648597]],[[-0.120018,51.52927],[-0.120777,51.530191],[-0.121015,51.530365],[-0.122384,51.530747],[-0.122551,51.530876],[-0.12242,51.533355],[-0.122356,51.533507],[-0.122239,51.533559],[-0.118807,51.533558],[-0.118513,51.533706],[-0.117068,51.534843],[-0.1165,51.537415],[-0.116514,51.537774],[-0.118089,51.546775],[-0.118019,51.549885],[-0.123758,51.55343],[-0.121073,51.556615],[-0.119406,51.557857],[-0.112958,51.561323],[-0.107334,51.563336],[-0.104508,51.564712],[-0.100996,51.566912],[-0.095957,51.570805],[-0.091459,51.5723],[-0.08717,51.573864],[-0.086636,51.574206],[-0.085828,51.574903],[-0.081994,51.578554],[-0.080773,51.579443],[-0.072379,51.583066],[-0.072286,51.58378],[-0.07202,51.584734],[-0.07152,51.586278],[-0.070604,51.588493],[-0.070378,51.589264],[-0.070094,51.590643],[-0.070146,51.59077],[-0.069855,51.592204],[-0.069859,51.592512],[-0.069515,51.594086],[-0.06919,51.594935],[-0.068542,51.596256],[-0.068131,51.597436],[-0.067815,51.602162],[-0.067831,51.602808],[-0.068182,51.605422],[-0.068003,51.607604],[-0.06776,51.608212],[-0.067561,51.608487],[-0.066863,51.608977],[-0.065806,51.610365],[-0.065137,51.611496],[-0.064872,51.612283],[-0.064453,51.614677],[-0.063659,51.617079],[-0.063696,51.617173],[-0.0633,51.617791],[-0.061736,51.621475],[-0.061439,51.622684],[-0.060638,51.624504],[-0.060598,51.624793],[-0.060704,51.62501],[-0.060539,51.625169],[-0.060188,51.625271],[-0.059957,51.62525],[-0.059803,51.625139],[-0.059796,51.624977],[-0.059653,51.624939],[-0.058873,51.625174]]]}}]}