{"type":"FeatureCollection","metadata":{"routeId":"268","sourceDate":"atlas-canonical","source":"atlas routes-overview (diversion-frozen canonical)"},"features":[{"type":"Feature","properties":{"routeId":"268","direction":"1","sourceDate":"atlas-canonical"},"geometry":{"type":"LineString","coordinates":[[-0.1936,51.5714],[-0.1857,51.5693],[-0.181,51.5654],[-0.1792,51.561],[-0.1729,51.5604],[-0.1668,51.5567],[-0.165,51.5542],[-0.1692,51.5532],[-0.1663,51.5515],[-0.1721,51.5479],[-0.173,51.5457],[-0.175,51.5447],[-0.1738,51.5418],[-0.1751,51.5418],[-0.1755,51.5441],[-0.1785,51.5457],[-0.1811,51.5486],[-0.1834,51.5483]]}},{"type":"Feature","properties":{"routeId":"268","direction":"2","sourceDate":"atlas-canonical"},"geometry":{"type":"LineString","coordinates":[[-0.1834,51.5483],[-0.1877,51.5479],[-0.1811,51.5486],[-0.1783,51.5457],[-0.175,51.5441],[-0.1729,51.5458],[-0.1721,51.5479],[-0.1663,51.5515],[-0.1692,51.5532],[-0.165,51.5542],[-0.1668,51.5567],[-0.1729,51.5604],[-0.1792,51.561],[-0.181,51.5654],[-0.1852,51.5689],[-0.1897,51.5708],[-0.1954,51.5715],[-0.1948,51.5721]]}}]}