{"type":"FeatureCollection","metadata":{"routeId":"279","sourceDate":"20260905","source":"https://bus.data.tfl.gov.uk/bus-geometry/"},"features":[{"type":"Feature","properties":{"routeId":"279","direction":"1","sourceDate":"20260905"},"geometry":{"type":"MultiLineString","coordinates":[[[-0.031254,51.685592],[-0.030963,51.685565],[-0.03082,51.68573],[-0.029831,51.685654],[-0.029595,51.685758],[-0.029616,51.685929],[-0.029509,51.686071],[-0.029061,51.686054],[-0.028842,51.685781],[-0.028981,51.685576],[-0.028956,51.684821],[-0.029102,51.684446],[-0.029689,51.683916],[-0.030206,51.683682],[-0.031082,51.683489],[-0.032952,51.683395],[-0.033253,51.683139],[-0.034007,51.680094],[-0.034119,51.678828],[-0.034523,51.677864],[-0.034959,51.677152],[-0.036328,51.675583],[-0.038007,51.674217],[-0.040169,51.671709],[-0.040839,51.670605],[-0.041191,51.669819],[-0.041392,51.668519],[-0.041503,51.668278],[-0.043496,51.665747],[-0.044284,51.664484],[-0.045136,51.663509],[-0.047077,51.659063],[-0.047244,51.65814],[-0.047279,51.657053],[-0.047386,51.656578],[-0.047771,51.655685],[-0.04825,51.654973],[-0.048533,51.653764],[-0.048486,51.653512],[-0.047628,51.652356],[-0.046643,51.650316],[-0.046383,51.649609],[-0.046338,51.64858],[-0.04699,51.646626],[-0.046444,51.645187],[-0.046392,51.644757],[-0.046546,51.643839],[-0.047186,51.641672],[-0.048102,51.639243],[-0.048578,51.638577],[-0.049123,51.63801],[-0.052221,51.635374],[-0.052606,51.634966],[-0.054477,51.632478],[-0.055961,51.630364],[-0.056194,51.629801],[-0.056257,51.629425],[-0.056309,51.628121],[-0.056531,51.627565],[-0.056988,51.626774],[-0.058396,51.625619],[-0.059738,51.6253],[-0.059828,51.625221],[-0.059796,51.624977],[-0.060178,51.624822],[-0.060639,51.624496],[-0.061445,51.622661],[-0.061736,51.621475],[-0.063521,51.617388],[-0.063474,51.617313],[-0.063817,51.616717],[-0.064453,51.614677],[-0.064853,51.612399],[-0.065137,51.611496],[-0.065512,51.610818],[-0.066873,51.608889],[-0.067561,51.608487],[-0.06776,51.608212],[-0.068056,51.607362],[-0.068153,51.605089],[-0.067751,51.602349],[-0.068114,51.597508],[-0.068542,51.596256],[-0.069137,51.595044],[-0.069601,51.593755],[-0.069823,51.592544],[-0.069818,51.592059],[-0.070003,51.590749],[-0.070094,51.590643],[-0.070208,51.589997],[-0.070153,51.589924],[-0.070378,51.589264],[-0.070389,51.588786],[-0.071547,51.586],[-0.071959,51.584433],[-0.072162,51.583393],[-0.072159,51.582967],[-0.072373,51.582497],[-0.07316,51.577888],[-0.072329,51.575365],[-0.072271,51.575023],[-0.072366,51.574143],[-0.070131,51.574088],[-0.069433,51.573897],[-0.068958,51.573853],[-0.067495,51.573991],[-0.067118,51.573125]],[[-0.031254,51.685592],[-0.030963,51.685565],[-0.03082,51.68573],[-0.029831,51.685654],[-0.029595,51.685758],[-0.029616,51.685929],[-0.029509,51.686071],[-0.029061,51.686054],[-0.028842,51.685781],[-0.028981,51.685576],[-0.028956,51.684821],[-0.029102,51.684446],[-0.029689,51.683916],[-0.030206,51.683682],[-0.031082,51.683489],[-0.032952,51.683395],[-0.033253,51.683139],[-0.034007,51.680094],[-0.034119,51.678828],[-0.034523,51.677864],[-0.034959,51.677152],[-0.036328,51.675583],[-0.038007,51.674217],[-0.040169,51.671709],[-0.040839,51.670605],[-0.041191,51.669819],[-0.041392,51.668519],[-0.041503,51.668278],[-0.043496,51.665747],[-0.044284,51.664484],[-0.045136,51.663509],[-0.047077,51.659063],[-0.047244,51.65814],[-0.047279,51.657053],[-0.047386,51.656578],[-0.047771,51.655685],[-0.04825,51.654973],[-0.048533,51.653764],[-0.048486,51.653512],[-0.047628,51.652356],[-0.046396,51.649682],[-0.046338,51.64858],[-0.04699,51.646626],[-0.046444,51.645187],[-0.046392,51.644757],[-0.046546,51.643839],[-0.047186,51.641672],[-0.048102,51.639243],[-0.048578,51.638577],[-0.049123,51.63801],[-0.052221,51.635374],[-0.052606,51.634966],[-0.054477,51.632478],[-0.055961,51.630364],[-0.056194,51.629801],[-0.056257,51.629425],[-0.056309,51.628121],[-0.056531,51.627565],[-0.056988,51.626774],[-0.058396,51.625619],[-0.059738,51.6253],[-0.059828,51.625221],[-0.059796,51.624977],[-0.060178,51.624822],[-0.060639,51.624496],[-0.061445,51.622661],[-0.061736,51.621475],[-0.063521,51.617388],[-0.063474,51.617313],[-0.063817,51.616717],[-0.064453,51.614677],[-0.064853,51.612399],[-0.065137,51.611496],[-0.065512,51.610818],[-0.066873,51.608889],[-0.067561,51.608487],[-0.06776,51.608212],[-0.068056,51.607362],[-0.068161,51.605921],[-0.068153,51.605089],[-0.067751,51.602349],[-0.068114,51.597508],[-0.068542,51.596256],[-0.069465,51.594239],[-0.069823,51.592544],[-0.069818,51.592059],[-0.070003,51.590749],[-0.070094,51.590643],[-0.070208,51.589997],[-0.070153,51.589924],[-0.070378,51.589264],[-0.070389,51.588786],[-0.071547,51.586],[-0.072245,51.583192],[-0.07247,51.583],[-0.073458,51.582562],[-0.080773,51.579443],[-0.081994,51.578554],[-0.085918,51.574823],[-0.086495,51.574131],[-0.087015,51.57378],[-0.094376,51.571239]]]}},{"type":"Feature","properties":{"routeId":"279","direction":"2","sourceDate":"20260905"},"geometry":{"type":"MultiLineString","coordinates":[[[-0.067118,51.573125],[-0.066963,51.572921],[-0.068392,51.572576],[-0.068555,51.572471],[-0.06999,51.572656],[-0.072556,51.573418],[-0.072397,51.573748],[-0.072271,51.575023],[-0.072986,51.577229],[-0.073186,51.577609],[-0.072387,51.582398],[-0.072386,51.583226],[-0.072286,51.58378],[-0.07152,51.586278],[-0.070604,51.588493],[-0.070378,51.589264],[-0.070094,51.590643],[-0.070146,51.59077],[-0.069855,51.592204],[-0.069859,51.592512],[-0.069515,51.594086],[-0.06919,51.594935],[-0.068542,51.596256],[-0.068131,51.597436],[-0.067815,51.602162],[-0.067831,51.602808],[-0.068182,51.605422],[-0.068003,51.607604],[-0.06776,51.608212],[-0.067561,51.608487],[-0.066863,51.608977],[-0.065806,51.610365],[-0.065137,51.611496],[-0.064872,51.612283],[-0.064453,51.614677],[-0.063659,51.617079],[-0.063696,51.617173],[-0.0633,51.617791],[-0.061736,51.621475],[-0.061439,51.622684],[-0.060638,51.624504],[-0.060598,51.624793],[-0.060704,51.62501],[-0.060539,51.625169],[-0.060188,51.625271],[-0.059957,51.62525],[-0.059803,51.625139],[-0.059796,51.624977],[-0.059653,51.624939],[-0.057792,51.625538],[-0.057746,51.6256],[-0.058104,51.625864],[-0.056988,51.626774],[-0.056442,51.627727],[-0.056241,51.628713],[-0.056272,51.629334],[-0.056194,51.629801],[-0.055961,51.630364],[-0.055211,51.631433],[-0.052606,51.634966],[-0.051814,51.635751],[-0.049123,51.63801],[-0.04838,51.638825],[-0.048102,51.639243],[-0.047056,51.642049],[-0.046546,51.643839],[-0.046392,51.644718],[-0.046395,51.644988],[-0.04699,51.646626],[-0.046367,51.64852],[-0.046396,51.649682],[-0.047558,51.652228],[-0.048486,51.653512],[-0.048526,51.653926],[-0.04833,51.654795],[-0.047771,51.655685],[-0.047386,51.656578],[-0.047298,51.656936],[-0.047247,51.658122],[-0.047045,51.659132],[-0.046167,51.66128],[-0.045028,51.663669],[-0.044284,51.664484],[-0.043445,51.665828],[-0.041503,51.668278],[-0.041409,51.668456],[-0.041243,51.669613],[-0.04065,51.670961],[-0.040171,51.671753],[-0.038261,51.673962],[-0.036117,51.675795],[-0.035174,51.676859],[-0.034476,51.677953],[-0.034155,51.678676],[-0.034046,51.679529],[-0.034151,51.680115],[-0.033952,51.680363],[-0.03315,51.683515],[-0.033002,51.683594],[-0.032744,51.683535],[-0.031398,51.683558],[-0.030538,51.683687],[-0.029713,51.684033],[-0.029414,51.684262],[-0.029183,51.684591],[-0.029086,51.685138],[-0.029316,51.685528],[-0.03138,51.685771]],[[-0.094277,51.571376],[-0.091459,51.5723],[-0.08717,51.573864],[-0.086636,51.574206],[-0.085828,51.574903],[-0.081994,51.578554],[-0.080773,51.579443],[-0.072379,51.583066],[-0.072286,51.58378],[-0.07202,51.584734],[-0.07152,51.586278],[-0.070604,51.588493],[-0.070378,51.589264],[-0.070094,51.590643],[-0.070146,51.59077],[-0.069855,51.592204],[-0.069859,51.592512],[-0.069465,51.594239],[-0.068542,51.596256],[-0.068131,51.597436],[-0.067815,51.602162],[-0.067831,51.602808],[-0.068182,51.605422],[-0.068003,51.607604],[-0.06776,51.608212],[-0.067561,51.608487],[-0.066863,51.608977],[-0.065806,51.610365],[-0.065137,51.611496],[-0.064872,51.612283],[-0.064453,51.614677],[-0.063659,51.617079],[-0.063696,51.617173],[-0.0633,51.617791],[-0.061736,51.621475],[-0.061439,51.622684],[-0.060638,51.624504],[-0.060598,51.624793],[-0.060704,51.62501],[-0.060539,51.625169],[-0.060188,51.625271],[-0.059957,51.62525],[-0.059803,51.625139],[-0.059796,51.624977],[-0.059653,51.624939],[-0.057792,51.625538],[-0.057746,51.6256],[-0.058104,51.625864],[-0.056988,51.626774],[-0.056741,51.627148],[-0.056313,51.628111],[-0.056194,51.629801],[-0.055961,51.630365],[-0.055211,51.631433],[-0.052606,51.634966],[-0.051814,51.635751],[-0.049123,51.63801],[-0.04838,51.638825],[-0.048102,51.639243],[-0.047056,51.642049],[-0.046546,51.643839],[-0.046392,51.644718],[-0.046395,51.644988],[-0.04699,51.646626],[-0.046367,51.64852],[-0.046396,51.649682],[-0.047558,51.652228],[-0.048486,51.653512],[-0.048526,51.653926],[-0.04833,51.654795],[-0.047771,51.655685],[-0.047386,51.656578],[-0.047298,51.656936],[-0.047247,51.658122],[-0.047045,51.659132],[-0.046167,51.66128],[-0.045028,51.663669],[-0.044284,51.664484],[-0.043445,51.665828],[-0.041503,51.668278],[-0.041409,51.668456],[-0.041243,51.669613],[-0.04065,51.670961],[-0.040171,51.671753],[-0.038261,51.673962],[-0.036117,51.675795],[-0.035174,51.676859],[-0.034476,51.677953],[-0.034155,51.678676],[-0.034046,51.679529],[-0.034151,51.680115],[-0.033952,51.680363],[-0.03315,51.683515],[-0.033002,51.683594],[-0.032744,51.683535],[-0.031398,51.683558],[-0.030538,51.683687],[-0.029713,51.684033],[-0.029414,51.684262],[-0.029183,51.684591],[-0.029086,51.685138],[-0.029316,51.685528],[-0.03138,51.685771]]]}}]}