{"type":"FeatureCollection","metadata":{"routeId":"295N","sourceDate":"20260905","source":"https://bus.data.tfl.gov.uk/bus-geometry/"},"features":[{"type":"Feature","properties":{"routeId":"295N","direction":"1","sourceDate":"20260905"},"geometry":{"type":"LineString","coordinates":[[-0.220019,51.503974],[-0.222637,51.503506],[-0.223207,51.50334],[-0.223184,51.503146],[-0.222149,51.501601],[-0.222016,51.500952],[-0.222093,51.499712],[-0.222207,51.499003],[-0.222625,51.497517],[-0.22284,51.497161],[-0.223796,51.496285],[-0.223964,51.496036],[-0.223994,51.493428],[-0.223597,51.492892],[-0.224284,51.492623],[-0.224349,51.492435],[-0.224299,51.492246],[-0.223728,51.491751],[-0.223557,51.491695],[-0.223602,51.491291],[-0.223507,51.490381],[-0.223064,51.489556],[-0.223019,51.489232],[-0.222588,51.488083],[-0.221347,51.48703],[-0.220589,51.486156],[-0.220169,51.485279],[-0.219907,51.484446],[-0.219366,51.483529],[-0.218933,51.483568],[-0.216165,51.483256],[-0.213988,51.482584],[-0.213286,51.481746],[-0.207316,51.480855],[-0.204592,51.480525],[-0.202536,51.48008],[-0.202263,51.480058],[-0.20039,51.480598],[-0.199083,51.480729],[-0.198862,51.480114],[-0.198639,51.47993],[-0.198134,51.480309],[-0.197595,51.480481],[-0.195669,51.480002],[-0.195563,51.479784],[-0.191679,51.477116],[-0.192802,51.476406],[-0.192814,51.476082],[-0.192122,51.474291],[-0.191714,51.472954],[-0.190819,51.469001],[-0.190533,51.468241],[-0.190116,51.467498],[-0.189514,51.466706],[-0.186047,51.463001],[-0.185793,51.462871],[-0.185176,51.462826],[-0.184741,51.4629],[-0.181715,51.464418],[-0.180465,51.465194],[-0.178509,51.466832],[-0.178159,51.466575],[-0.176576,51.463682],[-0.176179,51.463163],[-0.175526,51.462577],[-0.175005,51.462281],[-0.17337,51.461761],[-0.17152,51.462659],[-0.168623,51.463486],[-0.167833,51.463788],[-0.168054,51.464329]]}},{"type":"Feature","properties":{"routeId":"295N","direction":"2","sourceDate":"20260905"},"geometry":{"type":"LineString","coordinates":[[-0.168974,51.46579],[-0.16832,51.46492],[-0.167828,51.463914],[-0.167853,51.463654],[-0.17152,51.462659],[-0.17337,51.461761],[-0.174997,51.462278],[-0.175874,51.46287],[-0.176576,51.463682],[-0.178133,51.466503],[-0.178273,51.466622],[-0.178618,51.466636],[-0.178778,51.466576],[-0.179808,51.465665],[-0.181198,51.464717],[-0.183728,51.463397],[-0.184619,51.462691],[-0.184821,51.461975],[-0.185215,51.461837],[-0.18599,51.461894],[-0.186256,51.462087],[-0.186175,51.462679],[-0.186363,51.463366],[-0.189514,51.466706],[-0.190238,51.467697],[-0.190819,51.469001],[-0.191714,51.472954],[-0.192648,51.475698],[-0.192814,51.476082],[-0.192994,51.476264],[-0.191679,51.477116],[-0.195563,51.479784],[-0.195669,51.480002],[-0.197595,51.480481],[-0.197973,51.480397],[-0.198639,51.47993],[-0.198862,51.480114],[-0.199083,51.480729],[-0.200311,51.480613],[-0.20235,51.48005],[-0.204075,51.480434],[-0.213286,51.481746],[-0.213988,51.482584],[-0.216208,51.483265],[-0.218933,51.483568],[-0.219366,51.483529],[-0.219907,51.484446],[-0.220266,51.485566],[-0.220589,51.486156],[-0.221166,51.486866],[-0.222588,51.488083],[-0.223019,51.489232],[-0.223064,51.489556],[-0.223507,51.490381],[-0.223602,51.491291],[-0.223557,51.491695],[-0.223383,51.491728],[-0.223349,51.491845],[-0.224226,51.492649],[-0.22433,51.49257],[-0.224299,51.492246],[-0.223728,51.491751],[-0.223557,51.491695],[-0.2236,51.491327],[-0.224363,51.491348],[-0.224634,51.491414],[-0.224829,51.491588],[-0.224826,51.492784],[-0.224101,51.493277],[-0.223994,51.493428],[-0.223964,51.496036],[-0.223796,51.496285],[-0.22284,51.497161],[-0.222625,51.497517],[-0.222207,51.499003],[-0.222016,51.500952],[-0.222149,51.501601],[-0.223184,51.503146],[-0.223724,51.503343],[-0.224128,51.503902]]}}]}