{"type":"FeatureCollection","metadata":{"routeId":"310","sourceDate":"20260905","source":"https://bus.data.tfl.gov.uk/bus-geometry/"},"features":[{"type":"Feature","properties":{"routeId":"310","direction":"1","sourceDate":"20260905"},"geometry":{"type":"MultiLineString","coordinates":[[[-0.067386,51.573741],[-0.066963,51.572921],[-0.068392,51.572576],[-0.068555,51.572471],[-0.06999,51.572656],[-0.071132,51.572945],[-0.073166,51.573653],[-0.079239,51.574741],[-0.081401,51.574838],[-0.08509,51.574585],[-0.086168,51.57436],[-0.087015,51.57378],[-0.087549,51.573558],[-0.094804,51.57111],[-0.096317,51.570469],[-0.101308,51.566701],[-0.102999,51.565587],[-0.104508,51.564712],[-0.107398,51.563318],[-0.107684,51.56309],[-0.107917,51.562177],[-0.108485,51.561692],[-0.109999,51.559963],[-0.111108,51.559333],[-0.111189,51.559101],[-0.111165,51.558651],[-0.111277,51.558382],[-0.111544,51.558198],[-0.115371,51.556885],[-0.116719,51.556213],[-0.117113,51.556111],[-0.121097,51.558791],[-0.12237,51.559771],[-0.122594,51.55982],[-0.122813,51.559987],[-0.122817,51.560067],[-0.123632,51.560604],[-0.124914,51.561784],[-0.125379,51.562062],[-0.126926,51.562689],[-0.128477,51.563568],[-0.130242,51.564145],[-0.132383,51.564709],[-0.134428,51.565506],[-0.133742,51.566062],[-0.133721,51.566205],[-0.133805,51.566288],[-0.134704,51.566527],[-0.134909,51.566458],[-0.135313,51.566096],[-0.135279,51.56587],[-0.135422,51.5659],[-0.137758,51.567044],[-0.139788,51.568172],[-0.140869,51.568558],[-0.143618,51.569788],[-0.144973,51.570179],[-0.148756,51.570949],[-0.149648,51.571251],[-0.149823,51.57137],[-0.149923,51.571588],[-0.150037,51.571616],[-0.158325,51.572214],[-0.158841,51.572303],[-0.159949,51.572743],[-0.160463,51.572868],[-0.163491,51.572574],[-0.164443,51.57258],[-0.167123,51.573044],[-0.169888,51.572827],[-0.171272,51.572507],[-0.172288,51.572001],[-0.173279,51.571387],[-0.17377,51.570675],[-0.173936,51.569779],[-0.174713,51.569089],[-0.179498,51.562743],[-0.179751,51.562559],[-0.179917,51.562731],[-0.180703,51.565073],[-0.180963,51.565446],[-0.182393,51.566475],[-0.182832,51.567417],[-0.183638,51.568018],[-0.184607,51.568496],[-0.185166,51.568946],[-0.186463,51.569721],[-0.187761,51.570245],[-0.189666,51.570814],[-0.193641,51.571451]],[[-0.071568,51.573103],[-0.073166,51.573653],[-0.079239,51.574741],[-0.081401,51.574838],[-0.08509,51.574585],[-0.086168,51.57436],[-0.087015,51.57378],[-0.087549,51.573558],[-0.094804,51.57111],[-0.096317,51.570469],[-0.101308,51.566701],[-0.103177,51.565473],[-0.104508,51.564712],[-0.103943,51.564406],[-0.103949,51.564253],[-0.105097,51.563714],[-0.105715,51.564129],[-0.104773,51.564581],[-0.1072,51.56623],[-0.108905,51.567562],[-0.110624,51.568561],[-0.111897,51.569193],[-0.115113,51.57062],[-0.122066,51.567059],[-0.123863,51.569088],[-0.12399,51.570223],[-0.124349,51.570966],[-0.126869,51.571429],[-0.126909,51.570818],[-0.127142,51.570408],[-0.127549,51.570684],[-0.130641,51.568851],[-0.131724,51.568107],[-0.131757,51.568009],[-0.131622,51.567799],[-0.134428,51.565506],[-0.134685,51.565223],[-0.135231,51.564215],[-0.136519,51.564487],[-0.137059,51.565026],[-0.136921,51.565231],[-0.135861,51.566104],[-0.137758,51.567044],[-0.139788,51.568172],[-0.140869,51.568558],[-0.143618,51.569788],[-0.144973,51.570179],[-0.148756,51.570949],[-0.149648,51.571251],[-0.149823,51.57137],[-0.149923,51.571588],[-0.158325,51.572214],[-0.158841,51.572303],[-0.159949,51.572743],[-0.160463,51.572868],[-0.163491,51.572574],[-0.164443,51.57258],[-0.167123,51.573044],[-0.169888,51.572827],[-0.171272,51.572507],[-0.172288,51.572001],[-0.173279,51.571387],[-0.17377,51.570675],[-0.173936,51.569779],[-0.174713,51.569089],[-0.179498,51.562743],[-0.179751,51.562559],[-0.179917,51.562731],[-0.180703,51.565073],[-0.180963,51.565446],[-0.182393,51.566475],[-0.182832,51.567417],[-0.183638,51.568018],[-0.184607,51.568496],[-0.185166,51.568946],[-0.186463,51.569721],[-0.187761,51.570245],[-0.189666,51.570814],[-0.193641,51.571451]]]}},{"type":"Feature","properties":{"routeId":"310","direction":"2","sourceDate":"20260905"},"geometry":{"type":"MultiLineString","coordinates":[[[-0.193593,51.571441],[-0.189666,51.570814],[-0.189038,51.570651],[-0.187374,51.570148],[-0.185686,51.569313],[-0.184748,51.568588],[-0.183448,51.567894],[-0.182832,51.567417],[-0.182393,51.566475],[-0.180963,51.565446],[-0.180703,51.565073],[-0.179926,51.562867],[-0.179689,51.562647],[-0.179498,51.562743],[-0.174713,51.569089],[-0.17392,51.569805],[-0.17377,51.570675],[-0.173279,51.571387],[-0.172598,51.571826],[-0.171052,51.572584],[-0.169888,51.572827],[-0.167123,51.573044],[-0.164443,51.57258],[-0.163491,51.572574],[-0.160463,51.572868],[-0.159949,51.572743],[-0.158841,51.572303],[-0.158325,51.572214],[-0.151319,51.571673],[-0.150037,51.571616],[-0.149904,51.571695],[-0.149823,51.57137],[-0.149194,51.571078],[-0.144973,51.570179],[-0.143618,51.569788],[-0.140599,51.568446],[-0.139788,51.568172],[-0.13721,51.56677],[-0.13556,51.566055],[-0.135372,51.56607],[-0.134909,51.566458],[-0.134704,51.566527],[-0.133805,51.566288],[-0.133721,51.566205],[-0.133742,51.566062],[-0.134085,51.565788],[-0.133648,51.565188],[-0.131743,51.564501],[-0.130242,51.564145],[-0.128874,51.563718],[-0.128236,51.563456],[-0.126629,51.56254],[-0.125181,51.56196],[-0.124694,51.561614],[-0.123439,51.560466],[-0.119406,51.557856],[-0.112958,51.561323],[-0.107334,51.563336],[-0.104508,51.564712],[-0.100996,51.566912],[-0.095957,51.570805],[-0.087392,51.573741],[-0.086859,51.574048],[-0.086306,51.574497],[-0.083091,51.574755],[-0.080419,51.574842],[-0.07889,51.57471],[-0.072951,51.573613],[-0.072397,51.573748],[-0.072366,51.574143],[-0.070131,51.574088],[-0.069433,51.573897],[-0.068958,51.573853],[-0.067495,51.573991],[-0.067386,51.573741]],[[-0.193593,51.571441],[-0.189666,51.570814],[-0.189038,51.570651],[-0.187374,51.570148],[-0.185686,51.569313],[-0.184748,51.568588],[-0.183448,51.567894],[-0.182832,51.567417],[-0.182393,51.566475],[-0.180963,51.565446],[-0.180703,51.565073],[-0.179926,51.562867],[-0.179689,51.562647],[-0.179498,51.562743],[-0.174713,51.569089],[-0.17392,51.569805],[-0.17377,51.570675],[-0.173279,51.571387],[-0.172598,51.571826],[-0.171272,51.572507],[-0.169888,51.572827],[-0.167123,51.573044],[-0.164443,51.57258],[-0.163491,51.572574],[-0.160463,51.572868],[-0.159949,51.572743],[-0.158841,51.572303],[-0.158325,51.572214],[-0.151319,51.571673],[-0.150037,51.571616],[-0.149904,51.571695],[-0.149823,51.57137],[-0.149194,51.571078],[-0.144973,51.570179],[-0.143618,51.569788],[-0.140599,51.568446],[-0.139788,51.568172],[-0.13721,51.56677],[-0.135459,51.566044],[-0.13482,51.566502],[-0.133585,51.566356],[-0.133324,51.566406],[-0.131622,51.567799],[-0.131755,51.568071],[-0.131169,51.568503],[-0.12984,51.569363],[-0.127549,51.570684],[-0.127142,51.570408],[-0.126909,51.570818],[-0.126869,51.571429],[-0.124349,51.570966],[-0.124014,51.570309],[-0.123863,51.569088],[-0.122066,51.567059],[-0.115113,51.57062],[-0.111897,51.569193],[-0.110624,51.568561],[-0.108905,51.567562],[-0.1072,51.56623],[-0.104773,51.564581],[-0.103768,51.565141],[-0.100996,51.566912],[-0.095957,51.570805],[-0.087392,51.573741],[-0.086859,51.574048],[-0.086306,51.574497],[-0.083091,51.574755],[-0.080419,51.574842],[-0.07889,51.57471],[-0.073069,51.573635]]]}}]}