{"type":"FeatureCollection","metadata":{"routeId":"36X","sourceDate":"20260905","source":"https://bus.data.tfl.gov.uk/bus-geometry/"},"features":[{"type":"Feature","properties":{"routeId":"36X","direction":"1","sourceDate":"20260905"},"geometry":{"type":"LineString","coordinates":[[-0.06979,51.472623],[-0.069881,51.473295],[-0.071646,51.47345],[-0.073259,51.473759],[-0.07467,51.474129],[-0.075829,51.474302],[-0.078616,51.474122],[-0.080517,51.473767],[-0.083297,51.473758],[-0.085768,51.473557],[-0.087483,51.473503],[-0.091977,51.474161],[-0.093221,51.474037],[-0.112376,51.481964],[-0.113409,51.482772],[-0.114964,51.482788],[-0.115748,51.482989],[-0.116146,51.483167],[-0.116786,51.483644],[-0.116999,51.484079],[-0.121728,51.486071],[-0.122066,51.485905],[-0.122726,51.484909],[-0.122904,51.484768],[-0.123091,51.484788],[-0.123189,51.484853],[-0.123563,51.485929],[-0.123923,51.486268],[-0.124679,51.486451],[-0.125511,51.486896],[-0.129033,51.488463],[-0.129786,51.488708],[-0.133229,51.490463],[-0.140535,51.493942],[-0.14126,51.494547],[-0.1415,51.494659],[-0.141758,51.494681],[-0.142356,51.494511],[-0.143258,51.496063],[-0.14321,51.496188],[-0.142944,51.496354],[-0.142921,51.49657],[-0.145088,51.496757],[-0.146322,51.497235],[-0.14761,51.498874],[-0.148456,51.499688],[-0.149097,51.500228],[-0.150966,51.5014],[-0.152041,51.502235],[-0.152365,51.502789],[-0.152285,51.502985],[-0.151178,51.503274],[-0.151128,51.503435],[-0.151336,51.503996],[-0.152008,51.504123],[-0.152231,51.504324],[-0.151966,51.505156],[-0.151965,51.505543],[-0.15224,51.506222],[-0.154093,51.507798],[-0.157267,51.510213],[-0.158038,51.511233],[-0.158603,51.512455],[-0.158885,51.512612],[-0.160725,51.51238],[-0.16101,51.512457],[-0.161443,51.512796],[-0.161466,51.512941],[-0.161267,51.513104],[-0.160775,51.51316],[-0.160573,51.513295],[-0.160553,51.51343],[-0.160675,51.513611],[-0.164399,51.515972],[-0.166715,51.517519],[-0.168254,51.518685],[-0.170054,51.519819],[-0.176811,51.519897],[-0.177588,51.519577],[-0.177789,51.519571],[-0.178981,51.520048],[-0.179858,51.520098],[-0.180725,51.520058],[-0.183479,51.519659],[-0.185489,51.519501],[-0.188758,51.51957],[-0.189519,51.519654],[-0.190274,51.51989],[-0.190783,51.520141],[-0.193393,51.521916],[-0.194015,51.522609],[-0.19451,51.522894],[-0.195249,51.523096],[-0.197658,51.523439],[-0.197459,51.525227],[-0.198073,51.525084]]}}]}