{"type":"FeatureCollection","metadata":{"routeId":"378","sourceDate":"20260905","source":"https://bus.data.tfl.gov.uk/bus-geometry/"},"features":[{"type":"Feature","properties":{"routeId":"378","direction":"1","sourceDate":"20260905"},"geometry":{"type":"MultiLineString","coordinates":[[[-0.259475,51.467938],[-0.259321,51.467952],[-0.259926,51.46984],[-0.257509,51.470164],[-0.255924,51.470581],[-0.255473,51.471078],[-0.253859,51.471863],[-0.252805,51.472523],[-0.251389,51.473589],[-0.250916,51.473519],[-0.249453,51.473767],[-0.249065,51.473725],[-0.248041,51.473395],[-0.247437,51.473386],[-0.245265,51.474082],[-0.244083,51.474118],[-0.242925,51.474452],[-0.241395,51.474725],[-0.24033,51.475096],[-0.239273,51.475251],[-0.237594,51.472846],[-0.236877,51.471645],[-0.236861,51.471312],[-0.236945,51.470999],[-0.23718,51.470526],[-0.237391,51.470259],[-0.237851,51.469915],[-0.230588,51.468601],[-0.228983,51.468397],[-0.224819,51.46846],[-0.224289,51.468407],[-0.219228,51.46729],[-0.218175,51.467163],[-0.216981,51.467136],[-0.214189,51.466014],[-0.213763,51.466214],[-0.211245,51.468397],[-0.210657,51.468366]],[[-0.259475,51.467938],[-0.259321,51.467952],[-0.259926,51.46984],[-0.257509,51.470164],[-0.255924,51.470581],[-0.255473,51.471078],[-0.253859,51.471863],[-0.252805,51.472523],[-0.251389,51.473589],[-0.250916,51.473519],[-0.249453,51.473767],[-0.249065,51.473725],[-0.248041,51.473395],[-0.247437,51.473386],[-0.245265,51.474082],[-0.244083,51.474118],[-0.242787,51.474485],[-0.241395,51.474725],[-0.240039,51.475155],[-0.237821,51.475553],[-0.235451,51.475769],[-0.235374,51.476281],[-0.235125,51.476385],[-0.234986,51.476257],[-0.235366,51.476111],[-0.235451,51.475769],[-0.237821,51.475553],[-0.239273,51.475251],[-0.237594,51.472846],[-0.236877,51.471645],[-0.236861,51.471312],[-0.236945,51.470999],[-0.23718,51.470526],[-0.237391,51.470259],[-0.237851,51.469915],[-0.230588,51.468601],[-0.228983,51.468397],[-0.224819,51.46846],[-0.224289,51.468407],[-0.219228,51.46729],[-0.218175,51.467163],[-0.216981,51.467136],[-0.214189,51.466014],[-0.213763,51.466214],[-0.211245,51.468397],[-0.210657,51.468366]]]}},{"type":"Feature","properties":{"routeId":"378","direction":"2","sourceDate":"20260905"},"geometry":{"type":"MultiLineString","coordinates":[[[-0.209162,51.467804],[-0.209168,51.467745],[-0.209427,51.467758],[-0.210444,51.46789],[-0.210354,51.467997],[-0.210311,51.468356],[-0.211245,51.468397],[-0.213763,51.466214],[-0.214207,51.465924],[-0.214458,51.466117],[-0.216981,51.467136],[-0.219021,51.467248],[-0.223917,51.468338],[-0.224819,51.46846],[-0.228983,51.468397],[-0.230588,51.468601],[-0.237851,51.469915],[-0.237391,51.470259],[-0.23718,51.470526],[-0.236861,51.471312],[-0.236889,51.471708],[-0.238628,51.474405],[-0.239273,51.475251],[-0.240399,51.475077],[-0.241395,51.474725],[-0.242787,51.474485],[-0.244136,51.474112],[-0.245265,51.474082],[-0.247161,51.473454],[-0.247711,51.473342],[-0.249065,51.473725],[-0.249453,51.473767],[-0.2507,51.473534],[-0.251389,51.473589],[-0.253005,51.472372],[-0.253859,51.471863],[-0.255473,51.471078],[-0.255924,51.470581],[-0.257509,51.470164],[-0.259926,51.46984],[-0.259334,51.467993]],[[-0.209162,51.467804],[-0.209168,51.467745],[-0.209427,51.467758],[-0.210444,51.46789],[-0.210354,51.467997],[-0.210311,51.468356],[-0.211245,51.468397],[-0.213763,51.466214],[-0.214207,51.465924],[-0.214458,51.466117],[-0.216981,51.467136],[-0.219021,51.467248],[-0.223917,51.468338],[-0.224819,51.46846],[-0.228983,51.468397],[-0.230588,51.468601],[-0.237851,51.469915],[-0.237391,51.470259],[-0.23718,51.470526],[-0.236861,51.471312],[-0.236889,51.471708],[-0.238628,51.474405],[-0.239273,51.475251],[-0.237821,51.475553],[-0.235451,51.475769],[-0.235374,51.476281],[-0.235125,51.476385],[-0.234986,51.476257],[-0.235366,51.476111],[-0.235451,51.475769],[-0.237821,51.475553],[-0.240039,51.475155],[-0.241395,51.474725],[-0.242787,51.474485],[-0.244136,51.474112],[-0.245265,51.474082],[-0.247161,51.473454],[-0.247711,51.473342],[-0.249065,51.473725],[-0.249453,51.473767],[-0.2507,51.473534],[-0.251389,51.473589],[-0.253005,51.472372],[-0.253859,51.471863],[-0.255473,51.471078],[-0.255924,51.470581],[-0.257509,51.470164],[-0.259926,51.46984],[-0.259334,51.467993]],[[-0.209122,51.468163],[-0.209168,51.467745],[-0.209901,51.467801],[-0.210444,51.46789],[-0.210354,51.467997],[-0.210311,51.468356],[-0.211245,51.468397],[-0.213763,51.466214],[-0.214207,51.465924],[-0.214458,51.466117],[-0.216981,51.467136],[-0.219021,51.467248],[-0.223917,51.468338],[-0.224819,51.46846],[-0.228983,51.468397],[-0.230588,51.468601],[-0.237851,51.469915],[-0.237391,51.470259],[-0.23718,51.470526],[-0.236861,51.471312],[-0.236889,51.471708],[-0.238628,51.474405],[-0.239273,51.475251],[-0.240399,51.475077],[-0.241395,51.474725],[-0.242787,51.474485],[-0.244136,51.474112],[-0.245265,51.474082],[-0.247161,51.473454],[-0.247711,51.473342],[-0.249065,51.473725],[-0.249453,51.473767],[-0.2507,51.473534],[-0.251389,51.473589],[-0.253005,51.472372],[-0.253859,51.471863],[-0.255473,51.471078],[-0.255924,51.470581],[-0.257509,51.470164],[-0.259926,51.46984],[-0.259334,51.467993]],[[-0.209122,51.468163],[-0.209168,51.467745],[-0.209901,51.467801],[-0.210444,51.46789],[-0.210354,51.467997],[-0.210311,51.468356],[-0.211245,51.468397],[-0.213763,51.466214],[-0.214207,51.465924],[-0.214458,51.466117],[-0.216981,51.467136],[-0.219021,51.467248],[-0.223917,51.468338],[-0.224819,51.46846],[-0.228983,51.468397],[-0.230588,51.468601],[-0.237851,51.469915],[-0.237391,51.470259],[-0.23718,51.470526],[-0.236861,51.471312],[-0.236889,51.471708],[-0.238628,51.474405],[-0.239273,51.475251],[-0.237821,51.475553],[-0.235451,51.475769],[-0.235374,51.476281],[-0.235125,51.476385],[-0.234986,51.476257],[-0.235366,51.476111],[-0.235451,51.475769],[-0.237821,51.475553],[-0.240039,51.475155],[-0.241395,51.474725],[-0.242787,51.474485],[-0.244136,51.474112],[-0.245265,51.474082],[-0.247161,51.473454],[-0.247711,51.473342],[-0.249065,51.473725],[-0.249453,51.473767],[-0.2507,51.473534],[-0.251389,51.473589],[-0.253005,51.472372],[-0.253859,51.471863],[-0.255473,51.471078],[-0.255924,51.470581],[-0.257509,51.470164],[-0.259926,51.46984],[-0.259334,51.467993]]]}}]}