{"type":"FeatureCollection","metadata":{"routeId":"406","sourceDate":"20260905","source":"https://bus.data.tfl.gov.uk/bus-geometry/"},"features":[{"type":"Feature","properties":{"routeId":"406","direction":"1","sourceDate":"20260905"},"geometry":{"type":"MultiLineString","coordinates":[[[-0.298415,51.412299],[-0.29674,51.412272],[-0.296416,51.412078],[-0.296716,51.410985],[-0.297073,51.410667],[-0.297407,51.410564],[-0.300761,51.410469],[-0.30082,51.41082],[-0.301713,51.410769],[-0.302037,51.410586],[-0.30328,51.409246],[-0.30378,51.408939],[-0.303713,51.408029],[-0.303524,51.407703],[-0.303824,51.407158],[-0.30376,51.406779],[-0.3044,51.403444],[-0.304505,51.401782],[-0.303756,51.401043],[-0.30274,51.399742],[-0.302623,51.399408],[-0.302379,51.39913],[-0.300589,51.398425],[-0.299936,51.397822],[-0.299726,51.396515],[-0.29904,51.395237],[-0.298796,51.394442],[-0.298582,51.392634],[-0.297859,51.389483],[-0.296725,51.386742],[-0.29579,51.385604],[-0.294563,51.384984],[-0.288047,51.383066],[-0.284308,51.382136],[-0.283073,51.381345],[-0.282347,51.380759],[-0.281211,51.379627],[-0.280942,51.379533],[-0.280468,51.379508],[-0.280101,51.37935],[-0.279943,51.378574],[-0.27978,51.37832],[-0.273749,51.372863],[-0.272989,51.372456],[-0.270753,51.371919],[-0.269004,51.371057],[-0.267288,51.370088],[-0.262173,51.366666],[-0.251042,51.359451],[-0.250075,51.35867],[-0.249861,51.358399],[-0.249409,51.358203],[-0.249458,51.35806],[-0.249745,51.358064],[-0.249921,51.357968],[-0.249993,51.357591],[-0.250266,51.357191],[-0.250909,51.356517],[-0.251759,51.354965],[-0.251695,51.354757],[-0.251063,51.353993],[-0.250866,51.353518],[-0.250945,51.352192],[-0.250876,51.351438],[-0.250158,51.350975],[-0.250024,51.350344],[-0.249187,51.349324],[-0.249097,51.349053],[-0.250003,51.347529],[-0.251054,51.346304],[-0.25142,51.345283],[-0.251655,51.344109],[-0.251311,51.343781],[-0.251703,51.343589],[-0.252059,51.343288],[-0.253471,51.341664],[-0.254108,51.340765],[-0.255306,51.339838],[-0.257967,51.338188],[-0.260298,51.336558],[-0.262965,51.335483],[-0.263771,51.335054],[-0.264041,51.334761],[-0.264178,51.334117],[-0.26535,51.333851]],[[-0.298415,51.412299],[-0.29674,51.412272],[-0.296416,51.412078],[-0.296716,51.410985],[-0.297073,51.410667],[-0.297407,51.410564],[-0.300761,51.410469],[-0.30082,51.41082],[-0.301713,51.410769],[-0.302037,51.410586],[-0.30328,51.409246],[-0.30378,51.408939],[-0.303713,51.408029],[-0.303524,51.407703],[-0.303824,51.407158],[-0.30376,51.406779],[-0.3044,51.403444],[-0.304505,51.401782],[-0.303756,51.401043],[-0.30274,51.399742],[-0.302623,51.399408],[-0.302379,51.39913],[-0.300589,51.398425],[-0.299936,51.397822],[-0.299726,51.396515],[-0.29904,51.395237],[-0.298796,51.394442],[-0.298582,51.392634],[-0.297859,51.389483],[-0.296725,51.386742],[-0.29579,51.385604],[-0.294563,51.384984],[-0.288047,51.383066],[-0.284308,51.382136],[-0.283073,51.381345],[-0.282347,51.380759],[-0.281211,51.379627],[-0.280942,51.379533],[-0.280468,51.379508],[-0.280101,51.37935],[-0.279943,51.378574],[-0.27978,51.37832],[-0.273749,51.372863],[-0.272989,51.372456],[-0.270753,51.371919],[-0.269004,51.371057],[-0.267288,51.370088],[-0.262173,51.366666],[-0.251042,51.359451],[-0.250075,51.35867],[-0.249861,51.358399],[-0.249409,51.358203],[-0.249458,51.35806],[-0.249745,51.358064],[-0.249921,51.357968],[-0.249993,51.357591],[-0.250266,51.357191],[-0.250909,51.356517],[-0.251759,51.354965],[-0.251695,51.354757],[-0.251063,51.353993],[-0.250866,51.353518],[-0.250945,51.352192],[-0.250876,51.351438],[-0.250158,51.350975],[-0.250024,51.350344],[-0.249187,51.349324],[-0.249097,51.349053],[-0.250003,51.347529],[-0.251054,51.346304],[-0.25142,51.345283],[-0.251655,51.344109],[-0.251311,51.343781],[-0.251703,51.343589],[-0.252059,51.343288],[-0.253471,51.341664],[-0.254108,51.340765],[-0.255306,51.339838],[-0.257967,51.338188],[-0.260298,51.336558],[-0.262965,51.335483],[-0.263771,51.335054],[-0.264041,51.334761],[-0.264178,51.334117],[-0.26535,51.333851],[-0.266922,51.333338],[-0.266986,51.333168],[-0.266815,51.331988],[-0.267036,51.331838],[-0.268181,51.331549],[-0.26987,51.331305],[-0.27012,51.331146],[-0.270304,51.330816],[-0.27009,51.329276],[-0.270396,51.328759],[-0.27063,51.328646],[-0.270447,51.328561],[-0.270441,51.328346],[-0.269955,51.327133],[-0.269775,51.326195],[-0.269781,51.325269],[-0.26993,51.325128],[-0.270532,51.324777],[-0.273041,51.323708],[-0.275371,51.322429],[-0.2769,51.321831],[-0.27709,51.321726],[-0.277169,51.321529],[-0.2781,51.321219],[-0.278996,51.321035],[-0.279409,51.32114],[-0.279588,51.32134],[-0.279621,51.32161],[-0.279508,51.322319],[-0.279627,51.323751],[-0.279874,51.324429],[-0.280118,51.324801],[-0.277795,51.325531],[-0.276331,51.3259]]]}},{"type":"Feature","properties":{"routeId":"406","direction":"2","sourceDate":"20260905"},"geometry":{"type":"MultiLineString","coordinates":[[[-0.268056,51.33322],[-0.267543,51.33324],[-0.264437,51.334138],[-0.264138,51.334457],[-0.264041,51.334761],[-0.263771,51.335054],[-0.262965,51.335483],[-0.261015,51.336244],[-0.259857,51.336822],[-0.257127,51.338778],[-0.254789,51.340208],[-0.253943,51.340951],[-0.253471,51.341664],[-0.252059,51.343288],[-0.251572,51.343695],[-0.251311,51.343781],[-0.251462,51.343842],[-0.251655,51.344109],[-0.25151,51.344929],[-0.251101,51.346196],[-0.250947,51.346473],[-0.250003,51.347529],[-0.249097,51.349053],[-0.249296,51.349479],[-0.250024,51.350344],[-0.250158,51.350975],[-0.250876,51.351438],[-0.250945,51.352192],[-0.250875,51.353585],[-0.251063,51.353993],[-0.251762,51.354875],[-0.251602,51.355313],[-0.250909,51.356517],[-0.250266,51.357191],[-0.249993,51.357591],[-0.249899,51.358166],[-0.250309,51.35872],[-0.251019,51.359306],[-0.262234,51.366595],[-0.267306,51.36998],[-0.268571,51.370727],[-0.270688,51.371748],[-0.271059,51.371807],[-0.271583,51.372021],[-0.272739,51.372227],[-0.273799,51.372693],[-0.279758,51.378158],[-0.280037,51.378369],[-0.281083,51.378825],[-0.28115,51.378961],[-0.281108,51.379311],[-0.281272,51.379547],[-0.282643,51.380907],[-0.284283,51.38201],[-0.284946,51.382259],[-0.287314,51.382828],[-0.295076,51.385099],[-0.295472,51.385276],[-0.295778,51.385541],[-0.296725,51.386742],[-0.297859,51.389483],[-0.298662,51.393029],[-0.298796,51.394442],[-0.299187,51.395567],[-0.299726,51.396515],[-0.299936,51.397822],[-0.300589,51.398425],[-0.302473,51.399161],[-0.302825,51.39977],[-0.303756,51.401043],[-0.304505,51.401782],[-0.304421,51.403262],[-0.30407,51.404986],[-0.304105,51.405598],[-0.303958,51.406846],[-0.304148,51.407145],[-0.303973,51.407215],[-0.303829,51.407617],[-0.303685,51.407772],[-0.30378,51.408939],[-0.303487,51.409078],[-0.303088,51.409425],[-0.302126,51.41049],[-0.301818,51.410732],[-0.301003,51.410931],[-0.300502,51.411256],[-0.300447,51.41157],[-0.300597,51.412193],[-0.300507,51.41229],[-0.298862,51.412302]],[[-0.276331,51.3259],[-0.274218,51.326413],[-0.272563,51.327648],[-0.270341,51.328854],[-0.27009,51.329276],[-0.270239,51.330636],[-0.270811,51.33184],[-0.270706,51.332351],[-0.270356,51.332868],[-0.269025,51.333163],[-0.267543,51.33324],[-0.264437,51.334138],[-0.264138,51.334457],[-0.264041,51.334761],[-0.263771,51.335054],[-0.262965,51.335483],[-0.260298,51.336558],[-0.257127,51.338778],[-0.254789,51.340208],[-0.253943,51.340951],[-0.253471,51.341664],[-0.252059,51.343288],[-0.251572,51.343695],[-0.251311,51.343781],[-0.251462,51.343842],[-0.251655,51.344109],[-0.25151,51.344929],[-0.251101,51.346196],[-0.250947,51.346473],[-0.250003,51.347529],[-0.249097,51.349053],[-0.249296,51.349479],[-0.250024,51.350344],[-0.250158,51.350975],[-0.250876,51.351438],[-0.250945,51.352192],[-0.250875,51.353585],[-0.251063,51.353993],[-0.251762,51.354875],[-0.251602,51.355313],[-0.250909,51.356517],[-0.250266,51.357191],[-0.249993,51.357591],[-0.249899,51.358166],[-0.250309,51.35872],[-0.251019,51.359306],[-0.262234,51.366595],[-0.267306,51.36998],[-0.268571,51.370727],[-0.270688,51.371748],[-0.271059,51.371807],[-0.271583,51.372021],[-0.272739,51.372227],[-0.273799,51.372693],[-0.279758,51.378158],[-0.280037,51.378369],[-0.281083,51.378825],[-0.28115,51.378961],[-0.281108,51.379311],[-0.281272,51.379547],[-0.282643,51.380907],[-0.284283,51.38201],[-0.284946,51.382259],[-0.287314,51.382828],[-0.295076,51.385099],[-0.295472,51.385276],[-0.295778,51.385541],[-0.296725,51.386742],[-0.297859,51.389483],[-0.298662,51.393029],[-0.298796,51.394442],[-0.299187,51.395567],[-0.299726,51.396515],[-0.299936,51.397822],[-0.300589,51.398425],[-0.302473,51.399161],[-0.302825,51.39977],[-0.303756,51.401043],[-0.304505,51.401782],[-0.304421,51.403262],[-0.30407,51.404986],[-0.304105,51.405598],[-0.303958,51.406846],[-0.304148,51.407145],[-0.303973,51.407215],[-0.303829,51.407617],[-0.303685,51.407772],[-0.30378,51.408939],[-0.303487,51.409078],[-0.303088,51.409425],[-0.302126,51.41049],[-0.301818,51.410732],[-0.301003,51.410931],[-0.300502,51.411256],[-0.300447,51.41157],[-0.300597,51.412193],[-0.300507,51.41229],[-0.298862,51.412302]]]}}]}