{"type":"FeatureCollection","metadata":{"routeId":"467","sourceDate":"20260918","source":"https://bus.data.tfl.gov.uk/bus-geometry/"},"features":[{"type":"Feature","properties":{"routeId":"467","direction":"1","sourceDate":"20260918"},"geometry":{"type":"MultiLineString","coordinates":[[[-0.305813,51.370514],[-0.306392,51.368099],[-0.306834,51.366736],[-0.307403,51.365453],[-0.308088,51.364272],[-0.308086,51.36393],[-0.307903,51.363469],[-0.307569,51.363159],[-0.307588,51.363051],[-0.30772,51.362963],[-0.308106,51.36224],[-0.308944,51.361695],[-0.311003,51.358838],[-0.311351,51.357961],[-0.31164,51.356319],[-0.311139,51.356304],[-0.310199,51.356101],[-0.307941,51.356263],[-0.305533,51.356834],[-0.304878,51.357077],[-0.303762,51.357735],[-0.303145,51.357936],[-0.302689,51.357989],[-0.301688,51.357885],[-0.301083,51.35793],[-0.300123,51.357871],[-0.299351,51.358561],[-0.298754,51.358768],[-0.295825,51.359131],[-0.295511,51.359072],[-0.29505,51.359497],[-0.294748,51.359511],[-0.292968,51.361013],[-0.291444,51.362601],[-0.291423,51.36278],[-0.289315,51.362291],[-0.288415,51.362161],[-0.286386,51.361502],[-0.281169,51.360427],[-0.277907,51.358923],[-0.276812,51.35825],[-0.274553,51.357094],[-0.274048,51.356736],[-0.273706,51.356055],[-0.273281,51.355905],[-0.272385,51.355289],[-0.271141,51.354866],[-0.269625,51.353809],[-0.268698,51.353274],[-0.265961,51.351984],[-0.264504,51.351387],[-0.263561,51.35086],[-0.262947,51.350401],[-0.262311,51.350122],[-0.260247,51.349651],[-0.257031,51.34963],[-0.255269,51.350313],[-0.253586,51.35073],[-0.253438,51.350836],[-0.253344,51.35105],[-0.253353,51.351563],[-0.253045,51.35172],[-0.252713,51.351778],[-0.251811,51.351711],[-0.250876,51.351438],[-0.250158,51.350975],[-0.250024,51.350344],[-0.249187,51.349324],[-0.249097,51.349053],[-0.250003,51.347529],[-0.251054,51.346304],[-0.25142,51.345283],[-0.251655,51.344109],[-0.251311,51.343781],[-0.251703,51.343589],[-0.252059,51.343288],[-0.253471,51.341664],[-0.254108,51.340765],[-0.255306,51.339838],[-0.257967,51.338188],[-0.260298,51.336558],[-0.262965,51.335483],[-0.263771,51.335054],[-0.264041,51.334761],[-0.264178,51.334117],[-0.265536,51.333796],[-0.266922,51.333338],[-0.266986,51.333168],[-0.266815,51.331988],[-0.267036,51.331838],[-0.268181,51.331549],[-0.26987,51.331305],[-0.27012,51.331146],[-0.270305,51.330808],[-0.27009,51.329276],[-0.270396,51.328759],[-0.27063,51.328646],[-0.270447,51.328561],[-0.270441,51.328346],[-0.269955,51.327133],[-0.269775,51.326195],[-0.269781,51.325269],[-0.26993,51.325128],[-0.270532,51.324777],[-0.273041,51.323708],[-0.275371,51.322429],[-0.2769,51.321831],[-0.27709,51.321726],[-0.277169,51.321529],[-0.2781,51.321219],[-0.278996,51.321035],[-0.279409,51.32114],[-0.279588,51.32134],[-0.279621,51.32161],[-0.279508,51.322319],[-0.279627,51.323751],[-0.279874,51.324429],[-0.280118,51.324801],[-0.277795,51.325531],[-0.276331,51.3259]],[[-0.331985,51.379278],[-0.331091,51.378388],[-0.331066,51.378279],[-0.331228,51.378165],[-0.330598,51.377301],[-0.329653,51.376434],[-0.324859,51.376293],[-0.321323,51.375946],[-0.319871,51.375943],[-0.316688,51.376167],[-0.315437,51.376185],[-0.31034,51.376085],[-0.307532,51.375864],[-0.30376,51.375279],[-0.303664,51.375152],[-0.303684,51.374999],[-0.30401,51.374734],[-0.305619,51.371224],[-0.306392,51.368099],[-0.306834,51.366736],[-0.307403,51.365453],[-0.308088,51.364272],[-0.308086,51.36393],[-0.307903,51.363469],[-0.307569,51.363159],[-0.307588,51.363051],[-0.30772,51.362963],[-0.308106,51.36224],[-0.308944,51.361695],[-0.311003,51.358838],[-0.311351,51.357961],[-0.31164,51.356319],[-0.311139,51.356304],[-0.310199,51.356101],[-0.307941,51.356263],[-0.305533,51.356834],[-0.304878,51.357077],[-0.303762,51.357735],[-0.303145,51.357936],[-0.302689,51.357989],[-0.301688,51.357885],[-0.301083,51.35793],[-0.300123,51.357871],[-0.299351,51.358561],[-0.298754,51.358768],[-0.295825,51.359131],[-0.295511,51.359072],[-0.29505,51.359497],[-0.294748,51.359511],[-0.292968,51.361013],[-0.291444,51.362601],[-0.291423,51.36278],[-0.289315,51.362291],[-0.288415,51.362161],[-0.286386,51.361502],[-0.281169,51.360427],[-0.277907,51.358923],[-0.276812,51.35825],[-0.274553,51.357094],[-0.274048,51.356736],[-0.273706,51.356055],[-0.273281,51.355905],[-0.272385,51.355289],[-0.271141,51.354866],[-0.269625,51.353809],[-0.268698,51.353274],[-0.265961,51.351984],[-0.264504,51.351387],[-0.263561,51.35086],[-0.262947,51.350401],[-0.262311,51.350122],[-0.260247,51.349651],[-0.257031,51.34963],[-0.255269,51.350313],[-0.253586,51.35073],[-0.253438,51.350836],[-0.253344,51.35105],[-0.253353,51.351563],[-0.253045,51.35172],[-0.252713,51.351778],[-0.251811,51.351711],[-0.250876,51.351438],[-0.250158,51.350975],[-0.250024,51.350344],[-0.249187,51.349324],[-0.249097,51.349053],[-0.250003,51.347529],[-0.251054,51.346304],[-0.25142,51.345283],[-0.251655,51.344109],[-0.251311,51.343781],[-0.251703,51.343589],[-0.252059,51.343288],[-0.253471,51.341664],[-0.254108,51.340765],[-0.255306,51.339838],[-0.257967,51.338188],[-0.260298,51.336558],[-0.262965,51.335483],[-0.263771,51.335054],[-0.264041,51.334761],[-0.264178,51.334117],[-0.265536,51.333796]]]}},{"type":"Feature","properties":{"routeId":"467","direction":"2","sourceDate":"20260918"},"geometry":{"type":"MultiLineString","coordinates":[[[-0.276331,51.3259],[-0.274218,51.326413],[-0.272563,51.327648],[-0.270586,51.328671],[-0.270155,51.329079],[-0.27009,51.329276],[-0.270239,51.330636],[-0.270811,51.33184],[-0.270706,51.332351],[-0.270433,51.332743],[-0.270697,51.332971],[-0.27164,51.333102],[-0.271453,51.333495],[-0.270249,51.33381],[-0.269898,51.333985],[-0.269108,51.334009],[-0.267558,51.334378],[-0.267064,51.333376],[-0.266554,51.333576],[-0.264437,51.334138],[-0.264138,51.334457],[-0.264041,51.334761],[-0.263771,51.335054],[-0.262965,51.335483],[-0.260298,51.336558],[-0.257127,51.338778],[-0.255306,51.339838],[-0.254108,51.340765],[-0.253471,51.341664],[-0.252059,51.343288],[-0.251572,51.343695],[-0.251311,51.343781],[-0.251462,51.343842],[-0.251655,51.344109],[-0.25151,51.344929],[-0.251101,51.346196],[-0.250947,51.346473],[-0.250003,51.347529],[-0.249129,51.348973],[-0.24912,51.349197],[-0.249997,51.350308],[-0.251198,51.350074],[-0.252087,51.349727],[-0.252375,51.349704],[-0.2526,51.349825],[-0.253416,51.350664],[-0.253629,51.350721],[-0.255238,51.350323],[-0.256552,51.349767],[-0.257305,51.349598],[-0.260247,51.349651],[-0.262311,51.350122],[-0.262947,51.350401],[-0.264349,51.351313],[-0.266285,51.352123],[-0.268698,51.353274],[-0.271132,51.354814],[-0.273065,51.355533],[-0.273783,51.355534],[-0.273922,51.355663],[-0.274015,51.356248],[-0.274179,51.356466],[-0.274722,51.356829],[-0.2794,51.359322],[-0.28086,51.359937],[-0.281123,51.360103],[-0.281162,51.36022],[-0.281084,51.360381],[-0.281169,51.360427],[-0.286699,51.361578],[-0.288572,51.362199],[-0.289717,51.362315],[-0.29144,51.362709],[-0.291444,51.362601],[-0.292968,51.361013],[-0.294748,51.359511],[-0.294654,51.359338],[-0.295304,51.358835],[-0.295446,51.358873],[-0.295511,51.359072],[-0.295825,51.359131],[-0.298754,51.358768],[-0.299351,51.358561],[-0.300123,51.357871],[-0.302689,51.357989],[-0.30347,51.357848],[-0.305121,51.356984],[-0.305939,51.356714],[-0.308038,51.356247],[-0.309913,51.356101],[-0.31164,51.356319],[-0.311351,51.357961],[-0.310966,51.358888],[-0.30963,51.360625],[-0.308944,51.361695],[-0.308106,51.36224],[-0.307878,51.362561],[-0.307911,51.36284],[-0.30823,51.363159],[-0.308081,51.36331],[-0.308206,51.363815],[-0.308216,51.36431],[-0.307273,51.366054],[-0.306755,51.367319],[-0.305811,51.371081],[-0.304644,51.373635]],[[-0.267288,51.333812],[-0.267064,51.333376],[-0.266554,51.333576],[-0.264437,51.334138],[-0.264138,51.334457],[-0.264041,51.334761],[-0.263771,51.335054],[-0.262965,51.335483],[-0.260298,51.336558],[-0.257127,51.338778],[-0.255306,51.339838],[-0.254108,51.340765],[-0.253471,51.341664],[-0.252059,51.343288],[-0.251572,51.343695],[-0.251311,51.343781],[-0.251462,51.343842],[-0.251655,51.344109],[-0.25151,51.344929],[-0.251101,51.346196],[-0.250947,51.346473],[-0.250003,51.347529],[-0.249097,51.349053],[-0.249296,51.349479],[-0.249997,51.350308],[-0.251198,51.350074],[-0.252087,51.349727],[-0.252375,51.349704],[-0.2526,51.349825],[-0.253416,51.350664],[-0.253629,51.350721],[-0.255238,51.350323],[-0.256552,51.349767],[-0.257305,51.349598],[-0.260247,51.349651],[-0.262311,51.350122],[-0.262947,51.350401],[-0.264349,51.351313],[-0.266285,51.352123],[-0.268698,51.353274],[-0.271132,51.354814],[-0.273065,51.355533],[-0.273783,51.355534],[-0.273922,51.355663],[-0.274015,51.356248],[-0.274179,51.356466],[-0.274722,51.356829],[-0.2794,51.359322],[-0.28086,51.359937],[-0.281123,51.360103],[-0.281162,51.36022],[-0.281084,51.360381],[-0.281169,51.360427],[-0.286699,51.361578],[-0.288572,51.362199],[-0.289717,51.362315],[-0.29144,51.362709],[-0.291444,51.362601],[-0.292968,51.361013],[-0.294748,51.359511],[-0.294654,51.359338],[-0.295304,51.358835],[-0.295446,51.358873],[-0.295511,51.359072],[-0.295825,51.359131],[-0.298754,51.358768],[-0.299351,51.358561],[-0.300123,51.357871],[-0.302689,51.357989],[-0.30347,51.357848],[-0.305121,51.356984],[-0.305939,51.356714],[-0.308038,51.356247],[-0.309913,51.356101],[-0.31164,51.356319],[-0.311351,51.357961],[-0.310966,51.358888],[-0.30963,51.360625],[-0.308944,51.361695],[-0.308106,51.36224],[-0.307878,51.362561],[-0.307911,51.36284],[-0.30823,51.363159],[-0.308081,51.36331],[-0.308206,51.363815],[-0.308216,51.36431],[-0.307273,51.366054],[-0.306755,51.367319],[-0.305811,51.371081],[-0.304124,51.374763],[-0.304285,51.375062],[-0.306755,51.375494],[-0.30862,51.375574],[-0.31025,51.3754],[-0.312391,51.374999],[-0.314435,51.374894],[-0.315839,51.375004],[-0.318938,51.375534],[-0.32396,51.376128],[-0.329356,51.376286],[-0.329791,51.376193],[-0.330205,51.376262],[-0.331532,51.376119],[-0.332404,51.375843],[-0.335158,51.374408],[-0.336527,51.373897],[-0.337639,51.373742],[-0.339073,51.373807],[-0.33597,51.377764],[-0.335372,51.378404],[-0.333843,51.379767],[-0.333448,51.380354],[-0.332544,51.379505],[-0.33227,51.379538],[-0.332069,51.379361]]]}}]}