{"type":"FeatureCollection","metadata":{"routeId":"482","sourceDate":"20260905","source":"https://bus.data.tfl.gov.uk/bus-geometry/"},"features":[{"type":"Feature","properties":{"routeId":"482","direction":"1","sourceDate":"20260905"},"geometry":{"type":"MultiLineString","coordinates":[[[-0.376298,51.510008],[-0.377283,51.508841],[-0.378346,51.507239],[-0.378693,51.506064],[-0.379052,51.505286],[-0.378958,51.505078],[-0.379482,51.504933],[-0.379586,51.504835],[-0.380238,51.50354],[-0.380507,51.503248],[-0.381329,51.50256],[-0.382264,51.502049],[-0.383246,51.499967],[-0.383323,51.499411],[-0.385144,51.499651],[-0.387188,51.50012],[-0.387424,51.500366],[-0.388672,51.500518],[-0.389178,51.500471],[-0.389692,51.500209],[-0.390756,51.499432],[-0.392971,51.498338],[-0.394494,51.497909],[-0.396913,51.497646],[-0.398345,51.497072],[-0.398019,51.496906],[-0.398204,51.496575],[-0.398157,51.496278],[-0.398018,51.49615],[-0.396991,51.49583],[-0.396889,51.495469],[-0.396721,51.495323],[-0.391598,51.493931],[-0.390131,51.493884],[-0.38999,51.493801],[-0.389854,51.493566],[-0.388551,51.493323],[-0.388635,51.493009],[-0.38845,51.492926],[-0.386216,51.492976],[-0.382756,51.492245],[-0.381407,51.492091],[-0.381259,51.489769],[-0.381327,51.489069],[-0.381023,51.487464],[-0.381115,51.486908],[-0.381348,51.486426],[-0.381358,51.486147],[-0.380683,51.484869],[-0.380555,51.484832],[-0.380719,51.484672],[-0.381587,51.482526],[-0.382216,51.480233],[-0.382294,51.479656],[-0.383322,51.478261],[-0.384146,51.476546],[-0.384526,51.475984],[-0.386216,51.474191],[-0.386886,51.473157],[-0.386175,51.472914],[-0.386056,51.47302],[-0.385157,51.472783],[-0.385164,51.472594],[-0.388779,51.473777],[-0.392142,51.474689],[-0.394976,51.475283],[-0.396424,51.475059],[-0.403951,51.472548],[-0.408973,51.470707],[-0.420252,51.467227],[-0.42043,51.467068],[-0.420481,51.466861],[-0.420028,51.466199],[-0.420096,51.465921],[-0.421087,51.46597],[-0.421527,51.466095],[-0.421996,51.466342],[-0.422481,51.466888],[-0.422808,51.467414],[-0.422963,51.467533],[-0.423293,51.467564],[-0.423657,51.467426],[-0.423963,51.466899],[-0.423924,51.466773],[-0.423722,51.466797],[-0.423667,51.467147],[-0.423532,51.467307],[-0.423201,51.467374],[-0.423056,51.467328],[-0.423017,51.46721],[-0.423258,51.466908],[-0.424131,51.466623],[-0.424652,51.466126],[-0.4253,51.465703],[-0.426719,51.465039],[-0.437834,51.460386],[-0.438428,51.460182],[-0.440349,51.460077],[-0.441162,51.459872],[-0.442088,51.459318],[-0.442271,51.459111],[-0.44219,51.458923],[-0.443252,51.45812],[-0.443192,51.457759],[-0.44334,51.457635],[-0.443598,51.457657],[-0.444201,51.458132],[-0.444729,51.458256],[-0.445809,51.45783],[-0.446126,51.457816],[-0.446426,51.457883],[-0.447288,51.458362],[-0.447241,51.458487],[-0.445486,51.459723],[-0.445341,51.459748],[-0.44445,51.459269],[-0.444218,51.458897],[-0.444348,51.458467],[-0.444294,51.458367],[-0.44323,51.457904],[-0.443208,51.457714],[-0.443964,51.457491],[-0.445887,51.457237],[-0.448538,51.45631],[-0.449713,51.456029],[-0.450724,51.455944],[-0.451975,51.455978],[-0.452903,51.456197],[-0.453739,51.456586],[-0.454153,51.45669],[-0.454445,51.456568],[-0.458379,51.457294],[-0.460516,51.457502],[-0.460595,51.457773],[-0.460527,51.457866],[-0.460474,51.45877],[-0.460689,51.459231],[-0.460412,51.459335],[-0.460243,51.459207],[-0.460474,51.45877],[-0.460516,51.457502],[-0.468163,51.458259],[-0.468136,51.459086],[-0.468219,51.459159],[-0.467942,51.459272],[-0.467788,51.459153],[-0.467891,51.458228],[-0.471994,51.458633],[-0.473151,51.458891],[-0.473988,51.459252],[-0.474833,51.459812],[-0.475255,51.460114],[-0.476259,51.461089],[-0.476741,51.461302],[-0.477299,51.461426],[-0.478233,51.461483],[-0.485546,51.461479],[-0.486823,51.461586],[-0.488696,51.461978],[-0.48946,51.461934],[-0.48973,51.462055],[-0.489824,51.462245],[-0.489777,51.462379],[-0.489074,51.462739],[-0.489009,51.462963],[-0.489119,51.463117],[-0.489416,51.463274],[-0.49075,51.463417],[-0.491448,51.463633],[-0.491885,51.463926],[-0.492091,51.464216],[-0.492143,51.464406],[-0.491948,51.465087],[-0.491382,51.466518],[-0.491236,51.469205],[-0.490413,51.469275],[-0.490193,51.469407],[-0.490101,51.469568],[-0.490574,51.470078],[-0.490931,51.470604],[-0.491051,51.470893],[-0.490923,51.47126],[-0.492853,51.473011],[-0.492961,51.473229],[-0.492913,51.473372],[-0.491773,51.474301],[-0.491397,51.474391],[-0.491154,51.474311],[-0.490878,51.473948],[-0.49054,51.473701],[-0.489831,51.473368],[-0.489711,51.473132]],[[-0.376298,51.510008],[-0.377283,51.508841],[-0.378346,51.507239],[-0.378693,51.506064],[-0.379052,51.505286],[-0.378958,51.505078],[-0.379482,51.504933],[-0.379586,51.504835],[-0.380238,51.50354],[-0.380507,51.503248],[-0.381329,51.50256],[-0.382264,51.502049],[-0.383246,51.499967],[-0.383323,51.499411],[-0.385144,51.499651],[-0.387188,51.50012],[-0.387424,51.500366],[-0.388672,51.500518],[-0.389178,51.500471],[-0.389692,51.500209],[-0.390756,51.499432],[-0.392971,51.498338],[-0.394494,51.497909],[-0.396913,51.497646],[-0.398345,51.497072],[-0.398019,51.496906],[-0.398204,51.496575],[-0.398157,51.496278],[-0.398018,51.49615],[-0.396991,51.49583],[-0.396889,51.495469],[-0.396721,51.495323],[-0.391598,51.493931],[-0.390131,51.493884],[-0.38999,51.493801],[-0.389854,51.493566],[-0.388551,51.493323],[-0.388635,51.493009],[-0.38845,51.492926],[-0.386216,51.492976],[-0.382756,51.492245],[-0.381407,51.492091],[-0.381259,51.489769],[-0.381327,51.489069],[-0.381023,51.487464],[-0.381115,51.486908],[-0.381348,51.486426],[-0.381358,51.486147],[-0.380683,51.484869],[-0.378221,51.484844],[-0.37568,51.485439],[-0.374554,51.485486],[-0.37391,51.485387],[-0.373151,51.485656],[-0.373073,51.485016],[-0.372926,51.484717],[-0.373268,51.484407],[-0.373608,51.483756],[-0.373852,51.482927],[-0.373856,51.481628],[-0.373286,51.480667],[-0.372383,51.480151],[-0.372305,51.479907],[-0.372455,51.478506],[-0.372674,51.478033],[-0.372884,51.477802],[-0.384311,51.47635],[-0.384571,51.475931],[-0.386473,51.473871],[-0.38663,51.473495],[-0.386886,51.473157],[-0.386175,51.472914],[-0.386056,51.47302],[-0.385157,51.472783],[-0.385164,51.472594],[-0.388779,51.473777],[-0.392142,51.474689],[-0.394976,51.475283],[-0.396424,51.475059],[-0.403951,51.472548],[-0.408973,51.470707],[-0.420252,51.467227],[-0.42043,51.467068],[-0.420481,51.466861],[-0.420028,51.466199],[-0.420096,51.465921],[-0.421087,51.46597],[-0.421527,51.466095],[-0.421996,51.466342],[-0.422481,51.466888],[-0.422808,51.467414],[-0.422963,51.467533],[-0.423293,51.467564],[-0.423657,51.467426],[-0.423963,51.466899],[-0.423924,51.466773],[-0.423722,51.466797],[-0.423667,51.467147],[-0.423532,51.467307],[-0.423201,51.467374],[-0.423056,51.467328],[-0.423017,51.46721],[-0.423258,51.466908],[-0.424131,51.466623],[-0.424652,51.466126],[-0.4253,51.465703],[-0.426719,51.465039],[-0.437834,51.460386],[-0.438428,51.460182],[-0.440349,51.460077],[-0.441162,51.459872],[-0.442088,51.459318],[-0.442271,51.459111],[-0.44219,51.458923],[-0.443252,51.45812],[-0.443192,51.457759],[-0.44334,51.457635],[-0.443598,51.457657],[-0.444201,51.458132],[-0.444729,51.458256],[-0.445809,51.45783],[-0.446126,51.457816],[-0.446426,51.457883],[-0.447288,51.458362],[-0.447241,51.458487],[-0.445486,51.459723],[-0.445341,51.459748],[-0.44445,51.459269],[-0.444218,51.458897],[-0.444348,51.458467],[-0.444294,51.458367],[-0.44323,51.457904],[-0.443208,51.457714],[-0.443964,51.457491],[-0.445887,51.457237],[-0.448538,51.45631],[-0.449713,51.456029],[-0.450724,51.455944],[-0.451975,51.455978],[-0.452903,51.456197],[-0.453739,51.456586],[-0.454153,51.45669],[-0.454445,51.456568],[-0.458379,51.457294],[-0.460516,51.457502],[-0.460595,51.457773],[-0.460527,51.457866],[-0.460474,51.45877],[-0.460689,51.459231],[-0.460412,51.459335],[-0.460243,51.459207],[-0.460474,51.45877],[-0.460516,51.457502],[-0.468163,51.458259],[-0.468136,51.459086],[-0.468219,51.459159],[-0.467942,51.459272],[-0.467788,51.459153],[-0.467891,51.458228],[-0.471994,51.458633],[-0.473151,51.458891],[-0.473988,51.459252],[-0.474833,51.459812],[-0.475255,51.460114],[-0.476259,51.461089],[-0.476741,51.461302],[-0.477299,51.461426],[-0.478233,51.461483],[-0.485546,51.461479],[-0.486823,51.461586],[-0.488696,51.461978],[-0.48946,51.461934],[-0.48973,51.462055],[-0.489824,51.462245],[-0.489777,51.462379],[-0.489074,51.462739],[-0.489009,51.462963],[-0.489119,51.463117],[-0.489416,51.463274],[-0.49075,51.463417],[-0.491448,51.463633],[-0.491885,51.463926],[-0.492091,51.464216],[-0.492143,51.464406],[-0.491948,51.465087],[-0.491382,51.466518],[-0.491236,51.469205],[-0.490413,51.469275],[-0.490193,51.469407],[-0.490101,51.469568],[-0.490574,51.470078],[-0.490931,51.470604],[-0.491051,51.470893],[-0.490923,51.47126],[-0.492853,51.473011],[-0.492961,51.473229],[-0.492913,51.473372],[-0.491773,51.474301],[-0.491397,51.474391],[-0.491154,51.474311],[-0.490878,51.473948],[-0.49054,51.473701],[-0.489831,51.473368],[-0.489711,51.473132]]]}},{"type":"Feature","properties":{"routeId":"482","direction":"2","sourceDate":"20260905"},"geometry":{"type":"MultiLineString","coordinates":[[[-0.489697,51.471989],[-0.489705,51.470219],[-0.490194,51.469812],[-0.490464,51.469465],[-0.491115,51.469365],[-0.491115,51.468061],[-0.491256,51.466858],[-0.492053,51.464944],[-0.4921,51.464387],[-0.492008,51.464143],[-0.49156,51.463733],[-0.491192,51.463557],[-0.489188,51.463217],[-0.489048,51.463089],[-0.488831,51.462259],[-0.488606,51.462094],[-0.487735,51.461858],[-0.486189,51.461622],[-0.485298,51.461575],[-0.478243,51.461591],[-0.477002,51.461488],[-0.476043,51.461113],[-0.475153,51.460158],[-0.474056,51.459397],[-0.473006,51.458924],[-0.471791,51.458684],[-0.468146,51.458358],[-0.468136,51.459086],[-0.468219,51.459159],[-0.467942,51.459272],[-0.467788,51.459153],[-0.467887,51.458707],[-0.467873,51.458327],[-0.460513,51.457619],[-0.460595,51.457773],[-0.460527,51.457866],[-0.460552,51.458475],[-0.460464,51.458592],[-0.460474,51.45877],[-0.460689,51.459231],[-0.460412,51.459335],[-0.460243,51.459207],[-0.460474,51.45877],[-0.460513,51.457619],[-0.458047,51.457326],[-0.455746,51.456846],[-0.455128,51.456811],[-0.454332,51.456926],[-0.452829,51.456268],[-0.451886,51.456058],[-0.450778,51.456052],[-0.449174,51.456269],[-0.447587,51.456774],[-0.446083,51.457384],[-0.444544,51.457795],[-0.444367,51.457901],[-0.444347,51.458089],[-0.444729,51.458256],[-0.445809,51.45783],[-0.446126,51.457816],[-0.446426,51.457883],[-0.447288,51.458362],[-0.447241,51.458487],[-0.445486,51.459723],[-0.445341,51.459748],[-0.44445,51.459269],[-0.444284,51.459078],[-0.444222,51.458789],[-0.444348,51.458467],[-0.444196,51.458276],[-0.443484,51.458042],[-0.443252,51.45812],[-0.442218,51.458897],[-0.442452,51.459089],[-0.442385,51.459156],[-0.441018,51.459929],[-0.440349,51.460077],[-0.438257,51.46022],[-0.425637,51.465537],[-0.424652,51.466126],[-0.424056,51.466721],[-0.423722,51.466797],[-0.423621,51.467236],[-0.423415,51.467359],[-0.423201,51.467374],[-0.423014,51.467282],[-0.423109,51.467049],[-0.423423,51.466824],[-0.423924,51.466773],[-0.423963,51.466899],[-0.423569,51.467487],[-0.422943,51.467686],[-0.422829,51.467657],[-0.422376,51.466995],[-0.421848,51.466862],[-0.408896,51.470841],[-0.403826,51.472726],[-0.396157,51.475272],[-0.396023,51.475405],[-0.396105,51.475532],[-0.395998,51.47571],[-0.395736,51.475769],[-0.395494,51.475703],[-0.395243,51.475475],[-0.388779,51.473777],[-0.386886,51.473157],[-0.386216,51.474191],[-0.384526,51.475984],[-0.384146,51.476546],[-0.383322,51.478261],[-0.382324,51.479596],[-0.381489,51.482783],[-0.380658,51.484779],[-0.381322,51.486041],[-0.381348,51.486426],[-0.381115,51.486908],[-0.381023,51.487464],[-0.381327,51.489069],[-0.38126,51.490147],[-0.381407,51.492091],[-0.383371,51.492352],[-0.386403,51.492988],[-0.38845,51.492926],[-0.388635,51.493009],[-0.388551,51.493323],[-0.389854,51.493566],[-0.390045,51.493856],[-0.391598,51.493931],[-0.396522,51.495258],[-0.396889,51.495469],[-0.39695,51.495785],[-0.397048,51.495867],[-0.397933,51.496113],[-0.398116,51.496233],[-0.398204,51.496575],[-0.398019,51.496906],[-0.398345,51.497072],[-0.397044,51.497612],[-0.396334,51.497719],[-0.396215,51.497852],[-0.395856,51.497766],[-0.394324,51.497943],[-0.392898,51.498364],[-0.390551,51.499555],[-0.389339,51.500411],[-0.388802,51.50052],[-0.387526,51.50035],[-0.382747,51.501039],[-0.382219,51.502102],[-0.381516,51.502425],[-0.380238,51.50354],[-0.379586,51.504835],[-0.379145,51.505099],[-0.379124,51.505269],[-0.378693,51.506064],[-0.378193,51.507559],[-0.377283,51.508841],[-0.376698,51.509471],[-0.375861,51.510728],[-0.375458,51.510653]],[[-0.489697,51.471989],[-0.489705,51.470219],[-0.490194,51.469812],[-0.490464,51.469465],[-0.491115,51.469365],[-0.491115,51.468061],[-0.491256,51.466858],[-0.492053,51.464944],[-0.4921,51.464387],[-0.492008,51.464143],[-0.49156,51.463733],[-0.491192,51.463557],[-0.489188,51.463217],[-0.489048,51.463089],[-0.488831,51.462259],[-0.488606,51.462094],[-0.487735,51.461858],[-0.486189,51.461622],[-0.485298,51.461575],[-0.478243,51.461591],[-0.477002,51.461488],[-0.476043,51.461113],[-0.475153,51.460158],[-0.474056,51.459397],[-0.473006,51.458924],[-0.471791,51.458684],[-0.468146,51.458358],[-0.468136,51.459086],[-0.468219,51.459159],[-0.467942,51.459272],[-0.467788,51.459153],[-0.467887,51.458707],[-0.467873,51.458327],[-0.460513,51.457619],[-0.460595,51.457773],[-0.460527,51.457866],[-0.460552,51.458475],[-0.460464,51.458592],[-0.460474,51.45877],[-0.460689,51.459231],[-0.460412,51.459335],[-0.460243,51.459207],[-0.460474,51.45877],[-0.460513,51.457619],[-0.458047,51.457326],[-0.455746,51.456846],[-0.455128,51.456811],[-0.454332,51.456926],[-0.452829,51.456268],[-0.451886,51.456058],[-0.450778,51.456052],[-0.449174,51.456269],[-0.447587,51.456774],[-0.446083,51.457384],[-0.444544,51.457795],[-0.444367,51.457901],[-0.444347,51.458089],[-0.444729,51.458256],[-0.445809,51.45783],[-0.446126,51.457816],[-0.446426,51.457883],[-0.447288,51.458362],[-0.447241,51.458487],[-0.445486,51.459723],[-0.445341,51.459748],[-0.44445,51.459269],[-0.444284,51.459078],[-0.444222,51.458789],[-0.444348,51.458467],[-0.444196,51.458276],[-0.443484,51.458042],[-0.443252,51.45812],[-0.442218,51.458897],[-0.442452,51.459089],[-0.442385,51.459156],[-0.441018,51.459929],[-0.440349,51.460077],[-0.438257,51.46022],[-0.425637,51.465537],[-0.424652,51.466126],[-0.424056,51.466721],[-0.423722,51.466797],[-0.423621,51.467236],[-0.423415,51.467359],[-0.423201,51.467374],[-0.423014,51.467282],[-0.423109,51.467049],[-0.423423,51.466824],[-0.423924,51.466773],[-0.423963,51.466899],[-0.423569,51.467487],[-0.422943,51.467686],[-0.422829,51.467657],[-0.422376,51.466995],[-0.421848,51.466862],[-0.408896,51.470841],[-0.403826,51.472726],[-0.396157,51.475272],[-0.396023,51.475405],[-0.396105,51.475532],[-0.395998,51.47571],[-0.395736,51.475769],[-0.395494,51.475703],[-0.395243,51.475475],[-0.388779,51.473777],[-0.386886,51.473157],[-0.386216,51.474191],[-0.384571,51.475931],[-0.384206,51.476466],[-0.372763,51.477953],[-0.372455,51.478506],[-0.372315,51.480015],[-0.372383,51.480151],[-0.373286,51.480667],[-0.373856,51.481628],[-0.373852,51.482927],[-0.373608,51.483756],[-0.373268,51.484407],[-0.372926,51.484717],[-0.37311,51.485205],[-0.374196,51.485454],[-0.375246,51.485478],[-0.377159,51.485136],[-0.377816,51.484911],[-0.378351,51.484837],[-0.380683,51.484869],[-0.381322,51.486041],[-0.381348,51.486426],[-0.381115,51.486908],[-0.381023,51.487464],[-0.381327,51.489069],[-0.38126,51.490147],[-0.381407,51.492091],[-0.383371,51.492352],[-0.386403,51.492988],[-0.38845,51.492926],[-0.388635,51.493009],[-0.388551,51.493323],[-0.389854,51.493566],[-0.390045,51.493856],[-0.391598,51.493931],[-0.396522,51.495258],[-0.396889,51.495469],[-0.39695,51.495785],[-0.397048,51.495867],[-0.397933,51.496113],[-0.398116,51.496233],[-0.398204,51.496575],[-0.398019,51.496906],[-0.398345,51.497072],[-0.397044,51.497612],[-0.396334,51.497719],[-0.396215,51.497852],[-0.395856,51.497766],[-0.394324,51.497943],[-0.392898,51.498364],[-0.390551,51.499555],[-0.389339,51.500411],[-0.388802,51.50052],[-0.387526,51.50035],[-0.382747,51.501039],[-0.382219,51.502102],[-0.381516,51.502425],[-0.380238,51.50354],[-0.379586,51.504835],[-0.379145,51.505099],[-0.379124,51.505269],[-0.378693,51.506064],[-0.378193,51.507559],[-0.377283,51.508841],[-0.376698,51.509471],[-0.375861,51.510728],[-0.375458,51.510653]]]}}]}