{"type":"FeatureCollection","metadata":{"routeId":"485","sourceDate":"20260905","source":"https://bus.data.tfl.gov.uk/bus-geometry/"},"features":[{"type":"Feature","properties":{"routeId":"485","direction":"1","sourceDate":"20260905"},"geometry":{"type":"LineString","coordinates":[[-0.259475,51.467938],[-0.259321,51.467952],[-0.259926,51.46984],[-0.257509,51.470164],[-0.255924,51.470581],[-0.255473,51.471078],[-0.253859,51.471863],[-0.252805,51.472523],[-0.251389,51.473589],[-0.250916,51.473519],[-0.249713,51.473744],[-0.249216,51.473751],[-0.247712,51.473345],[-0.246625,51.471647],[-0.245815,51.470988],[-0.244619,51.470278],[-0.240423,51.470439],[-0.239834,51.470404],[-0.236909,51.469712],[-0.230588,51.468601],[-0.228652,51.468383],[-0.224819,51.46846],[-0.224289,51.468407],[-0.219228,51.46729],[-0.218175,51.467163],[-0.216981,51.467136],[-0.214458,51.466117],[-0.214248,51.46597],[-0.214167,51.465825],[-0.214827,51.464792],[-0.213263,51.464368],[-0.210816,51.463166],[-0.209459,51.462903],[-0.208665,51.462585],[-0.206914,51.462072],[-0.205544,51.461839],[-0.201639,51.460891],[-0.20071,51.460592],[-0.199224,51.459967],[-0.199285,51.460588],[-0.197781,51.460746],[-0.196635,51.461006],[-0.196581,51.461107],[-0.197019,51.461776],[-0.195321,51.461925],[-0.195149,51.461093],[-0.19654,51.461053],[-0.196825,51.460919],[-0.197781,51.460746],[-0.199285,51.460588],[-0.199224,51.459967],[-0.198695,51.459491],[-0.198289,51.458838],[-0.198295,51.458325],[-0.198163,51.458008],[-0.197822,51.457904],[-0.195859,51.458458],[-0.193566,51.458891],[-0.192757,51.458959],[-0.192098,51.458859],[-0.191974,51.458731],[-0.192151,51.457938]]}},{"type":"Feature","properties":{"routeId":"485","direction":"2","sourceDate":"20260905"},"geometry":{"type":"LineString","coordinates":[[-0.193496,51.456946],[-0.195039,51.457304],[-0.195727,51.457368],[-0.197319,51.457141],[-0.197692,51.457183],[-0.198271,51.458208],[-0.198342,51.458964],[-0.198695,51.459491],[-0.199224,51.459967],[-0.199285,51.460588],[-0.197781,51.460746],[-0.196635,51.461006],[-0.196581,51.461107],[-0.197019,51.461776],[-0.195321,51.461925],[-0.195149,51.461093],[-0.19654,51.461053],[-0.196825,51.460919],[-0.197781,51.460746],[-0.199285,51.460588],[-0.199224,51.459967],[-0.20125,51.460781],[-0.20547,51.461825],[-0.206914,51.462072],[-0.208668,51.462586],[-0.209459,51.462903],[-0.210816,51.463166],[-0.213274,51.464373],[-0.214827,51.464792],[-0.214288,51.465692],[-0.21424,51.465871],[-0.214458,51.466117],[-0.216981,51.467136],[-0.219021,51.467248],[-0.223917,51.468338],[-0.224819,51.46846],[-0.228652,51.468383],[-0.230588,51.468601],[-0.236909,51.469712],[-0.239834,51.470404],[-0.240423,51.470439],[-0.244619,51.470278],[-0.245815,51.470988],[-0.246625,51.471647],[-0.247712,51.473345],[-0.249216,51.473751],[-0.249713,51.473744],[-0.2507,51.473534],[-0.251389,51.473589],[-0.253005,51.472372],[-0.253859,51.471863],[-0.255473,51.471078],[-0.255924,51.470581],[-0.257509,51.470164],[-0.259926,51.46984],[-0.259334,51.467993]]}}]}