{"type":"FeatureCollection","metadata":{"routeId":"592","sourceDate":"20260905","source":"https://bus.data.tfl.gov.uk/bus-geometry/"},"features":[{"type":"Feature","properties":{"routeId":"592","direction":"1","sourceDate":"20260905"},"geometry":{"type":"LineString","coordinates":[[0.105384,51.433539],[0.105716,51.43342],[0.105676,51.432863],[0.102657,51.432909],[0.102489,51.432075],[0.102173,51.431137],[0.101904,51.429667],[0.101214,51.428438],[0.101304,51.427883],[0.100909,51.426483],[0.102957,51.426275],[0.103482,51.426131],[0.105333,51.425073],[0.106977,51.424548],[0.10775,51.423842],[0.109406,51.422625],[0.11112,51.42164],[0.112931,51.42079],[0.116269,51.419552],[0.1184,51.418485],[0.120391,51.417679],[0.121915,51.417203],[0.123647,51.416127],[0.126338,51.415242],[0.127071,51.415534],[0.128453,51.416383],[0.129356,51.417039],[0.13214,51.419399],[0.1329,51.420276],[0.13337,51.421103],[0.133768,51.422229],[0.134435,51.424807],[0.134693,51.425405],[0.135353,51.42645],[0.136031,51.427269],[0.137206,51.428399],[0.140148,51.430765],[0.142057,51.43215],[0.146177,51.43457]]}},{"type":"Feature","properties":{"routeId":"592","direction":"2","sourceDate":"20260905"},"geometry":{"type":"LineString","coordinates":[[0.146164,51.43444],[0.14162,51.431735],[0.137768,51.42873],[0.13646,51.427522],[0.135839,51.426859],[0.135013,51.425628],[0.134579,51.424822],[0.134376,51.424152],[0.134128,51.422232],[0.133634,51.421206],[0.132847,51.419992],[0.132073,51.419176],[0.129089,51.416725],[0.127095,51.415444],[0.126969,51.415203],[0.127032,51.415004],[0.126822,51.414828],[0.126378,51.414854],[0.126213,51.415019],[0.126338,51.415242],[0.123647,51.416127],[0.122081,51.417091],[0.117844,51.418686],[0.115973,51.419683],[0.114085,51.420362],[0.111578,51.42139],[0.109406,51.422625],[0.108153,51.423538],[0.106977,51.424548],[0.104981,51.425241],[0.103961,51.425907],[0.103482,51.426131],[0.102957,51.426275],[0.100909,51.426483],[0.101304,51.427883],[0.101214,51.428438],[0.101904,51.429667],[0.102174,51.431141],[0.102489,51.432075],[0.102657,51.432909],[0.105676,51.432863],[0.105739,51.433303],[0.105647,51.433484],[0.103501,51.433739],[0.103604,51.433791],[0.103614,51.43371],[0.10397,51.433613],[0.104852,51.43358]]}}]}