{"type":"FeatureCollection","metadata":{"routeId":"72","sourceDate":"20260905","source":"https://bus.data.tfl.gov.uk/bus-geometry/"},"features":[{"type":"Feature","properties":{"routeId":"72","direction":"1","sourceDate":"20260905"},"geometry":{"type":"LineString","coordinates":[[-0.251476,51.51989],[-0.251104,51.519814],[-0.250668,51.519511],[-0.250727,51.519271],[-0.250601,51.518647],[-0.249422,51.515176],[-0.238082,51.515861],[-0.233292,51.516364],[-0.230099,51.51655],[-0.227214,51.516983],[-0.226567,51.515831],[-0.226277,51.515503],[-0.226038,51.514996],[-0.227931,51.514872],[-0.228706,51.514928],[-0.235445,51.514356],[-0.235001,51.51161],[-0.234931,51.511614],[-0.234829,51.511164],[-0.234608,51.509826],[-0.234551,51.506483],[-0.233689,51.506473],[-0.231117,51.506223],[-0.228323,51.505867],[-0.225636,51.505314],[-0.221771,51.504644],[-0.21926,51.504363],[-0.219198,51.50411],[-0.222637,51.503506],[-0.223207,51.50334],[-0.223184,51.503146],[-0.222149,51.501601],[-0.222016,51.500952],[-0.222093,51.499712],[-0.222207,51.499003],[-0.222625,51.497517],[-0.22284,51.497161],[-0.223796,51.496285],[-0.223964,51.496036],[-0.223977,51.4935],[-0.223859,51.493192],[-0.223597,51.492892],[-0.223284,51.492788],[-0.223023,51.492469],[-0.222711,51.492348],[-0.222392,51.492388],[-0.222123,51.491538],[-0.222418,51.491345],[-0.22442,51.491357],[-0.224761,51.491488],[-0.224844,51.491939],[-0.224956,51.492031],[-0.225921,51.492019],[-0.227038,51.49146],[-0.227622,51.490915]]}},{"type":"Feature","properties":{"routeId":"72","direction":"2","sourceDate":"20260905"},"geometry":{"type":"LineString","coordinates":[[-0.227622,51.490915],[-0.227816,51.490716],[-0.228063,51.490657],[-0.228205,51.490704],[-0.228608,51.491088],[-0.228457,51.491257],[-0.227617,51.491379],[-0.227179,51.491525],[-0.226106,51.492075],[-0.224964,51.492193],[-0.224859,51.492308],[-0.224826,51.492784],[-0.224735,51.492891],[-0.224338,51.493092],[-0.224106,51.493124],[-0.223775,51.493119],[-0.223597,51.492892],[-0.224284,51.492623],[-0.224326,51.4923],[-0.223728,51.491751],[-0.223557,51.491695],[-0.2236,51.491327],[-0.224363,51.491348],[-0.224761,51.491488],[-0.224829,51.491588],[-0.224846,51.492641],[-0.224735,51.492891],[-0.224101,51.493277],[-0.223994,51.493428],[-0.223964,51.496036],[-0.223796,51.496285],[-0.222765,51.497249],[-0.222625,51.497517],[-0.222207,51.499003],[-0.222093,51.499712],[-0.222022,51.50115],[-0.222149,51.501601],[-0.222729,51.502487],[-0.223184,51.503146],[-0.223821,51.503434],[-0.224934,51.505204],[-0.228339,51.505869],[-0.233042,51.506424],[-0.234092,51.506485],[-0.238359,51.506432],[-0.240418,51.506578],[-0.24133,51.511234],[-0.234931,51.511614],[-0.234626,51.509802],[-0.231758,51.509984],[-0.231228,51.510172],[-0.227251,51.512334],[-0.225226,51.512888],[-0.225847,51.514346],[-0.226269,51.514981],[-0.226567,51.515831],[-0.227214,51.516983],[-0.230099,51.51655],[-0.233292,51.516364],[-0.238082,51.515861],[-0.249422,51.515176],[-0.250601,51.518647],[-0.250727,51.519271],[-0.250668,51.519511],[-0.25092,51.519722],[-0.251361,51.519881],[-0.25351,51.519863]]}}]}