{"type":"FeatureCollection","metadata":{"routeId":"DL11","sourceDate":"20260905","source":"https://bus.data.tfl.gov.uk/bus-geometry/"},"features":[{"type":"Feature","properties":{"routeId":"DL11","direction":"1","sourceDate":"20260905"},"geometry":{"type":"LineString","coordinates":[[-0.195294,51.489977],[-0.199467,51.492191],[-0.200662,51.492929],[-0.203212,51.495126],[-0.205017,51.496476],[-0.205875,51.49665],[-0.206621,51.496347],[-0.207917,51.495999],[-0.209262,51.495866],[-0.210115,51.495637]]}},{"type":"Feature","properties":{"routeId":"DL11","direction":"2","sourceDate":"20260905"},"geometry":{"type":"LineString","coordinates":[[-0.210115,51.495637],[-0.211455,51.495054],[-0.210546,51.494366],[-0.208236,51.493018],[-0.207859,51.492697],[-0.207381,51.492061],[-0.207193,51.491329],[-0.206851,51.490856],[-0.206628,51.490304],[-0.206019,51.489315],[-0.205533,51.488858],[-0.204465,51.488536],[-0.20414,51.48836],[-0.203394,51.487179],[-0.202568,51.485485],[-0.198629,51.486387],[-0.192841,51.488537],[-0.193541,51.489042],[-0.195294,51.489977]]}}]}