{"type":"FeatureCollection","metadata":{"routeId":"N133","sourceDate":"20260905","source":"https://bus.data.tfl.gov.uk/bus-geometry/"},"features":[{"type":"Feature","properties":{"routeId":"N133","direction":"1","sourceDate":"20260905"},"geometry":{"type":"LineString","coordinates":[[-0.194,51.402456],[-0.193683,51.402653],[-0.191813,51.403425],[-0.191611,51.403431],[-0.191388,51.403265],[-0.190531,51.402011],[-0.190214,51.401673],[-0.188261,51.400168],[-0.187767,51.399691],[-0.187367,51.399129],[-0.184891,51.39848],[-0.184523,51.397988],[-0.184088,51.397721],[-0.183716,51.397301],[-0.181856,51.396373],[-0.177857,51.395349],[-0.176064,51.394521],[-0.175481,51.394377],[-0.17465,51.394301],[-0.174085,51.394358],[-0.173748,51.394574],[-0.173481,51.395146],[-0.173405,51.396323],[-0.173034,51.397693],[-0.171621,51.398943],[-0.168544,51.40104],[-0.168201,51.401376],[-0.168321,51.401585],[-0.169679,51.402155],[-0.169655,51.402397],[-0.169581,51.402459],[-0.166679,51.402746],[-0.16541,51.40382],[-0.164617,51.404693],[-0.16451,51.404862],[-0.164531,51.405042],[-0.165852,51.405458],[-0.165932,51.405603],[-0.165869,51.405755],[-0.165427,51.406018],[-0.163063,51.405059],[-0.162089,51.404275],[-0.161598,51.40362],[-0.161245,51.403444],[-0.1609,51.403447],[-0.16033,51.403681],[-0.159911,51.403728],[-0.154806,51.402274],[-0.146565,51.399193],[-0.145925,51.39903],[-0.144202,51.400405],[-0.142996,51.401061],[-0.140131,51.402451],[-0.136799,51.403912],[-0.138896,51.405726],[-0.141687,51.407469],[-0.142185,51.407954],[-0.142301,51.408289],[-0.142241,51.409052],[-0.140022,51.411661],[-0.139682,51.412231],[-0.141264,51.412787],[-0.142215,51.413242],[-0.141863,51.413426],[-0.140881,51.414237],[-0.140153,51.414997],[-0.138642,51.416243],[-0.136211,51.417757],[-0.13451,51.418693],[-0.131742,51.420036],[-0.130313,51.421218],[-0.129373,51.421716],[-0.129082,51.421783],[-0.130368,51.424124],[-0.130724,51.424912],[-0.130661,51.425037],[-0.131242,51.426314],[-0.131323,51.426801],[-0.131101,51.427649],[-0.131029,51.429062],[-0.131133,51.429279],[-0.129914,51.430286],[-0.129508,51.430738],[-0.12938,51.43105],[-0.129361,51.431859],[-0.129214,51.432298],[-0.128511,51.433294],[-0.128353,51.433642],[-0.128369,51.434489],[-0.128251,51.435394],[-0.127667,51.437057],[-0.126267,51.439188],[-0.126011,51.43989],[-0.124806,51.441571],[-0.124646,51.441955],[-0.124646,51.442305],[-0.124913,51.443173],[-0.124923,51.443625],[-0.12443,51.445476],[-0.124293,51.445663],[-0.124297,51.447318],[-0.124232,51.447847],[-0.124085,51.448276],[-0.123756,51.448831],[-0.12258,51.450231],[-0.119256,51.455386],[-0.1167,51.459682],[-0.11581,51.461201],[-0.113901,51.46533],[-0.113089,51.466796],[-0.112833,51.467411],[-0.112499,51.468522],[-0.112566,51.470753],[-0.112783,51.472692],[-0.112663,51.474709],[-0.112358,51.477302],[-0.112137,51.478345],[-0.111668,51.479578],[-0.110815,51.481057],[-0.110903,51.481373],[-0.111379,51.482046],[-0.111533,51.482867],[-0.109968,51.48447],[-0.104271,51.489969],[-0.103227,51.491078],[-0.10313,51.491347],[-0.101954,51.492263],[-0.101155,51.49273],[-0.100873,51.493002],[-0.100712,51.493367],[-0.100783,51.49478],[-0.101236,51.494985],[-0.101259,51.495102],[-0.101099,51.495504],[-0.100994,51.495584],[-0.100459,51.495629],[-0.100105,51.495839],[-0.099632,51.496829],[-0.0993,51.497193],[-0.097141,51.49902],[-0.09385,51.500822],[-0.093226,51.501253],[-0.093104,51.501444],[-0.092758,51.501691],[-0.092231,51.502581],[-0.091105,51.50402],[-0.090234,51.504639],[-0.090134,51.50484],[-0.08947,51.505216],[-0.088722,51.505878],[-0.088477,51.506216],[-0.088275,51.506696],[-0.086963,51.510364],[-0.086681,51.510899],[-0.086321,51.510911],[-0.085601,51.511241],[-0.084234,51.513233],[-0.083846,51.514243],[-0.083649,51.514483],[-0.082983,51.514903],[-0.081973,51.515948],[-0.082108,51.516157],[-0.083585,51.516343],[-0.083119,51.517486],[-0.082733,51.517999]]}},{"type":"Feature","properties":{"routeId":"N133","direction":"2","sourceDate":"20260905"},"geometry":{"type":"LineString","coordinates":[[-0.082495,51.51839],[-0.083119,51.517486],[-0.083553,51.516423],[-0.081703,51.516186],[-0.08165,51.516078],[-0.083866,51.514108],[-0.084041,51.513707],[-0.083971,51.513661],[-0.084026,51.513401],[-0.084234,51.513233],[-0.085014,51.512163],[-0.085693,51.511108],[-0.086121,51.510845],[-0.086569,51.510834],[-0.086854,51.510209],[-0.088057,51.506747],[-0.088396,51.50608],[-0.091034,51.504078],[-0.091788,51.503195],[-0.092743,51.501708],[-0.093226,51.501253],[-0.093279,51.501107],[-0.095039,51.500208],[-0.097315,51.498864],[-0.098719,51.497651],[-0.099681,51.496677],[-0.100105,51.495839],[-0.100459,51.495629],[-0.100994,51.495584],[-0.101099,51.495504],[-0.101259,51.495102],[-0.101236,51.494985],[-0.100597,51.49475],[-0.100451,51.493416],[-0.100528,51.493283],[-0.101155,51.49273],[-0.102891,51.491549],[-0.102904,51.491425],[-0.103124,51.491149],[-0.104188,51.490047],[-0.111126,51.483293],[-0.111473,51.482462],[-0.111379,51.482046],[-0.110903,51.481373],[-0.110746,51.481312],[-0.110879,51.480905],[-0.11162,51.479694],[-0.112137,51.478345],[-0.112309,51.477655],[-0.112516,51.476064],[-0.112767,51.473464],[-0.112773,51.472357],[-0.112566,51.470753],[-0.112499,51.468522],[-0.112797,51.467512],[-0.115036,51.462879],[-0.115045,51.462646],[-0.115574,51.461332],[-0.11581,51.461201],[-0.120079,51.454081],[-0.12258,51.450231],[-0.123747,51.448843],[-0.124007,51.448428],[-0.124273,51.447551],[-0.124322,51.445996],[-0.124257,51.445474],[-0.124748,51.443674],[-0.124727,51.443143],[-0.124462,51.442239],[-0.12449,51.441907],[-0.124646,51.441552],[-0.125838,51.439905],[-0.126273,51.438844],[-0.126778,51.438383],[-0.127054,51.437964],[-0.12754,51.436983],[-0.128046,51.435561],[-0.128193,51.434736],[-0.128227,51.433568],[-0.1284,51.433202],[-0.129264,51.432109],[-0.129361,51.431859],[-0.12938,51.43105],[-0.129508,51.430738],[-0.129914,51.430286],[-0.130897,51.429474],[-0.130872,51.429383],[-0.131029,51.429062],[-0.131173,51.426241],[-0.130661,51.425037],[-0.130521,51.424954],[-0.129922,51.423669],[-0.128922,51.421834],[-0.129373,51.421716],[-0.130521,51.421069],[-0.130911,51.42067],[-0.131742,51.420036],[-0.134428,51.418733],[-0.136184,51.417775],[-0.138642,51.416243],[-0.140217,51.414939],[-0.140657,51.414431],[-0.142069,51.413294],[-0.142034,51.413104],[-0.139682,51.412231],[-0.140213,51.411443],[-0.142241,51.409052],[-0.142301,51.408289],[-0.142185,51.407954],[-0.141687,51.407469],[-0.138988,51.405786],[-0.136799,51.403912],[-0.140792,51.402134],[-0.142996,51.401061],[-0.144113,51.400458],[-0.145925,51.39903],[-0.146054,51.399032],[-0.154951,51.402323],[-0.159911,51.403728],[-0.16033,51.403681],[-0.161294,51.403309],[-0.16149,51.403448],[-0.162089,51.404275],[-0.162966,51.404999],[-0.163842,51.405382],[-0.164145,51.405359],[-0.16528,51.403938],[-0.167541,51.402049],[-0.168636,51.400898],[-0.171742,51.398725],[-0.172845,51.397744],[-0.1731,51.39724],[-0.173291,51.396303],[-0.173365,51.39625],[-0.173481,51.395146],[-0.173748,51.394574],[-0.174004,51.394273],[-0.175481,51.394377],[-0.176007,51.394502],[-0.177857,51.395349],[-0.181742,51.396326],[-0.183716,51.397301],[-0.184088,51.397721],[-0.184523,51.397988],[-0.184891,51.39848],[-0.186743,51.398922],[-0.187003,51.39889],[-0.18721,51.39874],[-0.187682,51.398802],[-0.187789,51.398992],[-0.18754,51.399132],[-0.187983,51.399771],[-0.188363,51.400134],[-0.190318,51.401585],[-0.190681,51.401501],[-0.193142,51.401568],[-0.194105,51.401796],[-0.194536,51.401812],[-0.1948,51.401681],[-0.195056,51.401748],[-0.194842,51.401955]]}}]}