{"type":"FeatureCollection","metadata":{"routeId":"N19","sourceDate":"atlas-canonical","source":"atlas routes-overview (diversion-frozen canonical)"},"features":[{"type":"Feature","properties":{"routeId":"N19","direction":"1","sourceDate":"atlas-canonical"},"geometry":{"type":"LineString","coordinates":[[-0.1057,51.565],[-0.1039,51.5643],[-0.1074,51.5633],[-0.1115,51.5582],[-0.1169,51.5561],[-0.1052,51.5473],[-0.1023,51.546],[-0.1034,51.5448],[-0.1024,51.5383],[-0.1062,51.5326],[-0.1053,51.53],[-0.1103,51.5257],[-0.1126,51.5217],[-0.1195,51.5199],[-0.1254,51.5171],[-0.1304,51.5164],[-0.1292,51.5133],[-0.1331,51.5115],[-0.1347,51.5098],[-0.1414,51.5075],[-0.1514,51.502],[-0.1528,51.5029],[-0.1604,51.5018],[-0.1578,51.4927],[-0.1568,51.4925],[-0.1758,51.4845],[-0.1667,51.4749],[-0.1635,51.4748],[-0.1626,51.4728],[-0.1716,51.4701],[-0.1704,51.4672],[-0.1678,51.4639],[-0.1698,51.4631]]}},{"type":"Feature","properties":{"routeId":"N19","direction":"2","sourceDate":"atlas-canonical"},"geometry":{"type":"LineString","coordinates":[[-0.17,51.4631],[-0.1678,51.4638],[-0.1716,51.4701],[-0.1657,51.4721],[-0.1659,51.4739],[-0.1758,51.4845],[-0.1578,51.4927],[-0.1605,51.5019],[-0.15,51.5033],[-0.1348,51.5098],[-0.1331,51.5115],[-0.1292,51.5133],[-0.1304,51.5164],[-0.1256,51.5171],[-0.1196,51.5199],[-0.1124,51.5219],[-0.1103,51.5257],[-0.1053,51.53],[-0.1062,51.533],[-0.1024,51.5383],[-0.1034,51.5446],[-0.1023,51.546],[-0.1055,51.5475],[-0.1195,51.5578],[-0.1057,51.5643]]}}]}