{"type":"FeatureCollection","metadata":{"routeId":"N43","sourceDate":"20260918","source":"https://bus.data.tfl.gov.uk/bus-geometry/"},"features":[{"type":"Feature","properties":{"routeId":"N43","direction":"1","sourceDate":"20260918"},"geometry":{"type":"MultiLineString","coordinates":[[[-0.153603,51.613049],[-0.153795,51.613139],[-0.153831,51.613311],[-0.156071,51.613455],[-0.15679,51.613357],[-0.158662,51.612875],[-0.158608,51.612703],[-0.156701,51.611629],[-0.155081,51.611189],[-0.154335,51.610864],[-0.154026,51.610643],[-0.15379,51.610397],[-0.153625,51.61001],[-0.153559,51.609692],[-0.1536,51.609387],[-0.153296,51.608339],[-0.153038,51.607939],[-0.151964,51.607014],[-0.150808,51.606303],[-0.150154,51.606041],[-0.149366,51.605552],[-0.148307,51.60353],[-0.148002,51.602509],[-0.147871,51.600771],[-0.147691,51.60022],[-0.147288,51.599485],[-0.146252,51.598318],[-0.145624,51.597445],[-0.145318,51.596132],[-0.14436,51.593738],[-0.143499,51.592879],[-0.142992,51.591864],[-0.142678,51.591418],[-0.142382,51.591252],[-0.142036,51.591255],[-0.141824,51.591117],[-0.141917,51.590984],[-0.142789,51.590844],[-0.144862,51.589564],[-0.145239,51.589526],[-0.146568,51.58844],[-0.146903,51.588014],[-0.147123,51.586147],[-0.147019,51.584437],[-0.146298,51.582645],[-0.146265,51.582393],[-0.146798,51.581334],[-0.146968,51.580722],[-0.146979,51.580111],[-0.147496,51.578743],[-0.14735,51.577734],[-0.143889,51.576249],[-0.143413,51.575891],[-0.139309,51.571589],[-0.136958,51.569269],[-0.135574,51.567467],[-0.1348,51.566645],[-0.133735,51.566233],[-0.133742,51.566062],[-0.134085,51.565789],[-0.133648,51.565188],[-0.131743,51.564501],[-0.130242,51.564145],[-0.128874,51.563718],[-0.128236,51.563456],[-0.126629,51.56254],[-0.125181,51.56196],[-0.124694,51.561614],[-0.123439,51.560466],[-0.118428,51.557192],[-0.113086,51.553376],[-0.112239,51.552571],[-0.108588,51.549814],[-0.106932,51.54844],[-0.105247,51.547269],[-0.103184,51.546247],[-0.102303,51.546074],[-0.10223,51.545953],[-0.102228,51.545656],[-0.102348,51.545532],[-0.102952,51.545569],[-0.103247,51.545412],[-0.103361,51.544766],[-0.103269,51.543506],[-0.102311,51.538796],[-0.102361,51.538341],[-0.103375,51.53679],[-0.103997,51.535361],[-0.105232,51.534086],[-0.106024,51.532991],[-0.106215,51.532636],[-0.106274,51.5319],[-0.106043,51.531929],[-0.105257,51.531749],[-0.088886,51.527529],[-0.088559,51.527314],[-0.088101,51.526846],[-0.08784,51.526233],[-0.086996,51.525742],[-0.087588,51.525041],[-0.087608,51.524898],[-0.087014,51.521875],[-0.087215,51.520863],[-0.087176,51.520763],[-0.08769,51.519153],[-0.088743,51.517342],[-0.089767,51.514645],[-0.088735,51.513136],[-0.086923,51.510975],[-0.086537,51.510897],[-0.086854,51.510209],[-0.088278,51.506141],[-0.088184,51.505996],[-0.087645,51.505771],[-0.08741,51.505533],[-0.086638,51.505129]],[[-0.153603,51.613049],[-0.153795,51.613139],[-0.153831,51.613311],[-0.156071,51.613455],[-0.15679,51.613357],[-0.158662,51.612875],[-0.158608,51.612703],[-0.156701,51.611629],[-0.155081,51.611189],[-0.154335,51.610864],[-0.154026,51.610643],[-0.15379,51.610397],[-0.153625,51.61001],[-0.153559,51.609692],[-0.1536,51.609387],[-0.153296,51.608339],[-0.153038,51.607939],[-0.151964,51.607014],[-0.150808,51.606303],[-0.150154,51.606041],[-0.149366,51.605552],[-0.148307,51.60353],[-0.148002,51.602509],[-0.147871,51.600771],[-0.147691,51.60022],[-0.147288,51.599485],[-0.146252,51.598318],[-0.145624,51.597445],[-0.145318,51.596132],[-0.14436,51.593738],[-0.143499,51.592879],[-0.142992,51.591864],[-0.142678,51.591418],[-0.142382,51.591252],[-0.142036,51.591255],[-0.141824,51.591117],[-0.141917,51.590984],[-0.142789,51.590844],[-0.144862,51.589564],[-0.145239,51.589526],[-0.146568,51.58844],[-0.146903,51.588014],[-0.147123,51.586147],[-0.147019,51.584437],[-0.146298,51.582645],[-0.146265,51.582393],[-0.146798,51.581334],[-0.146968,51.580722],[-0.146979,51.580111],[-0.147496,51.578743],[-0.14735,51.577734],[-0.143889,51.576249],[-0.143413,51.575891],[-0.139309,51.571589],[-0.136958,51.569269],[-0.135574,51.567467],[-0.1348,51.566645],[-0.133735,51.566233],[-0.133742,51.566062],[-0.134085,51.565789],[-0.133648,51.565188],[-0.131743,51.564501],[-0.130242,51.564145],[-0.128874,51.563718],[-0.128236,51.563456],[-0.126629,51.56254],[-0.125181,51.56196],[-0.124694,51.561614],[-0.123439,51.560466],[-0.118428,51.557192],[-0.113086,51.553376],[-0.112239,51.552571],[-0.108588,51.549814],[-0.106932,51.54844],[-0.105247,51.547269],[-0.103538,51.546388],[-0.103301,51.546195],[-0.103165,51.546004],[-0.103193,51.545672],[-0.102952,51.545569],[-0.103247,51.545412],[-0.103361,51.544766],[-0.103269,51.543506],[-0.102311,51.538796],[-0.102361,51.538341],[-0.103375,51.53679],[-0.103997,51.535361],[-0.105232,51.534086],[-0.106024,51.532991],[-0.106215,51.532636],[-0.106274,51.5319],[-0.106043,51.531929],[-0.105257,51.531749],[-0.088886,51.527529],[-0.088559,51.527314],[-0.088101,51.526846],[-0.08784,51.526233],[-0.087853,51.525927],[-0.088049,51.525741],[-0.088083,51.525598],[-0.087607,51.525266],[-0.087514,51.524197],[-0.087014,51.521875],[-0.087215,51.520863],[-0.087176,51.520763],[-0.0877,51.519261],[-0.084169,51.518148],[-0.084194,51.517981],[-0.085434,51.51694],[-0.085483,51.516806],[-0.084083,51.516486],[-0.081703,51.516186],[-0.08165,51.516078],[-0.083866,51.514108],[-0.084041,51.513707],[-0.083971,51.513661],[-0.084026,51.513401],[-0.084234,51.513233],[-0.085014,51.512163],[-0.085693,51.511108],[-0.086121,51.510845],[-0.086569,51.510834],[-0.086854,51.510209],[-0.088278,51.506141],[-0.088184,51.505996],[-0.087645,51.505771],[-0.08741,51.505533],[-0.086638,51.505129]]]}},{"type":"Feature","properties":{"routeId":"N43","direction":"2","sourceDate":"20260918"},"geometry":{"type":"MultiLineString","coordinates":[[[-0.086638,51.505129],[-0.086468,51.504978],[-0.086752,51.504749],[-0.086925,51.504743],[-0.088916,51.505711],[-0.088477,51.506216],[-0.086963,51.510364],[-0.086776,51.510712],[-0.087155,51.511293],[-0.08909,51.5136],[-0.089767,51.514645],[-0.088911,51.516844],[-0.088827,51.517264],[-0.088748,51.517291],[-0.088785,51.517381],[-0.088669,51.51746],[-0.088476,51.517951],[-0.0877,51.519261],[-0.08739,51.520479],[-0.087206,51.520908],[-0.087011,51.521969],[-0.087456,51.523866],[-0.087607,51.525266],[-0.088083,51.525598],[-0.088049,51.525741],[-0.087853,51.525927],[-0.08784,51.526233],[-0.088101,51.526846],[-0.088462,51.527232],[-0.088886,51.527529],[-0.101647,51.530836],[-0.104973,51.531654],[-0.106274,51.5319],[-0.106341,51.531998],[-0.106151,51.533139],[-0.105296,51.534182],[-0.104261,51.535239],[-0.103922,51.535765],[-0.10379,51.535834],[-0.103375,51.53679],[-0.102359,51.538347],[-0.102311,51.538796],[-0.103269,51.543506],[-0.103367,51.544604],[-0.103324,51.544978],[-0.103247,51.545412],[-0.102952,51.545569],[-0.103193,51.545672],[-0.103165,51.546004],[-0.103301,51.546195],[-0.103538,51.546388],[-0.105528,51.547454],[-0.106887,51.548402],[-0.109343,51.550402],[-0.112441,51.552679],[-0.113648,51.553736],[-0.115343,51.55495],[-0.116021,51.555328],[-0.119679,51.557888],[-0.121097,51.558791],[-0.12237,51.559771],[-0.122594,51.55982],[-0.122813,51.559987],[-0.122817,51.560067],[-0.123632,51.560604],[-0.124914,51.561784],[-0.125379,51.562062],[-0.126926,51.562689],[-0.128477,51.563568],[-0.129858,51.564021],[-0.131854,51.564538],[-0.134428,51.565506],[-0.133742,51.566062],[-0.133735,51.566233],[-0.134531,51.566515],[-0.134865,51.566475],[-0.135542,51.567196],[-0.136731,51.568825],[-0.138378,51.570542],[-0.1397,51.571741],[-0.140002,51.572114],[-0.139979,51.572312],[-0.143218,51.575708],[-0.143762,51.576175],[-0.14735,51.577734],[-0.147339,51.577994],[-0.147491,51.578652],[-0.147461,51.578904],[-0.14703,51.579914],[-0.146949,51.580839],[-0.146831,51.581269],[-0.146331,51.582187],[-0.146263,51.582447],[-0.147019,51.584437],[-0.147122,51.585814],[-0.146903,51.588014],[-0.146568,51.58844],[-0.145677,51.589212],[-0.145239,51.589526],[-0.144906,51.589547],[-0.144655,51.589678],[-0.142881,51.590787],[-0.142549,51.591057],[-0.142544,51.591173],[-0.142996,51.591871],[-0.143499,51.592879],[-0.14436,51.593738],[-0.145128,51.595501],[-0.145691,51.597563],[-0.146252,51.598318],[-0.14718,51.599349],[-0.147691,51.60022],[-0.147871,51.600771],[-0.148027,51.602618],[-0.148294,51.603494],[-0.148909,51.604709],[-0.149333,51.605282],[-0.149848,51.605738],[-0.151745,51.606696],[-0.152714,51.607454],[-0.153071,51.607841],[-0.153038,51.607939],[-0.153296,51.608339],[-0.1536,51.609387],[-0.153559,51.609692],[-0.15368,51.609887],[-0.153737,51.610288],[-0.154026,51.610643],[-0.15476,51.611068],[-0.156928,51.611732],[-0.158608,51.612703],[-0.158662,51.612875],[-0.156378,51.613433],[-0.15412,51.613306],[-0.153091,51.613398],[-0.152981,51.613253],[-0.153089,51.613074],[-0.153603,51.613049]],[[-0.086638,51.505129],[-0.086468,51.504978],[-0.086752,51.504749],[-0.086925,51.504743],[-0.088916,51.505711],[-0.088477,51.506216],[-0.086963,51.510364],[-0.086776,51.510712],[-0.087155,51.511293],[-0.088595,51.513034],[-0.088961,51.513247],[-0.08909,51.5136],[-0.089767,51.514645],[-0.088911,51.516844],[-0.088827,51.517264],[-0.088748,51.517291],[-0.088785,51.517381],[-0.088669,51.51746],[-0.088476,51.517951],[-0.0877,51.519261],[-0.08739,51.520479],[-0.087206,51.520908],[-0.087011,51.521969],[-0.087456,51.523866],[-0.087608,51.524898],[-0.087588,51.525041],[-0.086996,51.525742],[-0.087854,51.526251],[-0.088079,51.526722],[-0.088228,51.526804],[-0.088229,51.526923],[-0.088462,51.527232],[-0.088699,51.527415],[-0.089179,51.527592],[-0.101647,51.530836],[-0.104973,51.531654],[-0.106274,51.5319],[-0.106341,51.531998],[-0.106151,51.533139],[-0.105296,51.534182],[-0.104261,51.535239],[-0.103922,51.535765],[-0.10379,51.535834],[-0.103375,51.53679],[-0.102359,51.538347],[-0.102311,51.538796],[-0.102988,51.541927],[-0.103269,51.543506],[-0.103367,51.544604],[-0.103247,51.545412],[-0.102952,51.545569],[-0.102406,51.545515],[-0.102259,51.545603],[-0.10223,51.545953],[-0.102303,51.546074],[-0.103538,51.546388],[-0.105528,51.547454],[-0.106887,51.548402],[-0.109343,51.550402],[-0.112441,51.552679],[-0.113648,51.553736],[-0.115343,51.55495],[-0.116021,51.555328],[-0.119679,51.557888],[-0.121097,51.558791],[-0.12237,51.559771],[-0.122594,51.55982],[-0.122813,51.559987],[-0.122817,51.560067],[-0.123632,51.560604],[-0.124914,51.561784],[-0.125379,51.562062],[-0.126926,51.562689],[-0.128477,51.563568],[-0.129858,51.564021],[-0.131854,51.564538],[-0.134428,51.565506],[-0.133742,51.566062],[-0.133735,51.566233],[-0.134531,51.566515],[-0.134865,51.566475],[-0.135542,51.567196],[-0.136731,51.568825],[-0.138378,51.570542],[-0.1397,51.571741],[-0.140002,51.572114],[-0.139979,51.572312],[-0.143218,51.575708],[-0.143762,51.576175],[-0.14735,51.577734],[-0.147339,51.577994],[-0.147491,51.578652],[-0.147461,51.578904],[-0.14703,51.579914],[-0.146949,51.580839],[-0.146831,51.581269],[-0.146331,51.582187],[-0.146263,51.582447],[-0.147019,51.584437],[-0.147122,51.585814],[-0.146903,51.588014],[-0.146568,51.58844],[-0.145677,51.589212],[-0.145239,51.589526],[-0.144906,51.589547],[-0.144655,51.589678],[-0.142881,51.590787],[-0.142549,51.591057],[-0.142544,51.591173],[-0.142996,51.591871],[-0.143499,51.592879],[-0.14436,51.593738],[-0.145128,51.595501],[-0.145691,51.597563],[-0.146252,51.598318],[-0.14718,51.599349],[-0.147691,51.60022],[-0.147871,51.600771],[-0.148027,51.602618],[-0.148294,51.603494],[-0.148909,51.604709],[-0.149333,51.605282],[-0.149848,51.605738],[-0.151745,51.606696],[-0.152714,51.607454],[-0.153071,51.607841],[-0.153038,51.607939],[-0.153296,51.608339],[-0.1536,51.609387],[-0.153559,51.609692],[-0.15368,51.609887],[-0.153737,51.610288],[-0.154026,51.610643],[-0.15476,51.611068],[-0.156928,51.611732],[-0.158608,51.612703],[-0.158662,51.612875],[-0.156378,51.613433],[-0.15412,51.613306],[-0.153091,51.613398],[-0.152981,51.613253],[-0.153089,51.613074],[-0.153603,51.613049]]]}}]}