{"type":"FeatureCollection","metadata":{"routeId":"P4","sourceDate":"atlas-canonical","source":"atlas routes-overview (diversion-frozen canonical)"},"features":[{"type":"Feature","properties":{"routeId":"P4","direction":"1","sourceDate":"atlas-canonical"},"geometry":{"type":"LineString","coordinates":[[-0.0126,51.4641],[-0.0093,51.4624],[-0.0133,51.4577],[-0.0168,51.4567],[-0.0293,51.4561],[-0.0345,51.4535],[-0.0374,51.4541],[-0.0412,51.4488],[-0.049,51.4501],[-0.0537,51.4487],[-0.0554,51.4442],[-0.0589,51.4406],[-0.0645,51.441],[-0.0675,51.4432],[-0.0727,51.4436],[-0.0844,51.4419],[-0.0858,51.4475],[-0.0856,51.4507],[-0.0902,51.4554],[-0.0904,51.457],[-0.0965,51.461],[-0.1016,51.4662],[-0.1034,51.4646],[-0.1077,51.463],[-0.1108,51.465],[-0.1142,51.4648],[-0.1153,51.462]]}},{"type":"Feature","properties":{"routeId":"P4","direction":"2","sourceDate":"atlas-canonical"},"geometry":{"type":"LineString","coordinates":[[-0.1154,51.462],[-0.1142,51.4648],[-0.1108,51.465],[-0.1077,51.463],[-0.1034,51.4646],[-0.1016,51.4662],[-0.0963,51.4608],[-0.0904,51.457],[-0.0903,51.4555],[-0.0856,51.4507],[-0.0855,51.4459],[-0.0844,51.4419],[-0.0727,51.4436],[-0.0675,51.4432],[-0.0649,51.4411],[-0.0589,51.4406],[-0.0554,51.4442],[-0.0538,51.4487],[-0.049,51.4501],[-0.0412,51.4488],[-0.0379,51.4539],[-0.0341,51.4535],[-0.0293,51.4561],[-0.0263,51.4567],[-0.0145,51.4565],[-0.0122,51.4592],[-0.0133,51.4614],[-0.0129,51.4631],[-0.0108,51.4637],[-0.0113,51.465],[-0.0132,51.4649]]}}]}