{"type":"FeatureCollection","metadata":{"routeId":"SL12","sourceDate":"20260905","source":"https://bus.data.tfl.gov.uk/bus-geometry/"},"features":[{"type":"Feature","properties":{"routeId":"SL12","direction":"1","sourceDate":"20260905"},"geometry":{"type":"LineString","coordinates":[[0.068154,51.576248],[0.082519,51.573753],[0.083544,51.573645],[0.084703,51.573742],[0.090618,51.575128],[0.090704,51.575254],[0.090508,51.575392],[0.090573,51.575849],[0.09083,51.5758],[0.090794,51.575324],[0.091018,51.575205],[0.093741,51.575694],[0.094793,51.57599],[0.096142,51.576443],[0.097099,51.576866],[0.105166,51.580894],[0.106576,51.581436],[0.109162,51.582099],[0.111386,51.582428],[0.113033,51.582564],[0.115802,51.582564],[0.131949,51.581382],[0.159994,51.580455],[0.161605,51.580641],[0.162378,51.580816],[0.164436,51.581596],[0.172163,51.58622],[0.172857,51.586549],[0.172872,51.585964],[0.172795,51.585561],[0.173034,51.585124],[0.175268,51.58324],[0.177907,51.580772],[0.178094,51.580444],[0.178441,51.58015],[0.178739,51.580046],[0.178999,51.580068],[0.180947,51.580643],[0.181727,51.580665],[0.183319,51.580455],[0.184193,51.580612],[0.184465,51.580543],[0.184531,51.580424],[0.184308,51.579996],[0.184368,51.579752],[0.185262,51.578827],[0.185943,51.578218],[0.186209,51.578099],[0.186115,51.577948],[0.1858,51.577949],[0.184845,51.577516],[0.184834,51.577421],[0.184584,51.577295],[0.185082,51.576879],[0.184063,51.576404],[0.183278,51.576274],[0.183328,51.576112],[0.183728,51.575726],[0.184039,51.575604],[0.184055,51.57545],[0.183371,51.575203],[0.183624,51.574775],[0.184057,51.573265],[0.184109,51.572851],[0.183883,51.572333],[0.184147,51.571825],[0.181634,51.571485],[0.180981,51.57111],[0.180068,51.571037],[0.179094,51.570796],[0.179633,51.570083],[0.18096,51.568981],[0.180842,51.568802],[0.181076,51.568573],[0.181749,51.56847],[0.181957,51.568583],[0.182796,51.568621],[0.183124,51.568553],[0.183776,51.5689],[0.184404,51.568508],[0.184962,51.568059],[0.185721,51.567038],[0.185914,51.566549],[0.185844,51.565774],[0.187485,51.565611],[0.188972,51.565323],[0.189857,51.56527],[0.190088,51.565122],[0.190141,51.565022],[0.189954,51.564747],[0.188874,51.564776],[0.18858,51.564668],[0.188508,51.564369],[0.188526,51.563848],[0.188812,51.562295],[0.188928,51.561996],[0.189334,51.56144],[0.189326,51.561288],[0.188913,51.560792],[0.188033,51.560188],[0.187884,51.559858],[0.188257,51.558241],[0.18883,51.556953],[0.190218,51.555219],[0.19111,51.55397],[0.191199,51.553726],[0.191226,51.553374],[0.191021,51.552416],[0.190938,51.552193],[0.190459,51.551536],[0.193389,51.550663],[0.194732,51.550395],[0.196279,51.550483],[0.198739,51.550931],[0.198859,51.551028],[0.198944,51.550991],[0.198866,51.550884],[0.199892,51.548593],[0.200083,51.548553],[0.200089,51.548415],[0.199828,51.548384],[0.1972,51.546199],[0.197061,51.545738],[0.196355,51.545473],[0.195243,51.54454],[0.195136,51.544407],[0.195167,51.544155],[0.194761,51.544108],[0.194666,51.54304],[0.194548,51.542683],[0.194363,51.542425],[0.193157,51.541342],[0.192696,51.540536],[0.192535,51.540103],[0.192539,51.539888],[0.192752,51.539423],[0.193024,51.539168],[0.195153,51.538175],[0.195997,51.537431],[0.197341,51.536893],[0.198001,51.53653],[0.195959,51.535147],[0.193693,51.534794],[0.19257,51.53423],[0.191967,51.533744],[0.191426,51.533236],[0.190952,51.532372],[0.190683,51.530075],[0.190524,51.529763],[0.190052,51.529232],[0.187217,51.527549],[0.186017,51.526277],[0.184618,51.524459],[0.184325,51.524348],[0.182853,51.524313],[0.182411,51.524114],[0.18138,51.523071],[0.181504,51.522953],[0.181862,51.522883],[0.182182,51.52267],[0.186697,51.521918],[0.189319,51.521755],[0.189829,51.521863],[0.190097,51.522001],[0.190309,51.522002],[0.190581,51.521868],[0.1906,51.521653],[0.190353,51.521501],[0.190094,51.521193],[0.189886,51.520368],[0.189589,51.520005],[0.189543,51.519826],[0.189822,51.519641],[0.190856,51.519432],[0.190848,51.519356],[0.190758,51.519309],[0.190224,51.519598],[0.189563,51.519646],[0.1893,51.519579],[0.189161,51.519681],[0.188581,51.51955],[0.186643,51.51793],[0.187746,51.516937],[0.187035,51.516519],[0.186854,51.51636],[0.186863,51.516243],[0.189118,51.515167],[0.188281,51.514553],[0.188046,51.514171],[0.18763,51.513909],[0.186469,51.513445],[0.185551,51.513237],[0.184989,51.512924],[0.184805,51.512762],[0.184858,51.512297],[0.184338,51.511983],[0.184025,51.511458],[0.182295,51.511454],[0.180939,51.511111],[0.179178,51.510458],[0.179016,51.510304],[0.17867,51.510236],[0.178469,51.510086],[0.178098,51.509333]]}},{"type":"Feature","properties":{"routeId":"SL12","direction":"2","sourceDate":"20260905"},"geometry":{"type":"LineString","coordinates":[[0.178098,51.509333],[0.177899,51.508842],[0.177754,51.507947],[0.177863,51.507676],[0.178851,51.506635],[0.179251,51.505123],[0.180074,51.503013],[0.180988,51.502126],[0.181736,51.501744],[0.185099,51.503213],[0.185147,51.503315],[0.183922,51.503872],[0.182041,51.505263],[0.180646,51.507193],[0.180641,51.507734],[0.1809,51.508508],[0.180757,51.509086],[0.180482,51.509393],[0.179797,51.509838],[0.179196,51.510177],[0.178686,51.510323],[0.178593,51.510483],[0.178808,51.510626],[0.179574,51.510596],[0.181831,51.511374],[0.182295,51.511454],[0.183433,51.511424],[0.184285,51.512064],[0.184476,51.512457],[0.184989,51.512924],[0.185551,51.513237],[0.186469,51.513445],[0.187778,51.513978],[0.188046,51.514171],[0.188281,51.514553],[0.189118,51.515167],[0.186836,51.516289],[0.187035,51.516519],[0.187746,51.516937],[0.186643,51.51793],[0.188581,51.51955],[0.189161,51.519681],[0.189226,51.519832],[0.189515,51.519845],[0.189822,51.519641],[0.190856,51.519432],[0.190758,51.519309],[0.190224,51.519598],[0.189563,51.519646],[0.1893,51.519579],[0.189161,51.519681],[0.189226,51.519832],[0.189669,51.520058],[0.189969,51.520601],[0.190094,51.521193],[0.189976,51.521509],[0.189819,51.521646],[0.189319,51.521755],[0.186697,51.521918],[0.181254,51.522849],[0.181412,51.523125],[0.182321,51.524044],[0.182736,51.524279],[0.183649,51.524379],[0.184325,51.524348],[0.184618,51.524459],[0.186017,51.526277],[0.187217,51.527549],[0.190052,51.529232],[0.190524,51.529763],[0.190683,51.530075],[0.190952,51.532372],[0.191426,51.533236],[0.192252,51.533998],[0.192852,51.534396],[0.193693,51.534794],[0.195959,51.535147],[0.198001,51.53653],[0.197341,51.536893],[0.195997,51.537431],[0.195153,51.538175],[0.193345,51.538964],[0.192843,51.539315],[0.192563,51.539788],[0.192535,51.540103],[0.192814,51.540799],[0.193192,51.541381],[0.194363,51.542425],[0.194548,51.542683],[0.194666,51.54304],[0.194761,51.544108],[0.195167,51.544155],[0.195168,51.544469],[0.196355,51.545473],[0.196567,51.545972],[0.197228,51.546212],[0.199828,51.548384],[0.199769,51.548493],[0.199892,51.548593],[0.198866,51.550884],[0.198739,51.550931],[0.196279,51.550483],[0.194545,51.550408],[0.193389,51.550663],[0.190459,51.551536],[0.190938,51.552193],[0.191021,51.552416],[0.191226,51.553374],[0.191199,51.553726],[0.19111,51.55397],[0.190218,51.555219],[0.18883,51.556953],[0.188257,51.558241],[0.187904,51.559713],[0.187887,51.559912],[0.188033,51.560188],[0.188913,51.560792],[0.189326,51.561288],[0.189334,51.56144],[0.188928,51.561996],[0.1888,51.562349],[0.188526,51.563848],[0.188508,51.564369],[0.18858,51.564668],[0.188485,51.564801],[0.188487,51.565134],[0.188273,51.565364],[0.187976,51.565422],[0.185704,51.56563],[0.185654,51.565951],[0.185731,51.566633],[0.18547,51.567403],[0.184962,51.568059],[0.184112,51.568687],[0.183709,51.568721],[0.183105,51.568445],[0.182773,51.568442],[0.182301,51.568573],[0.181522,51.568546],[0.181248,51.568606],[0.181014,51.568781],[0.181061,51.568869],[0.18096,51.568981],[0.179633,51.570083],[0.179094,51.570796],[0.180289,51.571123],[0.180467,51.571228],[0.180464,51.571462],[0.180672,51.571593],[0.181202,51.571511],[0.182987,51.57172],[0.183689,51.571905],[0.183859,51.572136],[0.183903,51.57245],[0.184109,51.572851],[0.183814,51.574205],[0.182134,51.573796],[0.181704,51.573858],[0.181594,51.573976],[0.181597,51.574031],[0.182835,51.573963],[0.183361,51.574097],[0.183465,51.574244],[0.183456,51.574571],[0.183624,51.574775],[0.183493,51.575047],[0.182414,51.576318],[0.182434,51.576434],[0.184845,51.577516],[0.185743,51.578018],[0.185588,51.578408],[0.184437,51.579486],[0.183967,51.580111],[0.183301,51.580375],[0.181304,51.580574],[0.18071,51.580513],[0.178967,51.579988],[0.178064,51.579824],[0.177881,51.579927],[0.177832,51.580099],[0.177999,51.580572],[0.177948,51.580726],[0.175268,51.58324],[0.173034,51.585124],[0.172795,51.585561],[0.172872,51.585964],[0.172693,51.586138],[0.172492,51.586169],[0.172287,51.58611],[0.164679,51.581547],[0.163221,51.580926],[0.161759,51.580549],[0.1608,51.580404],[0.159873,51.580341],[0.131872,51.581275],[0.115713,51.582438],[0.11335,51.582447],[0.111786,51.582349],[0.109971,51.582121],[0.107346,51.581539],[0.106277,51.581198],[0.10507,51.580698],[0.0973,51.576826],[0.095725,51.576162],[0.094042,51.575653],[0.089672,51.574786],[0.084777,51.573634],[0.084,51.573511],[0.082705,51.573606],[0.067466,51.576241],[0.066785,51.576415],[0.066188,51.576299],[0.066158,51.575967],[0.066244,51.575626]]}}]}