{"type":"FeatureCollection","metadata":{"routeId":"UL12","sourceDate":"20260926","source":"https://bus.data.tfl.gov.uk/bus-geometry/"},"features":[{"type":"Feature","properties":{"routeId":"UL12","direction":"1","sourceDate":"20260926"},"geometry":{"type":"LineString","coordinates":[[-0.004199,51.543856],[-0.004123,51.543749],[-0.003908,51.543724],[-0.003888,51.545499],[-0.004093,51.546078],[-0.003198,51.546089],[-0.000974,51.546492],[-0.001403,51.547246],[-0.002987,51.548622],[-0.003189,51.548931],[-0.003375,51.548979],[-0.003342,51.549078],[-0.003538,51.549198],[-0.004998,51.550787],[-0.004156,51.551034],[-0.00442,51.551785],[-0.004991,51.552586],[-0.005244,51.554065],[-0.005326,51.555434],[-0.005467,51.555853],[-0.006949,51.558474],[-0.004648,51.559432],[-0.002392,51.560554],[-0.002219,51.560528],[-0.001789,51.560139],[-0.001612,51.56012],[-0.000981,51.560432],[-0.000092,51.560739],[0.001501,51.560496],[0.004354,51.559764],[0.004721,51.559587],[0.006295,51.558301],[0.006864,51.558121],[0.007358,51.559515],[0.008464,51.561034],[0.009629,51.563244],[0.009834,51.56396],[0.010298,51.566623],[0.010903,51.56832],[0.011247,51.568665],[0.012294,51.569349],[0.014954,51.570761],[0.01601,51.57148],[0.016035,51.571713],[0.015619,51.572422],[0.015557,51.572666],[0.015696,51.57287],[0.016411,51.573047],[0.017311,51.574146],[0.017445,51.574567],[0.017548,51.577523],[0.017848,51.578436],[0.017734,51.579139],[0.018003,51.579656],[0.019833,51.581225],[0.020258,51.582009],[0.023094,51.580234],[0.024015,51.580811],[0.024245,51.581113],[0.024763,51.582381],[0.025347,51.584151],[0.025725,51.584864],[0.026275,51.585547],[0.027346,51.586572],[0.027941,51.587614],[0.028659,51.588501],[0.029467,51.589143],[0.030579,51.589808],[0.029025,51.590895],[0.027729,51.591925],[0.027706,51.592078],[0.028379,51.592588],[0.031309,51.590631],[0.031706,51.590139],[0.033652,51.590716],[0.034726,51.591165],[0.035337,51.591596],[0.035745,51.592002],[0.036664,51.593182],[0.036559,51.593418],[0.036154,51.593731],[0.036106,51.593956],[0.036216,51.594143],[0.037659,51.594442],[0.038641,51.595756],[0.040463,51.599015],[0.041078,51.599544],[0.043066,51.600733],[0.042502,51.60103],[0.041847,51.60123],[0.040185,51.601566],[0.034832,51.602908],[0.034695,51.603396],[0.034194,51.60416],[0.034126,51.604575],[0.035732,51.607218],[0.03601,51.60795],[0.036243,51.608306],[0.041462,51.614861],[0.042115,51.615254],[0.044041,51.61567],[0.045464,51.616176],[0.045894,51.616402],[0.046183,51.616739],[0.046312,51.617034],[0.046269,51.617376],[0.045544,51.618917],[0.046537,51.620438],[0.046659,51.620903],[0.046688,51.621847],[0.046944,51.623066],[0.048124,51.627128],[0.047197,51.627072],[0.046159,51.627117],[0.046085,51.626768],[0.046402,51.626735],[0.046458,51.626689],[0.046407,51.626528],[0.046018,51.626553],[0.046159,51.627117],[0.043376,51.626923],[0.042084,51.627098],[0.039127,51.627221],[0.032945,51.626942],[0.034223,51.629024],[0.036363,51.63164],[0.040243,51.636644],[0.042096,51.638635],[0.043208,51.639587],[0.044363,51.640188],[0.046695,51.640956],[0.048242,51.641613],[0.049032,51.642138],[0.05022,51.643161],[0.052067,51.644369],[0.053277,51.643647],[0.054142,51.64291],[0.054689,51.642231]]}},{"type":"Feature","properties":{"routeId":"UL12","direction":"2","sourceDate":"20260926"},"geometry":{"type":"LineString","coordinates":[[0.054689,51.642231],[0.055044,51.641861],[0.05487,51.641811],[0.054711,51.641952],[0.054277,51.641786],[0.054616,51.642059],[0.054046,51.642667],[0.054082,51.642747],[0.053862,51.643096],[0.053277,51.643647],[0.052067,51.644369],[0.05022,51.643161],[0.049032,51.642138],[0.048242,51.641613],[0.046695,51.640956],[0.044363,51.640188],[0.043208,51.639587],[0.042096,51.638635],[0.040243,51.636644],[0.036363,51.63164],[0.034223,51.629024],[0.032945,51.626942],[0.039127,51.627221],[0.042084,51.627098],[0.043376,51.626923],[0.046159,51.627117],[0.046085,51.626768],[0.046402,51.626735],[0.046458,51.626689],[0.046407,51.626528],[0.046018,51.626553],[0.046159,51.627117],[0.047197,51.627072],[0.048124,51.627128],[0.046944,51.623066],[0.046688,51.621847],[0.046659,51.620903],[0.046537,51.620438],[0.045544,51.618917],[0.046269,51.617376],[0.046312,51.617034],[0.046183,51.616739],[0.045894,51.616402],[0.044568,51.615832],[0.042115,51.615254],[0.041598,51.614993],[0.036209,51.608259],[0.035929,51.607754],[0.038302,51.607839],[0.046282,51.605452],[0.048466,51.604874],[0.048577,51.604782],[0.046995,51.603964],[0.045788,51.602807],[0.044061,51.601327],[0.041078,51.599544],[0.040629,51.599183],[0.04023,51.598669],[0.038641,51.595756],[0.037659,51.594442],[0.03753,51.594147],[0.037633,51.593858],[0.037583,51.593724],[0.037448,51.593609],[0.036877,51.59343],[0.035745,51.592002],[0.035337,51.591596],[0.034726,51.591165],[0.033652,51.590716],[0.030579,51.589808],[0.029025,51.590895],[0.027729,51.591925],[0.027752,51.592131],[0.028379,51.592588],[0.029741,51.591728],[0.028649,51.591208],[0.030579,51.589808],[0.029467,51.589143],[0.028659,51.588501],[0.027941,51.587614],[0.027346,51.586572],[0.026275,51.585547],[0.025725,51.584864],[0.025347,51.584151],[0.024763,51.582381],[0.024245,51.581113],[0.024015,51.580811],[0.023094,51.580234],[0.020258,51.582009],[0.019833,51.581225],[0.017911,51.579541],[0.017731,51.579067],[0.017826,51.578265],[0.017548,51.577523],[0.017448,51.575286],[0.017499,51.574161],[0.016491,51.572883],[0.017202,51.572008],[0.017235,51.571834],[0.017159,51.571676],[0.016994,51.571544],[0.016167,51.571441],[0.015261,51.570854],[0.014659,51.570622],[0.013151,51.569811],[0.011954,51.570609],[0.010816,51.569869],[0.010127,51.56962],[0.009529,51.569163],[0.008996,51.568525],[0.009004,51.568407],[0.010903,51.56832],[0.010298,51.566623],[0.009834,51.56396],[0.009629,51.563244],[0.008464,51.561034],[0.007358,51.559515],[0.006864,51.558121],[0.006295,51.558301],[0.004721,51.559587],[0.004354,51.559764],[0.001501,51.560496],[-0.000092,51.560739],[-0.000981,51.560432],[-0.002623,51.55956],[-0.006592,51.557925],[-0.005495,51.555905],[-0.005326,51.555434],[-0.005244,51.554065],[-0.004991,51.552586],[-0.00442,51.551785],[-0.00407,51.550888],[-0.002321,51.549321],[-0.003141,51.549056],[-0.003189,51.548931],[-0.003109,51.548795],[-0.002266,51.547953],[-0.001403,51.547246],[-0.000974,51.546492],[-0.003198,51.546089],[-0.004093,51.546078],[-0.003888,51.545499],[-0.003908,51.543719],[-0.004184,51.543678],[-0.004242,51.543304]]}}]}