{"type":"FeatureCollection","metadata":{"routeId":"UL18","sourceDate":"20261009","source":"https://bus.data.tfl.gov.uk/bus-geometry/"},"features":[{"type":"Feature","properties":{"routeId":"UL18","direction":"1","sourceDate":"20261009"},"geometry":{"type":"LineString","coordinates":[[-0.07534,51.581751],[-0.078722,51.652377],[-0.077473,51.652452],[-0.072909,51.582794],[-0.072379,51.583066],[-0.072386,51.583226],[-0.076187,51.652414],[-0.074852,51.652229],[-0.072184,51.584239],[-0.073798,51.652194],[-0.07152,51.586278],[-0.072675,51.652095],[-0.072416,51.652054],[-0.071056,51.587349],[-0.070604,51.588493],[-0.069523,51.651413],[-0.070537,51.588717],[-0.070094,51.590643],[-0.064508,51.650384],[-0.070146,51.59077],[-0.06383,51.650331],[-0.069933,51.592061],[-0.069855,51.592204],[-0.06327,51.65024],[-0.069835,51.592383],[-0.062284,51.64999],[-0.069823,51.592544],[-0.060995,51.649699],[-0.058977,51.649234],[-0.057562,51.649119],[-0.056596,51.649161],[-0.054713,51.649001],[-0.069611,51.5937],[-0.069465,51.594239],[-0.048839,51.648661],[-0.068702,51.595889],[-0.068359,51.596828],[-0.046406,51.648441],[-0.068131,51.597436],[-0.068093,51.59766],[-0.046367,51.64852],[-0.046403,51.648556],[-0.068038,51.598262],[-0.046343,51.648772],[-0.046349,51.649411],[-0.068048,51.598729],[-0.046396,51.649682],[-0.046709,51.650461],[-0.067881,51.600606],[-0.067811,51.601927],[-0.067866,51.602342],[-0.047692,51.652482],[-0.047814,51.652673],[-0.067821,51.602589],[-0.048364,51.65333],[-0.067861,51.603115],[-0.048486,51.653512],[-0.048526,51.653926],[-0.04825,51.654973],[-0.068153,51.605091],[-0.047386,51.656578],[-0.047279,51.657053],[-0.047247,51.658122],[-0.047077,51.659063],[-0.045516,51.662733],[-0.045028,51.663669],[-0.044284,51.664484],[-0.043445,51.665828],[-0.041503,51.668278],[-0.041392,51.668519],[-0.041191,51.669819],[-0.040953,51.670351],[-0.068153,51.605091],[-0.040953,51.670351],[-0.068182,51.605422],[-0.040839,51.670605],[-0.040134,51.671798],[-0.068098,51.607057],[-0.068056,51.607362],[-0.04007,51.67182],[-0.067937,51.607792],[-0.03999,51.671969],[-0.039941,51.672026],[-0.06776,51.608212],[-0.039889,51.672033],[-0.067561,51.608487],[-0.067007,51.60884],[-0.067025,51.608901],[-0.066863,51.608977],[-0.066587,51.609326],[-0.038261,51.673962],[-0.065806,51.610365],[-0.038007,51.674217],[-0.065512,51.610818],[-0.037017,51.675037],[-0.065137,51.611496],[-0.036509,51.675424],[-0.036117,51.675795],[-0.064942,51.612005],[-0.064872,51.612283],[-0.035174,51.676859],[-0.034959,51.677152],[-0.064817,51.612893],[-0.034554,51.677811],[-0.064706,51.613476],[-0.064453,51.614677],[-0.034205,51.678515],[-0.033995,51.679689],[-0.064003,51.616119],[-0.034016,51.67987],[-0.033952,51.680363],[-0.03315,51.683515],[-0.033002,51.683594],[-0.032744,51.683535],[-0.030903,51.683613],[-0.030069,51.683841],[-0.029519,51.684165],[-0.029183,51.684591],[-0.029086,51.685138],[-0.029287,51.685528],[-0.029569,51.685694],[-0.029616,51.685929],[-0.029509,51.686071],[-0.029147,51.686083],[-0.02864,51.685751],[-0.028208,51.685664],[-0.028166,51.686013],[-0.026829,51.685828],[-0.026661,51.685681],[-0.026664,51.685277],[-0.026828,51.685149],[-0.027678,51.685239],[-0.064003,51.616119],[-0.027678,51.685239],[-0.063849,51.616627],[-0.028053,51.685282],[-0.028155,51.685312],[-0.063659,51.617079],[-0.028209,51.685348],[-0.063696,51.617173],[-0.028402,51.685596],[-0.063617,51.617343],[-0.063521,51.617388],[-0.028674,51.685634],[-0.028892,51.685629],[-0.063278,51.617832],[-0.02904,51.685551],[-0.029223,51.68552],[-0.062613,51.619538],[-0.029373,51.685547],[-0.029542,51.685649],[-0.061736,51.621475],[-0.029595,51.685758],[-0.061584,51.622003],[-0.029616,51.685929],[-0.061439,51.622684],[-0.061357,51.622917],[-0.029553,51.686045],[-0.029509,51.686071],[-0.060916,51.623773],[-0.029363,51.686104],[-0.060639,51.624496],[-0.029147,51.686083],[-0.060588,51.624694],[-0.029033,51.686036],[-0.060623,51.624874],[-0.028896,51.685872],[-0.02864,51.685751],[-0.060974,51.625123],[-0.028426,51.685693],[-0.061562,51.625222],[-0.028208,51.685664],[-0.028166,51.686013],[-0.062383,51.6253],[-0.02769,51.685978],[-0.026772,51.6858],[-0.026649,51.685636],[-0.026664,51.685277],[-0.026858,51.685145],[-0.028053,51.685282],[-0.028209,51.685348],[-0.028402,51.685596],[-0.028674,51.685634],[-0.029373,51.685547],[-0.029542,51.685649],[-0.029618,51.685884],[-0.029786,51.686022],[-0.031577,51.686753],[-0.032545,51.687453],[-0.032932,51.687864],[-0.03355,51.688962],[-0.034205,51.689216],[-0.034166,51.68944],[-0.033748,51.68973],[-0.03368,51.689981],[-0.034368,51.692165],[-0.034371,51.692442],[-0.062383,51.6253],[-0.034371,51.692442],[-0.064069,51.625713],[-0.034453,51.692844],[-0.034609,51.694573],[-0.065551,51.626214],[-0.069976,51.627132],[-0.034553,51.697207],[-0.071254,51.627333],[-0.034506,51.697953],[-0.07164,51.627411],[-0.072838,51.627791],[-0.034257,51.699454],[-0.075593,51.628573],[-0.034246,51.699604],[-0.034257,51.699702],[-0.075849,51.628668],[-0.034298,51.699759],[-0.034271,51.700017],[-0.077112,51.629219],[-0.034326,51.700432],[-0.078312,51.629895],[-0.077624,51.630432],[-0.034528,51.701136],[-0.077164,51.630712],[-0.076869,51.63086],[-0.034526,51.701514],[-0.076105,51.631172],[-0.034606,51.701659],[-0.074904,51.631548],[-0.03473,51.701796],[-0.073745,51.631969],[-0.035011,51.70199],[-0.072491,51.632569],[-0.07126,51.633304],[-0.035035,51.702116],[-0.07002,51.634296],[-0.034723,51.7023],[-0.034492,51.702619],[-0.034173,51.702632],[-0.062584,51.640669],[-0.033329,51.702735],[-0.032603,51.702804],[-0.031636,51.702734],[-0.030387,51.702838],[-0.027379,51.702788],[-0.024251,51.703167],[-0.024194,51.702991],[-0.062584,51.640669],[-0.061707,51.641483],[-0.061294,51.642024],[-0.061031,51.642425],[-0.060802,51.643042],[-0.060599,51.644405],[-0.060322,51.648528],[-0.060213,51.649389],[-0.060064,51.649504],[-0.058977,51.649234],[-0.057562,51.649119],[-0.056596,51.649161],[-0.046406,51.648441],[-0.046416,51.648656],[-0.046343,51.648772],[-0.046396,51.649682],[-0.047692,51.652482],[-0.048486,51.653512],[-0.048526,51.653926],[-0.04833,51.654795],[-0.047771,51.655685],[-0.047386,51.656578],[-0.047279,51.657053],[-0.047247,51.658122],[-0.047077,51.659063],[-0.045516,51.662733],[-0.045028,51.663669],[-0.044284,51.664484],[-0.043445,51.665828],[-0.041503,51.668278],[-0.041392,51.668519],[-0.041191,51.669819],[-0.040634,51.670988],[-0.040171,51.671753],[-0.038007,51.674217],[-0.036117,51.675795],[-0.035174,51.676859],[-0.034554,51.677811],[-0.034155,51.678676],[-0.033952,51.680363],[-0.03315,51.683515],[-0.033002,51.683594],[-0.032744,51.683535],[-0.031049,51.683588],[-0.030289,51.683764],[-0.029519,51.684165],[-0.029261,51.684448],[-0.029116,51.684788],[-0.029137,51.685309],[-0.029316,51.685528],[-0.029542,51.685649],[-0.029716,51.685976],[-0.031152,51.686539],[-0.03207,51.687067],[-0.032932,51.687864],[-0.03355,51.688962],[-0.034205,51.689216],[-0.034166,51.68944],[-0.033748,51.68973],[-0.03368,51.689981],[-0.034368,51.692165],[-0.034602,51.694069],[-0.034553,51.697207],[-0.034506,51.697953],[-0.034257,51.699454],[-0.034271,51.700017],[-0.034528,51.701136],[-0.034526,51.701514],[-0.03473,51.701796],[-0.035011,51.70199],[-0.035035,51.702116],[-0.034618,51.702379],[-0.034492,51.702619],[-0.032603,51.702804],[-0.031636,51.702734],[-0.030387,51.702838],[-0.027379,51.702788],[-0.024251,51.703167],[-0.024194,51.702991]]}},{"type":"Feature","properties":{"routeId":"UL18","direction":"2","sourceDate":"20261009"},"geometry":{"type":"LineString","coordinates":[[-0.024198,51.703002],[-0.024251,51.703167],[-0.027379,51.702788],[-0.030387,51.702838],[-0.031636,51.702734],[-0.032603,51.702804],[-0.034492,51.702619],[-0.034539,51.701208],[-0.034221,51.699768],[-0.034506,51.697953],[-0.034602,51.694069],[-0.034351,51.692211],[-0.033614,51.689836],[-0.033643,51.689485],[-0.033532,51.689376],[-0.033538,51.689241],[-0.032787,51.687879],[-0.032246,51.687331],[-0.031826,51.687027],[-0.030395,51.686329],[-0.029552,51.686081],[-0.029061,51.686054],[-0.028842,51.685781],[-0.02864,51.685751],[-0.028892,51.685629],[-0.028426,51.685693],[-0.028981,51.685576],[-0.028208,51.685664],[-0.028166,51.686013],[-0.029102,51.684446],[-0.02769,51.685978],[-0.02726,51.68588],[-0.029436,51.684083],[-0.027015,51.685867],[-0.026829,51.685828],[-0.029689,51.683916],[-0.026772,51.6858],[-0.026688,51.685736],[-0.026661,51.685681],[-0.030206,51.683682],[-0.026649,51.685636],[-0.026644,51.685438],[-0.031082,51.683489],[-0.026664,51.685277],[-0.032821,51.68342],[-0.026828,51.685149],[-0.027678,51.685239],[-0.032952,51.683395],[-0.033253,51.683139],[-0.034007,51.680094],[-0.033995,51.679689],[-0.034155,51.678676],[-0.034554,51.677811],[-0.035174,51.676859],[-0.035919,51.676008],[-0.036509,51.675424],[-0.038261,51.673962],[-0.040047,51.671859],[-0.040421,51.671319],[-0.027678,51.685239],[-0.040421,51.671319],[-0.028053,51.685282],[-0.028155,51.685312],[-0.040839,51.670605],[-0.028209,51.685348],[-0.028402,51.685596],[-0.028674,51.685634],[-0.041191,51.669819],[-0.028819,51.685637],[-0.041279,51.669452],[-0.028892,51.685629],[-0.028981,51.685576],[-0.028956,51.684821],[-0.041392,51.668519],[-0.029024,51.684588],[-0.029102,51.684446],[-0.041503,51.668278],[-0.029376,51.684135],[-0.030206,51.683682],[-0.031401,51.683468],[-0.043445,51.665828],[-0.032734,51.683427],[-0.032952,51.683395],[-0.044284,51.664484],[-0.033162,51.683228],[-0.033253,51.683139],[-0.045028,51.663669],[-0.033407,51.682584],[-0.045516,51.662733],[-0.033549,51.682027],[-0.033952,51.680363],[-0.046348,51.660877],[-0.034007,51.680094],[-0.034046,51.679529],[-0.047077,51.659063],[-0.034091,51.679161],[-0.047247,51.658122],[-0.034119,51.678828],[-0.034205,51.678515],[-0.047303,51.657511],[-0.034348,51.678239],[-0.047279,51.657053],[-0.034554,51.677811],[-0.047386,51.656578],[-0.035158,51.676894],[-0.047771,51.655685],[-0.035919,51.676008],[-0.036509,51.675424],[-0.04833,51.654795],[-0.037017,51.675037],[-0.048526,51.653926],[-0.048512,51.653584],[-0.037767,51.67442],[-0.038261,51.673962],[-0.048364,51.65333],[-0.047692,51.652482],[-0.038752,51.673384],[-0.039921,51.67195],[-0.046643,51.650316],[-0.039975,51.671934],[-0.040047,51.671859],[-0.046396,51.649682],[-0.04007,51.67182],[-0.046349,51.649411],[-0.040087,51.671728],[-0.046338,51.64858],[-0.040169,51.671709],[-0.040421,51.671319],[-0.046406,51.648441],[-0.050243,51.648736],[-0.040421,51.671319],[-0.050243,51.648736],[-0.040839,51.670605],[-0.041191,51.669819],[-0.055861,51.649084],[-0.056446,51.649106],[-0.041279,51.669452],[-0.056589,51.649053],[-0.041392,51.668519],[-0.057125,51.649042],[-0.057562,51.649119],[-0.041503,51.668278],[-0.059567,51.649289],[-0.060098,51.649055],[-0.06036,51.645615],[-0.043445,51.665828],[-0.060437,51.643818],[-0.044284,51.664484],[-0.060633,51.642931],[-0.060921,51.642279],[-0.045028,51.663669],[-0.061429,51.64155],[-0.062034,51.640931],[-0.045516,51.662733],[-0.063215,51.63992],[-0.046348,51.660877],[-0.047077,51.659063],[-0.047247,51.658122],[-0.047279,51.657053],[-0.047386,51.656578],[-0.047771,51.655685],[-0.04833,51.654795],[-0.048526,51.653926],[-0.048512,51.653584],[-0.047692,51.652482],[-0.046396,51.649682],[-0.046338,51.64858],[-0.046406,51.648441],[-0.050243,51.648736],[-0.063215,51.63992],[-0.053078,51.648912],[-0.054737,51.649002],[-0.069175,51.634781],[-0.055861,51.649084],[-0.057125,51.649042],[-0.070971,51.633326],[-0.057366,51.649062],[-0.057562,51.649119],[-0.072039,51.632652],[-0.059366,51.649259],[-0.073501,51.63192],[-0.059567,51.649289],[-0.060299,51.649409],[-0.076699,51.630795],[-0.060578,51.649479],[-0.077737,51.630169],[-0.060771,51.649543],[-0.061255,51.649703],[-0.078157,51.629802],[-0.062859,51.650054],[-0.064508,51.650384],[-0.077112,51.629219],[-0.064866,51.650464],[-0.075622,51.628583],[-0.069007,51.651315],[-0.069523,51.651413],[-0.07164,51.627411],[-0.069976,51.627132],[-0.072416,51.652054],[-0.074476,51.652223],[-0.065808,51.626281],[-0.074852,51.652229],[-0.076187,51.652414],[-0.064069,51.625713],[-0.06254,51.625328],[-0.077473,51.652452],[-0.061721,51.625234],[-0.078629,51.652383],[-0.061721,51.625234],[-0.060642,51.625108],[-0.060043,51.625269],[-0.05983,51.625184],[-0.059779,51.625031],[-0.060655,51.62447],[-0.061357,51.622917],[-0.061736,51.621475],[-0.063521,51.617388],[-0.063474,51.617313],[-0.063817,51.616717],[-0.064453,51.614677],[-0.064817,51.612893],[-0.064872,51.612283],[-0.065073,51.611648],[-0.065806,51.610365],[-0.066846,51.608916],[-0.067561,51.608487],[-0.06776,51.608212],[-0.068056,51.607362],[-0.068153,51.605089],[-0.067751,51.602349],[-0.067815,51.602162],[-0.068093,51.59766],[-0.068542,51.596256],[-0.069465,51.594239],[-0.069823,51.592544],[-0.069818,51.592059],[-0.070003,51.590749],[-0.070094,51.590643],[-0.070208,51.589997],[-0.070153,51.589924],[-0.070378,51.589264],[-0.070389,51.588786],[-0.071547,51.586],[-0.071959,51.584433],[-0.072152,51.583179]]}}]}