{"type":"FeatureCollection","metadata":{"routeId":"UL21","sourceDate":"20261009","source":"https://bus.data.tfl.gov.uk/bus-geometry/"},"features":[{"type":"Feature","properties":{"routeId":"UL21","direction":"1","sourceDate":"20261009"},"geometry":{"type":"LineString","coordinates":[[-0.158746,51.553533],[-0.158436,51.553404],[-0.158128,51.553156],[-0.157307,51.551714],[-0.156686,51.551011],[-0.154528,51.550536],[-0.153976,51.550249],[-0.153503,51.549819],[-0.150747,51.545936],[-0.149997,51.545592],[-0.149413,51.545061],[-0.149293,51.544798],[-0.14908,51.54296],[-0.147353,51.542501],[-0.146587,51.542193],[-0.145893,51.541773],[-0.144252,51.542866],[-0.143143,51.542839],[-0.141864,51.542729],[-0.141737,51.542656],[-0.139922,51.540496],[-0.141007,51.540054],[-0.141791,51.539572],[-0.1412,51.538843],[-0.140066,51.537674],[-0.140086,51.537531],[-0.141098,51.537115],[-0.142404,51.538664],[-0.142485,51.53916],[-0.141316,51.539897],[-0.139539,51.540669],[-0.137491,51.542813],[-0.136983,51.543236],[-0.129125,51.548831],[-0.125968,51.551583],[-0.124194,51.55301],[-0.123758,51.55343],[-0.121073,51.556615],[-0.119406,51.557857],[-0.116544,51.555895],[-0.115382,51.555049],[-0.115343,51.55495],[-0.113086,51.553376],[-0.112239,51.552571],[-0.108588,51.549814],[-0.106887,51.548402],[-0.104951,51.547094],[-0.103524,51.546378],[-0.102812,51.54616],[-0.101398,51.546173],[-0.100557,51.546294],[-0.096534,51.547299],[-0.09217,51.547165],[-0.085893,51.546542],[-0.083929,51.546608],[-0.076711,51.546077],[-0.075858,51.546126],[-0.075519,51.546242],[-0.070445,51.546226],[-0.069489,51.546336],[-0.067208,51.546038],[-0.06367,51.545799],[-0.059719,51.546471],[-0.055138,51.546674],[-0.055163,51.545912],[-0.054966,51.545912],[-0.054135,51.546181],[-0.054001,51.546293],[-0.050662,51.547131],[-0.04997,51.547128],[-0.04785,51.546787],[-0.04786,51.547219],[-0.047724,51.548053],[-0.045388,51.548032],[-0.041913,51.548684],[-0.039988,51.548823],[-0.038273,51.549127],[-0.032942,51.550351],[-0.031067,51.551136],[-0.027295,51.547846],[-0.028609,51.547463],[-0.029161,51.547115],[-0.0273,51.546066],[-0.026296,51.545932],[-0.025101,51.544212],[-0.025612,51.543411],[-0.025623,51.543272],[-0.025477,51.543193],[-0.0254,51.542976],[-0.024853,51.542371],[-0.023919,51.542546],[-0.023416,51.542511],[-0.021483,51.542847],[-0.020822,51.542863],[-0.020725,51.542025],[-0.020255,51.541106],[-0.018091,51.541406],[-0.018168,51.542476],[-0.018025,51.542771],[-0.018046,51.544191],[-0.015393,51.544255],[-0.01355,51.544188],[-0.012202,51.544012],[-0.011348,51.543764],[-0.010613,51.543419],[-0.006673,51.540834],[-0.005406,51.541442],[-0.00454,51.542129],[-0.004131,51.54258],[-0.003922,51.543399]]}},{"type":"Feature","properties":{"routeId":"UL21","direction":"2","sourceDate":"20261009"},"geometry":{"type":"LineString","coordinates":[[-0.003929,51.543326],[-0.003888,51.545499],[-0.010461,51.545574],[-0.011064,51.545315],[-0.011151,51.544318],[-0.011298,51.543907],[-0.011716,51.543873],[-0.012703,51.544111],[-0.014384,51.544238],[-0.018046,51.544191],[-0.018025,51.542771],[-0.018168,51.542476],[-0.018091,51.541406],[-0.020255,51.541106],[-0.020725,51.542025],[-0.020822,51.542863],[-0.024853,51.542371],[-0.025623,51.543272],[-0.025101,51.544212],[-0.026296,51.545932],[-0.0273,51.546066],[-0.029161,51.547115],[-0.028609,51.547463],[-0.027295,51.547846],[-0.031067,51.551136],[-0.033278,51.550258],[-0.039715,51.548876],[-0.041913,51.548684],[-0.045388,51.548032],[-0.047609,51.548042],[-0.047749,51.546785],[-0.048368,51.546823],[-0.04997,51.547128],[-0.050662,51.547131],[-0.053913,51.546286],[-0.054726,51.545858],[-0.055271,51.545891],[-0.055138,51.546674],[-0.059719,51.546471],[-0.06367,51.545799],[-0.067208,51.546038],[-0.069489,51.546336],[-0.070445,51.546226],[-0.074625,51.546248],[-0.077013,51.546091],[-0.083929,51.546608],[-0.085893,51.546542],[-0.09299,51.547215],[-0.096708,51.547284],[-0.100557,51.546294],[-0.102108,51.546104],[-0.102255,51.546034],[-0.102228,51.545656],[-0.102406,51.545515],[-0.103081,51.545598],[-0.103193,51.545672],[-0.103165,51.546004],[-0.103301,51.546195],[-0.104593,51.546914],[-0.106887,51.548402],[-0.109343,51.550402],[-0.112743,51.552922],[-0.113648,51.553736],[-0.117113,51.556111],[-0.117388,51.556089],[-0.124194,51.55301],[-0.129125,51.548831],[-0.137491,51.542813],[-0.135781,51.541949],[-0.13542,51.541611],[-0.137569,51.54089],[-0.139818,51.543389],[-0.140805,51.544295],[-0.141599,51.545342],[-0.141754,51.545785],[-0.141817,51.546302],[-0.141973,51.546449],[-0.142226,51.546547],[-0.144676,51.546632],[-0.146226,51.546467],[-0.148321,51.546024],[-0.150747,51.545936],[-0.153353,51.549628],[-0.153767,51.550075],[-0.154258,51.550425],[-0.154856,51.55064],[-0.155758,51.55079],[-0.156348,51.550799],[-0.156704,51.550913],[-0.157022,51.551259],[-0.157694,51.552367]]}}]}