{"type":"FeatureCollection","metadata":{"routeId":"UL29","sourceDate":"20261009","source":"https://bus.data.tfl.gov.uk/bus-geometry/"},"features":[{"type":"Feature","properties":{"routeId":"UL29","direction":"1","sourceDate":"20261009"},"geometry":{"type":"MultiLineString","coordinates":[[[-0.222996,51.492781],[-0.222608,51.4924],[-0.222392,51.492388],[-0.222123,51.491538],[-0.222287,51.491388],[-0.22442,51.491357],[-0.224761,51.491488],[-0.224844,51.491939],[-0.224956,51.492031],[-0.22582,51.492035],[-0.226154,51.49195],[-0.227038,51.49146],[-0.227816,51.490716],[-0.227976,51.490656],[-0.228614,51.490926],[-0.231081,51.490829],[-0.23625,51.491275],[-0.239664,51.491273],[-0.241385,51.491083],[-0.244148,51.490413],[-0.245593,51.489914],[-0.249719,51.48824],[-0.251465,51.487403],[-0.251732,51.487209],[-0.25187,51.486939],[-0.252139,51.486729],[-0.252474,51.486644],[-0.253084,51.486896],[-0.257525,51.487511],[-0.267217,51.487555],[-0.268151,51.487623],[-0.270396,51.488052],[-0.273296,51.488319],[-0.276153,51.488937],[-0.278686,51.489756],[-0.281237,51.490873],[-0.281851,51.491026],[-0.282426,51.491043],[-0.282632,51.491206],[-0.282724,51.491551],[-0.284099,51.492138],[-0.286898,51.49279],[-0.287561,51.492791],[-0.288418,51.492588],[-0.291441,51.491499],[-0.292589,51.491237],[-0.302108,51.491303],[-0.303911,51.49123],[-0.304029,51.491151],[-0.304301,51.491191],[-0.305679,51.49095],[-0.310404,51.48939],[-0.323416,51.484137],[-0.324945,51.483691],[-0.326745,51.483285],[-0.329811,51.482942],[-0.344313,51.482168],[-0.347065,51.481748],[-0.351658,51.48073],[-0.354886,51.480197],[-0.362263,51.479227],[-0.362303,51.478491],[-0.362649,51.478023],[-0.362241,51.477429],[-0.362004,51.477209],[-0.361762,51.477116],[-0.360785,51.477066],[-0.360657,51.476624],[-0.360329,51.476116],[-0.359969,51.475733],[-0.359194,51.475246],[-0.357094,51.473436],[-0.355329,51.471406],[-0.355047,51.470543],[-0.356889,51.47007],[-0.357301,51.469815],[-0.357437,51.469637],[-0.357921,51.469383],[-0.361119,51.468142],[-0.361816,51.467601],[-0.362282,51.467421],[-0.365139,51.46684],[-0.366156,51.468078],[-0.36637,51.46817],[-0.373385,51.46896],[-0.37613,51.46952],[-0.388779,51.473777],[-0.392089,51.474676],[-0.394976,51.475283],[-0.396424,51.475059],[-0.405501,51.472009],[-0.408608,51.470824],[-0.410503,51.470198],[-0.420193,51.467253],[-0.420385,51.46713],[-0.420481,51.466861],[-0.420028,51.466199],[-0.420096,51.465921],[-0.421087,51.46597],[-0.421586,51.466121],[-0.422048,51.466399],[-0.422522,51.466943],[-0.422768,51.467359],[-0.423046,51.467606],[-0.422865,51.467856],[-0.423,51.468118],[-0.421379,51.468762],[-0.421023,51.469081],[-0.420259,51.469106],[-0.418905,51.469538],[-0.415004,51.471589],[-0.414942,51.471723],[-0.415143,51.472167],[-0.417483,51.474033],[-0.418126,51.475417],[-0.418618,51.475748],[-0.419947,51.476062],[-0.421295,51.476215],[-0.425514,51.476209],[-0.426373,51.476373],[-0.426471,51.476447],[-0.426532,51.476771],[-0.426606,51.476819],[-0.426531,51.47723],[-0.426729,51.478986],[-0.427009,51.479224],[-0.427536,51.479393],[-0.429539,51.479347],[-0.431783,51.47944],[-0.438017,51.479469],[-0.439229,51.479396],[-0.449508,51.479505],[-0.449637,51.479516],[-0.44963,51.480145],[-0.449836,51.480436],[-0.450869,51.480566],[-0.451259,51.480535],[-0.45173,51.480649],[-0.452631,51.480428],[-0.452796,51.480232],[-0.45285,51.479468],[-0.452922,51.479478],[-0.452886,51.474148],[-0.452981,51.472627],[-0.452754,51.472084],[-0.451893,51.471174],[-0.451972,51.47095],[-0.452307,51.470847],[-0.454388,51.47091],[-0.454446,51.471028],[-0.454268,51.471537],[-0.454028,51.471835],[-0.453544,51.47214],[-0.453242,51.47248],[-0.453015,51.474174],[-0.453068,51.480194],[-0.453349,51.480481],[-0.454189,51.480763],[-0.455175,51.48056],[-0.457191,51.480559],[-0.457499,51.480402],[-0.457667,51.480116],[-0.457916,51.479985],[-0.472375,51.479967],[-0.472978,51.480038],[-0.4736,51.479965],[-0.477056,51.479947],[-0.477159,51.479894],[-0.480168,51.479924],[-0.480805,51.479825],[-0.482188,51.479384],[-0.48281,51.479275],[-0.487595,51.479166],[-0.493176,51.478492],[-0.49395,51.47816],[-0.494339,51.477724],[-0.494649,51.477036],[-0.494708,51.476569],[-0.494637,51.476109],[-0.494499,51.475919],[-0.494118,51.475698],[-0.492107,51.475546],[-0.491553,51.475324],[-0.491318,51.475024],[-0.491059,51.47413],[-0.49054,51.473701],[-0.489789,51.473332],[-0.489696,51.473106],[-0.489689,51.472719]],[[-0.452307,51.470847],[-0.454388,51.47091],[-0.454446,51.471028],[-0.454268,51.471537],[-0.454028,51.471835],[-0.453544,51.47214],[-0.453242,51.47248],[-0.453015,51.474174],[-0.453068,51.480194],[-0.453349,51.480481],[-0.454189,51.480763],[-0.455175,51.48056],[-0.457191,51.480559],[-0.457499,51.480402],[-0.457667,51.480116],[-0.457916,51.479985],[-0.472375,51.479967],[-0.472978,51.480038],[-0.4736,51.479965],[-0.477056,51.479947],[-0.477159,51.479894],[-0.480168,51.479924],[-0.480805,51.479825],[-0.482188,51.479384],[-0.48281,51.479275],[-0.487595,51.479166],[-0.493176,51.478492],[-0.49395,51.47816],[-0.494339,51.477724],[-0.494649,51.477036],[-0.494708,51.476569],[-0.494637,51.476109],[-0.494499,51.475919],[-0.494118,51.475698],[-0.492107,51.475546],[-0.491553,51.475324],[-0.491318,51.475024],[-0.491059,51.47413],[-0.49054,51.473701],[-0.489789,51.473332],[-0.489696,51.473106],[-0.489689,51.472719]]]}},{"type":"Feature","properties":{"routeId":"UL29","direction":"2","sourceDate":"20261009"},"geometry":{"type":"MultiLineString","coordinates":[[[-0.489689,51.472719],[-0.489705,51.470219],[-0.490464,51.469465],[-0.491115,51.469365],[-0.49154,51.470859],[-0.491815,51.471298],[-0.494268,51.47374],[-0.494843,51.475105],[-0.494918,51.476311],[-0.494158,51.477974],[-0.493176,51.478492],[-0.487595,51.479166],[-0.48281,51.479275],[-0.480168,51.479924],[-0.467551,51.479985],[-0.467038,51.480239],[-0.467026,51.481021],[-0.466763,51.481126],[-0.457868,51.480578],[-0.455175,51.48056],[-0.453766,51.480928],[-0.453588,51.481079],[-0.453491,51.481815],[-0.452892,51.482059],[-0.452435,51.481963],[-0.452241,51.481735],[-0.452367,51.480982],[-0.452928,51.480162],[-0.452981,51.472627],[-0.452754,51.472084],[-0.451893,51.471174],[-0.451972,51.47095],[-0.452307,51.470847],[-0.454388,51.47091],[-0.454446,51.471028],[-0.454268,51.471537],[-0.453289,51.472377],[-0.453178,51.472756],[-0.453015,51.474174],[-0.453051,51.479505],[-0.452922,51.479478],[-0.452981,51.472627],[-0.452754,51.472084],[-0.452043,51.471401],[-0.451897,51.471057],[-0.452293,51.470846],[-0.454388,51.47091],[-0.454446,51.471028],[-0.454028,51.471835],[-0.453289,51.472377],[-0.453087,51.47333],[-0.453097,51.480263],[-0.454189,51.480763],[-0.455175,51.48056],[-0.457191,51.480559],[-0.457576,51.48025],[-0.457265,51.480075],[-0.455005,51.480045],[-0.452488,51.479518],[-0.439229,51.479396],[-0.427576,51.479492],[-0.426934,51.479303],[-0.42649,51.47883],[-0.426606,51.476819],[-0.426373,51.476373],[-0.425514,51.476209],[-0.421295,51.476215],[-0.418618,51.475748],[-0.418126,51.475417],[-0.417483,51.474033],[-0.415143,51.472167],[-0.414942,51.471723],[-0.41888,51.469429],[-0.420308,51.468945],[-0.420576,51.46867],[-0.421385,51.468609],[-0.422608,51.468212],[-0.4228,51.468071],[-0.422801,51.46763],[-0.423613,51.467461],[-0.423963,51.466899],[-0.423722,51.466797],[-0.423621,51.467236],[-0.423284,51.467376],[-0.423014,51.467282],[-0.423224,51.466933],[-0.423855,51.466691],[-0.424025,51.466774],[-0.423657,51.467426],[-0.422943,51.467686],[-0.422376,51.466995],[-0.421848,51.466862],[-0.410497,51.470297],[-0.396124,51.475292],[-0.39591,51.475745],[-0.386175,51.472914],[-0.385685,51.472934],[-0.385157,51.472783],[-0.385164,51.472594],[-0.37613,51.46952],[-0.373385,51.46896],[-0.368939,51.468467],[-0.368957,51.467981],[-0.368605,51.467347],[-0.366921,51.467746],[-0.366709,51.467644],[-0.366529,51.467163],[-0.366292,51.46682],[-0.365762,51.466732],[-0.362282,51.467421],[-0.360929,51.468229],[-0.357789,51.469448],[-0.356889,51.47007],[-0.355047,51.470543],[-0.355329,51.471406],[-0.357503,51.473828],[-0.359969,51.475733],[-0.360657,51.476624],[-0.360785,51.477066],[-0.361762,51.477116],[-0.362241,51.477429],[-0.362649,51.478023],[-0.362254,51.478652],[-0.362258,51.479324],[-0.351831,51.480791],[-0.347134,51.481839],[-0.344498,51.482242],[-0.329375,51.483062],[-0.325885,51.483588],[-0.322944,51.484454],[-0.310059,51.489745],[-0.305819,51.491108],[-0.304119,51.49144],[-0.292463,51.491523],[-0.291578,51.491671],[-0.287814,51.492956],[-0.28659,51.492939],[-0.284601,51.492577],[-0.282527,51.4918],[-0.281417,51.491838],[-0.281007,51.491625],[-0.281065,51.491239],[-0.280899,51.491039],[-0.278111,51.48973],[-0.275878,51.488969],[-0.273406,51.488438],[-0.270378,51.488159],[-0.268103,51.487739],[-0.258039,51.487635],[-0.253409,51.487054],[-0.251841,51.487363],[-0.244741,51.49035],[-0.241294,51.491216],[-0.236908,51.491402],[-0.231261,51.491029],[-0.227617,51.491379],[-0.226106,51.492075],[-0.225574,51.492147]],[[-0.453831,51.470898],[-0.454388,51.47091],[-0.454441,51.471189],[-0.454028,51.471835],[-0.453289,51.472377],[-0.453087,51.47333],[-0.453068,51.480194],[-0.453349,51.480481],[-0.454189,51.480763],[-0.455175,51.48056],[-0.457191,51.480559],[-0.457576,51.48025],[-0.457265,51.480075],[-0.455005,51.480045],[-0.452488,51.479518],[-0.439229,51.479396],[-0.427576,51.479492],[-0.426934,51.479303],[-0.42649,51.47883],[-0.426606,51.476819],[-0.426373,51.476373],[-0.425514,51.476209],[-0.421295,51.476215],[-0.418618,51.475748],[-0.418126,51.475417],[-0.417483,51.474033],[-0.415143,51.472167],[-0.414942,51.471723],[-0.41888,51.469429],[-0.420308,51.468945],[-0.420576,51.46867],[-0.421385,51.468609],[-0.422608,51.468212],[-0.4228,51.468071],[-0.422801,51.46763],[-0.423613,51.467461],[-0.423963,51.466899],[-0.423722,51.466797],[-0.423621,51.467236],[-0.423284,51.467376],[-0.423014,51.467282],[-0.423224,51.466933],[-0.423855,51.466691],[-0.424025,51.466774],[-0.423657,51.467426],[-0.422943,51.467686],[-0.422376,51.466995],[-0.421848,51.466862],[-0.410497,51.470297],[-0.396124,51.475292],[-0.39591,51.475745],[-0.386175,51.472914],[-0.385685,51.472934],[-0.385157,51.472783],[-0.385164,51.472594],[-0.37613,51.46952],[-0.373385,51.46896],[-0.368939,51.468467],[-0.368957,51.467981],[-0.368605,51.467347],[-0.366921,51.467746],[-0.366709,51.467644],[-0.366529,51.467163],[-0.366292,51.46682],[-0.365762,51.466732],[-0.362282,51.467421],[-0.360929,51.468229],[-0.357789,51.469448],[-0.356889,51.47007],[-0.355047,51.470543],[-0.355329,51.471406],[-0.357503,51.473828],[-0.359969,51.475733],[-0.360657,51.476624],[-0.360785,51.477066],[-0.361762,51.477116],[-0.362241,51.477429],[-0.362649,51.478023],[-0.362254,51.478652],[-0.362258,51.479324],[-0.351831,51.480791],[-0.347134,51.481839],[-0.344498,51.482242],[-0.329375,51.483062],[-0.325885,51.483588],[-0.322944,51.484454],[-0.310059,51.489745],[-0.305819,51.491108],[-0.304119,51.49144],[-0.292463,51.491523],[-0.291578,51.491671],[-0.287814,51.492956],[-0.28659,51.492939],[-0.284601,51.492577],[-0.282527,51.4918],[-0.281417,51.491838],[-0.281007,51.491625],[-0.281065,51.491239],[-0.280899,51.491039],[-0.278111,51.48973],[-0.275878,51.488969],[-0.273406,51.488438],[-0.270378,51.488159],[-0.268103,51.487739],[-0.258039,51.487635],[-0.253409,51.487054],[-0.251841,51.487363],[-0.244741,51.49035],[-0.241294,51.491216],[-0.236908,51.491402],[-0.231261,51.491029],[-0.227617,51.491379],[-0.226106,51.492075],[-0.225574,51.492147]],[[-0.453831,51.470898],[-0.454388,51.47091],[-0.454441,51.471189],[-0.454028,51.471835],[-0.453289,51.472377],[-0.453087,51.47333],[-0.453068,51.480194],[-0.453349,51.480481],[-0.454189,51.480763],[-0.455175,51.48056],[-0.457191,51.480559],[-0.457576,51.48025],[-0.457265,51.480075],[-0.455005,51.480045],[-0.452488,51.479518],[-0.439229,51.479396],[-0.427576,51.479492],[-0.426934,51.479303],[-0.42649,51.47883],[-0.426606,51.476819],[-0.426373,51.476373],[-0.425514,51.476209],[-0.421295,51.476215],[-0.418618,51.475748],[-0.418126,51.475417],[-0.417483,51.474033],[-0.415143,51.472167],[-0.414942,51.471723],[-0.41888,51.469429],[-0.420308,51.468945],[-0.420576,51.46867],[-0.421385,51.468609],[-0.422608,51.468212],[-0.4228,51.468071],[-0.422801,51.46763],[-0.423613,51.467461],[-0.423963,51.466899],[-0.423722,51.466797],[-0.423621,51.467236],[-0.423284,51.467376],[-0.423014,51.467282],[-0.423224,51.466933],[-0.423855,51.466691],[-0.424025,51.466774],[-0.423657,51.467426],[-0.422943,51.467686],[-0.422376,51.466995],[-0.421848,51.466862],[-0.410497,51.470297],[-0.396124,51.475292],[-0.39591,51.475745],[-0.386175,51.472914],[-0.385685,51.472934],[-0.385157,51.472783],[-0.385164,51.472594],[-0.37613,51.46952],[-0.373385,51.46896],[-0.368939,51.468467],[-0.368957,51.467981],[-0.368605,51.467347],[-0.366921,51.467746],[-0.366709,51.467644],[-0.366529,51.467163],[-0.366292,51.46682],[-0.365762,51.466732],[-0.362282,51.467421],[-0.360929,51.468229],[-0.357789,51.469448],[-0.356889,51.47007],[-0.355047,51.470543],[-0.355329,51.471406],[-0.357503,51.473828],[-0.359969,51.475733],[-0.360657,51.476624],[-0.360785,51.477066],[-0.361762,51.477116],[-0.362241,51.477429],[-0.362649,51.478023],[-0.362254,51.478652],[-0.362258,51.479324],[-0.351831,51.480791],[-0.347134,51.481839],[-0.344498,51.482242],[-0.329375,51.483062],[-0.325885,51.483588],[-0.322944,51.484454],[-0.313748,51.488162],[-0.313708,51.48844],[-0.314458,51.488828],[-0.317291,51.491674],[-0.317839,51.492438],[-0.319166,51.493563],[-0.321643,51.494785],[-0.324893,51.495982],[-0.326045,51.496908],[-0.328981,51.500537],[-0.330933,51.50231],[-0.333463,51.504063],[-0.337636,51.506191],[-0.339067,51.506849],[-0.341169,51.507293],[-0.341722,51.507756],[-0.341927,51.508266],[-0.338637,51.508768],[-0.334081,51.508829],[-0.330468,51.509506],[-0.327973,51.509569],[-0.31948,51.510896],[-0.319094,51.510018],[-0.319651,51.505862],[-0.319558,51.505627],[-0.319044,51.504712],[-0.31672,51.502889],[-0.315417,51.501476],[-0.315233,51.500233],[-0.314873,51.499427],[-0.312714,51.49704],[-0.311842,51.496857],[-0.309576,51.497733],[-0.305823,51.498335],[-0.307034,51.50221],[-0.306904,51.50415],[-0.305565,51.504895],[-0.305312,51.505494],[-0.305101,51.506912],[-0.305234,51.508757],[-0.305589,51.51048],[-0.305441,51.510995],[-0.306194,51.5128],[-0.306115,51.512996],[-0.304361,51.513277],[-0.301781,51.51404],[-0.299635,51.514009],[-0.292571,51.511599],[-0.288988,51.510617],[-0.283116,51.508714],[-0.276186,51.508316],[-0.274887,51.508351],[-0.274298,51.508615],[-0.274171,51.508223],[-0.276186,51.508316],[-0.276616,51.507981],[-0.277272,51.507019],[-0.278961,51.505408],[-0.280266,51.503277],[-0.281063,51.502776]]]}}]}