{"type":"FeatureCollection","metadata":{"routeId":"UL3","sourceDate":"20260905","source":"https://bus.data.tfl.gov.uk/bus-geometry/"},"features":[{"type":"Feature","properties":{"routeId":"UL3","direction":"1","sourceDate":"20260905"},"geometry":{"type":"LineString","coordinates":[[-0.049884,51.498198],[-0.050021,51.498353],[-0.050266,51.498357],[-0.050285,51.498241],[-0.049889,51.497739],[-0.049621,51.4976],[-0.049696,51.497529],[-0.050764,51.497143],[-0.052328,51.496296],[-0.052163,51.496104],[-0.050109,51.494596],[-0.04727,51.49328],[-0.045021,51.491966],[-0.045069,51.49185],[-0.045289,51.491745],[-0.047053,51.491604],[-0.04734,51.492319],[-0.047985,51.493068],[-0.048129,51.493394],[-0.048471,51.493498],[-0.051136,51.491465],[-0.051484,51.491075],[-0.052565,51.491057],[-0.053948,51.490721],[-0.054986,51.490351],[-0.056787,51.489338],[-0.057617,51.488785],[-0.058032,51.488171],[-0.05815,51.488101],[-0.057728,51.48787],[-0.05601,51.487967],[-0.055625,51.48788],[-0.05532,51.487708],[-0.055023,51.487456],[-0.054848,51.487165],[-0.054101,51.485768],[-0.053696,51.48479],[-0.053836,51.481852],[-0.053621,51.480473],[-0.053827,51.480035],[-0.054814,51.478829],[-0.051201,51.477447],[-0.047807,51.475996],[-0.047049,51.475534],[-0.046466,51.474688],[-0.045857,51.474435],[-0.045257,51.474335],[-0.043933,51.474322],[-0.043068,51.474326],[-0.042359,51.474422],[-0.041569,51.474705],[-0.041557,51.474975],[-0.041199,51.475598],[-0.041039,51.475632],[-0.040883,51.475584],[-0.040807,51.47534],[-0.040841,51.474747],[-0.042721,51.474356],[-0.046178,51.474333],[-0.047646,51.474015],[-0.049047,51.473922],[-0.050181,51.473671],[-0.05151,51.473234],[-0.05276,51.472967],[-0.053581,51.472945],[-0.055074,51.473051],[-0.056329,51.473359],[-0.058253,51.473481],[-0.059936,51.473869],[-0.061743,51.474024],[-0.065608,51.47389],[-0.065642,51.472416],[-0.069706,51.471998],[-0.069708,51.471611],[-0.069577,51.471285],[-0.068619,51.4701],[-0.067346,51.468218],[-0.066909,51.467653],[-0.066417,51.467245],[-0.066226,51.467184],[-0.065936,51.466828],[-0.06602,51.466513],[-0.066105,51.465203],[-0.064798,51.462762],[-0.066613,51.462396],[-0.0689,51.462092],[-0.070708,51.461547],[-0.074113,51.461027],[-0.075118,51.460756],[-0.075165,51.460649],[-0.075381,51.460652],[-0.075389,51.460796],[-0.076325,51.461495],[-0.0769,51.461739],[-0.077623,51.461777],[-0.078572,51.46146],[-0.079523,51.461439],[-0.081468,51.462443],[-0.08218,51.462967],[-0.083011,51.463736],[-0.083736,51.464638],[-0.085466,51.466321],[-0.086013,51.467337],[-0.086624,51.468237],[-0.086921,51.46835],[-0.087238,51.468355],[-0.091035,51.467419],[-0.090075,51.466261],[-0.090007,51.465828],[-0.090654,51.463429],[-0.091156,51.462448],[-0.092316,51.461015],[-0.093408,51.460227],[-0.094785,51.458955],[-0.095753,51.457496],[-0.097313,51.456316],[-0.099151,51.455384],[-0.100946,51.454091],[-0.101147,51.453779],[-0.100967,51.452895],[-0.101173,51.452809],[-0.10145,51.452363],[-0.102741,51.452474],[-0.106862,51.453755],[-0.109296,51.454756],[-0.11059,51.455488],[-0.113049,51.455204],[-0.113739,51.455206],[-0.114884,51.458094],[-0.115166,51.459014],[-0.116593,51.459325],[-0.116732,51.459444],[-0.116739,51.459615],[-0.115979,51.460912],[-0.116161,51.461081],[-0.120858,51.459915],[-0.122214,51.459728],[-0.124083,51.459562],[-0.126652,51.459738],[-0.129156,51.459751],[-0.131999,51.45959],[-0.133112,51.459336],[-0.133451,51.459162],[-0.133598,51.459201],[-0.134081,51.459722],[-0.135196,51.46027],[-0.13728,51.46176],[-0.137745,51.462001],[-0.138879,51.461215],[-0.139148,51.461133],[-0.14342,51.461219],[-0.143498,51.461445],[-0.143221,51.461872],[-0.143301,51.462377],[-0.142298,51.463332],[-0.141983,51.463291],[-0.140885,51.462681],[-0.140506,51.462441],[-0.13977,51.461781],[-0.139169,51.461691],[-0.135471,51.462711],[-0.131927,51.464066],[-0.130875,51.464554],[-0.129797,51.465211],[-0.128326,51.467373],[-0.127617,51.468171],[-0.126828,51.468796],[-0.128308,51.469225],[-0.129932,51.469314],[-0.130755,51.469246],[-0.131141,51.469315],[-0.132705,51.470023],[-0.135434,51.472081],[-0.137574,51.471022],[-0.140623,51.469816],[-0.142446,51.46891],[-0.146166,51.46735],[-0.149429,51.466413],[-0.152997,51.466127],[-0.159353,51.464878],[-0.164174,51.464199],[-0.165538,51.463932],[-0.16734,51.46387],[-0.167833,51.463788],[-0.168054,51.464329]]}},{"type":"Feature","properties":{"routeId":"UL3","direction":"2","sourceDate":"20260905"},"geometry":{"type":"LineString","coordinates":[[-0.171063,51.465341],[-0.172374,51.465082],[-0.175713,51.46401],[-0.176173,51.464026],[-0.176683,51.463872],[-0.176179,51.463163],[-0.175329,51.462448],[-0.174906,51.462244],[-0.17337,51.461761],[-0.17152,51.462659],[-0.167586,51.463847],[-0.165783,51.463945],[-0.161092,51.4646],[-0.159164,51.464911],[-0.152997,51.466127],[-0.149429,51.466413],[-0.146166,51.46735],[-0.142446,51.46891],[-0.140623,51.469816],[-0.137814,51.470914],[-0.135434,51.472081],[-0.132705,51.470023],[-0.131141,51.469315],[-0.130755,51.469246],[-0.129932,51.469314],[-0.128308,51.469225],[-0.126828,51.468796],[-0.127782,51.468011],[-0.128631,51.466964],[-0.129692,51.465308],[-0.130154,51.464971],[-0.131316,51.464327],[-0.133147,51.463565],[-0.135471,51.462711],[-0.137159,51.462244],[-0.137745,51.462001],[-0.13728,51.46176],[-0.135196,51.46027],[-0.133251,51.459332],[-0.131999,51.45959],[-0.129156,51.459751],[-0.126652,51.459738],[-0.124083,51.459562],[-0.121148,51.459866],[-0.118661,51.460436],[-0.11581,51.461201],[-0.115717,51.461011],[-0.115704,51.460633],[-0.115102,51.458816],[-0.114004,51.455785],[-0.111234,51.456271],[-0.111081,51.456166],[-0.110786,51.455626],[-0.11059,51.455488],[-0.109296,51.454756],[-0.108038,51.454206],[-0.106862,51.453755],[-0.103282,51.452618],[-0.102384,51.452406],[-0.10145,51.452363],[-0.101173,51.452809],[-0.100967,51.452895],[-0.101147,51.453779],[-0.100946,51.454091],[-0.099151,51.455384],[-0.097313,51.456316],[-0.095753,51.457496],[-0.094785,51.458955],[-0.093408,51.460227],[-0.092316,51.461015],[-0.091156,51.462448],[-0.090654,51.463429],[-0.090208,51.465157],[-0.090123,51.465812],[-0.090228,51.466399],[-0.091035,51.467419],[-0.087091,51.468416],[-0.086861,51.468403],[-0.086499,51.468127],[-0.085561,51.466439],[-0.084485,51.465325],[-0.083993,51.465056],[-0.083659,51.464754],[-0.082921,51.463824],[-0.082103,51.463083],[-0.080805,51.462099],[-0.07975,51.461515],[-0.079408,51.461429],[-0.078673,51.461444],[-0.077623,51.461777],[-0.077036,51.461804],[-0.076325,51.461495],[-0.075389,51.460796],[-0.075259,51.46083],[-0.075118,51.460756],[-0.073359,51.461168],[-0.070708,51.461547],[-0.0689,51.462092],[-0.066671,51.462388],[-0.066565,51.463178],[-0.066563,51.464931],[-0.066408,51.465882],[-0.06602,51.466513],[-0.065936,51.466828],[-0.066058,51.467009],[-0.066909,51.467653],[-0.067346,51.468218],[-0.067913,51.469108],[-0.069577,51.471285],[-0.069708,51.471611],[-0.069706,51.471998],[-0.065642,51.472416],[-0.065588,51.471993],[-0.065405,51.471549],[-0.064201,51.471088],[-0.064265,51.471602],[-0.063958,51.472398],[-0.063873,51.47406],[-0.062114,51.474103],[-0.059936,51.473869],[-0.058425,51.473502],[-0.056185,51.473339],[-0.055074,51.473051],[-0.053581,51.472945],[-0.05276,51.472967],[-0.051219,51.47331],[-0.049817,51.473764],[-0.049047,51.473922],[-0.047646,51.474015],[-0.046178,51.474333],[-0.043068,51.474326],[-0.042286,51.474439],[-0.041569,51.474705],[-0.041462,51.475189],[-0.041199,51.475598],[-0.041039,51.475632],[-0.040883,51.475584],[-0.040807,51.47534],[-0.040841,51.474747],[-0.043068,51.474326],[-0.045257,51.474335],[-0.045857,51.474435],[-0.046297,51.474586],[-0.046571,51.47479],[-0.046993,51.475479],[-0.047524,51.475857],[-0.050253,51.477062],[-0.054814,51.478829],[-0.054831,51.478944],[-0.05445,51.479263],[-0.053827,51.480035],[-0.053621,51.480473],[-0.053836,51.481852],[-0.053696,51.48479],[-0.054101,51.485768],[-0.054848,51.487165],[-0.055023,51.487456],[-0.05532,51.487708],[-0.055625,51.48788],[-0.05601,51.487967],[-0.057728,51.48787],[-0.05815,51.488101],[-0.058032,51.488171],[-0.057662,51.48875],[-0.056935,51.489241],[-0.055134,51.490282],[-0.054269,51.490627],[-0.051996,51.491219],[-0.05189,51.491352],[-0.05153,51.491355],[-0.051407,51.491191],[-0.051125,51.491051],[-0.049871,51.491066],[-0.047347,51.491474],[-0.047124,51.49165],[-0.04734,51.492319],[-0.047985,51.493068],[-0.048129,51.493394],[-0.048555,51.493886],[-0.050109,51.494596],[-0.051557,51.495699],[-0.05243,51.496262],[-0.050764,51.497143],[-0.049696,51.497529],[-0.049452,51.49784],[-0.049398,51.498114],[-0.049884,51.498198]]}}]}