{"type":"FeatureCollection","metadata":{"routeId":"UL38","sourceDate":"20260926","source":"https://bus.data.tfl.gov.uk/bus-geometry/"},"features":[{"type":"Feature","properties":{"routeId":"UL38","direction":"1","sourceDate":"20260926"},"geometry":{"type":"LineString","coordinates":[[-0.142908,51.506733],[-0.146974,51.504601],[-0.148306,51.503759],[-0.149787,51.503108],[-0.149871,51.502498],[-0.151201,51.501997],[-0.151763,51.501988],[-0.152041,51.502235],[-0.152349,51.502824],[-0.152793,51.502903],[-0.154014,51.50265],[-0.156447,51.502313],[-0.158714,51.502187],[-0.16068,51.501688],[-0.161416,51.501285],[-0.162878,51.500049],[-0.165676,51.498538],[-0.167041,51.49792],[-0.168961,51.496745],[-0.170238,51.496322],[-0.172166,51.49586],[-0.17474,51.495612],[-0.17886,51.495361],[-0.179711,51.495222],[-0.188076,51.494641],[-0.188826,51.494608],[-0.192594,51.494765],[-0.194643,51.494698],[-0.195021,51.494596],[-0.195387,51.494448],[-0.194594,51.493366],[-0.193647,51.49256],[-0.192926,51.492198],[-0.191555,51.49117],[-0.190263,51.489621],[-0.190239,51.489486],[-0.192841,51.488537],[-0.193541,51.489042],[-0.200086,51.492551],[-0.200565,51.492469],[-0.201376,51.491978],[-0.202516,51.491581],[-0.204436,51.491348],[-0.208592,51.490541],[-0.21034,51.490424],[-0.214116,51.490724],[-0.216666,51.490718],[-0.219661,51.491123],[-0.221244,51.491165],[-0.222418,51.491345],[-0.224162,51.491326],[-0.224634,51.491414],[-0.224829,51.491588],[-0.224826,51.492784],[-0.224572,51.493005],[-0.224338,51.493092],[-0.223775,51.493119],[-0.223597,51.492892],[-0.223095,51.49283],[-0.222594,51.492391],[-0.222392,51.492388],[-0.222154,51.491485],[-0.222418,51.491345],[-0.22386,51.491322],[-0.224634,51.491414],[-0.224829,51.491588],[-0.224826,51.492784],[-0.225107,51.49295],[-0.228739,51.492529],[-0.23123,51.492557],[-0.23491,51.492834],[-0.238242,51.493409],[-0.242011,51.493547],[-0.247725,51.493291],[-0.251257,51.492858],[-0.261443,51.492434],[-0.266606,51.492672],[-0.269103,51.492916],[-0.270903,51.492924],[-0.273525,51.492531],[-0.280577,51.491951],[-0.280872,51.491758],[-0.281034,51.491284],[-0.281213,51.491133],[-0.282068,51.491002],[-0.282426,51.491043],[-0.282632,51.491206],[-0.282722,51.491614],[-0.282527,51.4918],[-0.282294,51.491869],[-0.282173,51.492038],[-0.282323,51.492633],[-0.282257,51.492857],[-0.282404,51.494685],[-0.282319,51.495421],[-0.282026,51.496712],[-0.28204,51.497098],[-0.283014,51.498767],[-0.283508,51.499449],[-0.284353,51.500352],[-0.285265,51.501003],[-0.28297,51.50186],[-0.280636,51.503004],[-0.280189,51.503402],[-0.279363,51.50276],[-0.278938,51.502305]]}},{"type":"Feature","properties":{"routeId":"UL38","direction":"2","sourceDate":"20260926"},"geometry":{"type":"LineString","coordinates":[[-0.281063,51.502776],[-0.283176,51.501764],[-0.285104,51.501046],[-0.284191,51.50043],[-0.283319,51.499491],[-0.282769,51.498782],[-0.282068,51.497494],[-0.282026,51.496712],[-0.282319,51.495421],[-0.282404,51.494685],[-0.282275,51.492768],[-0.282158,51.492415],[-0.281847,51.491898],[-0.281331,51.491809],[-0.280779,51.491936],[-0.273032,51.492623],[-0.270441,51.492944],[-0.269103,51.492916],[-0.266606,51.492672],[-0.26248,51.49244],[-0.260563,51.492457],[-0.252784,51.492844],[-0.251257,51.492858],[-0.247725,51.493291],[-0.242011,51.493547],[-0.238242,51.493409],[-0.235939,51.492979],[-0.234504,51.492849],[-0.234312,51.492954],[-0.233954,51.494406],[-0.229659,51.494458],[-0.227428,51.494406],[-0.226461,51.493708],[-0.224514,51.493023],[-0.223775,51.493119],[-0.223597,51.492892],[-0.222982,51.492774],[-0.222622,51.492409],[-0.222392,51.492388],[-0.222123,51.491538],[-0.221912,51.4914],[-0.219148,51.491349],[-0.216806,51.490819],[-0.214055,51.490813],[-0.210897,51.49054],[-0.209817,51.490524],[-0.208689,51.490641],[-0.204553,51.491424],[-0.202337,51.491722],[-0.201475,51.492042],[-0.200598,51.492739],[-0.200068,51.493018],[-0.195263,51.494689],[-0.192059,51.494811],[-0.188076,51.494641],[-0.18506,51.494825],[-0.181846,51.495147],[-0.179131,51.495339],[-0.178856,51.495298],[-0.172349,51.495838],[-0.170238,51.496323],[-0.168961,51.496745],[-0.167041,51.49792],[-0.164573,51.499114],[-0.162724,51.500299],[-0.161099,51.501658],[-0.160362,51.501903],[-0.158714,51.502187],[-0.157096,51.502297],[-0.153698,51.502954],[-0.152225,51.503047],[-0.151134,51.503282],[-0.150096,51.503311],[-0.149761,51.503404],[-0.147852,51.504273],[-0.142488,51.506945]]}}]}