{"type":"FeatureCollection","metadata":{"routeId":"UL46","sourceDate":"20260918","source":"https://bus.data.tfl.gov.uk/bus-geometry/"},"features":[{"type":"Feature","properties":{"routeId":"UL46","direction":"1","sourceDate":"20260918"},"geometry":{"type":"LineString","coordinates":[[-0.026855,51.508711],[-0.027189,51.507935],[-0.027308,51.507865],[-0.027413,51.507365],[-0.027365,51.506833],[-0.027068,51.506063],[-0.026638,51.506028],[-0.026188,51.505751],[-0.024482,51.505551],[-0.023564,51.505464],[-0.023411,51.505659],[-0.023265,51.505702],[-0.016984,51.505011],[-0.017667,51.502644],[-0.019944,51.502867],[-0.019999,51.502931],[-0.019912,51.50328],[-0.020655,51.503428],[-0.025132,51.503854],[-0.02532,51.503839],[-0.025159,51.502892],[-0.024996,51.502673],[-0.023675,51.501554],[-0.02314,51.501275],[-0.019341,51.500492],[-0.013419,51.499834],[-0.013825,51.497467],[-0.014132,51.496699],[-0.014117,51.495718],[-0.014765,51.491736],[-0.014676,51.491132],[-0.014186,51.490153],[-0.014103,51.489405],[-0.013559,51.488668],[-0.013361,51.487243],[-0.011856,51.487416],[-0.009779,51.487839]]}},{"type":"Feature","properties":{"routeId":"UL46","direction":"2","sourceDate":"20260918"},"geometry":{"type":"LineString","coordinates":[[-0.009759,51.487844],[-0.011856,51.487416],[-0.013361,51.487243],[-0.013559,51.488668],[-0.014103,51.489405],[-0.014186,51.490153],[-0.014676,51.491132],[-0.014765,51.491736],[-0.014117,51.495718],[-0.014132,51.496699],[-0.013825,51.497467],[-0.013419,51.499834],[-0.019341,51.500492],[-0.02314,51.501275],[-0.023592,51.50149],[-0.025064,51.502746],[-0.025398,51.503696],[-0.025753,51.50381],[-0.025808,51.503892],[-0.025661,51.504276],[-0.025754,51.504467],[-0.025731,51.504655],[-0.02591,51.504856],[-0.026604,51.50547],[-0.026995,51.505432],[-0.027236,51.505508],[-0.027388,51.505672],[-0.027396,51.505807],[-0.027259,51.505994],[-0.02688,51.506077],[-0.026638,51.506028],[-0.026188,51.505751],[-0.024482,51.505551],[-0.023564,51.505464],[-0.023411,51.505659],[-0.023222,51.505701],[-0.016984,51.505011],[-0.017172,51.504331],[-0.023468,51.505022],[-0.023566,51.505086],[-0.023586,51.505293],[-0.023685,51.505331],[-0.026238,51.505608],[-0.026793,51.505428],[-0.027194,51.505489],[-0.027348,51.505599],[-0.027398,51.505762],[-0.027303,51.505959],[-0.027068,51.506063],[-0.027402,51.506977],[-0.0274,51.507607],[-0.027308,51.507865],[-0.027376,51.507947],[-0.02712,51.508536],[-0.026814,51.508936],[-0.026831,51.509193]]}}]}