{"type":"FeatureCollection","metadata":{"routeId":"UL5","sourceDate":"20261009","source":"https://bus.data.tfl.gov.uk/bus-geometry/"},"features":[{"type":"Feature","properties":{"routeId":"UL5","direction":"1","sourceDate":"20261009"},"geometry":{"type":"LineString","coordinates":[[-0.370007,51.576086],[-0.370654,51.575049],[-0.371076,51.574146],[-0.371257,51.573528],[-0.371335,51.572567],[-0.37128,51.572016],[-0.370918,51.570916],[-0.370277,51.569873],[-0.365047,51.563209],[-0.364817,51.562378],[-0.364912,51.561741],[-0.365276,51.560856],[-0.365275,51.560469],[-0.365067,51.559846],[-0.364483,51.559244],[-0.363085,51.558389],[-0.362548,51.55768],[-0.362082,51.557395],[-0.359454,51.559471],[-0.354831,51.563642],[-0.354119,51.564189],[-0.352723,51.56488],[-0.352161,51.565286],[-0.350229,51.566823],[-0.350123,51.566966],[-0.350237,51.567012],[-0.350205,51.567102],[-0.349885,51.567169],[-0.348745,51.567953],[-0.347264,51.569021],[-0.346903,51.569411],[-0.34351,51.568689],[-0.341598,51.568482],[-0.339734,51.568177],[-0.339578,51.568094],[-0.33947,51.567886],[-0.339753,51.566846],[-0.339709,51.566477],[-0.339544,51.56625],[-0.339276,51.566084],[-0.338329,51.565927],[-0.338131,51.565816],[-0.337754,51.564696],[-0.336648,51.564177],[-0.334878,51.563648],[-0.334253,51.56336],[-0.331671,51.561777],[-0.331718,51.561688],[-0.332109,51.56163],[-0.332448,51.561455],[-0.335029,51.5591],[-0.335319,51.558673],[-0.335358,51.558017],[-0.336449,51.555766],[-0.337768,51.554013],[-0.332123,51.553376],[-0.32927,51.55329],[-0.327646,51.553114],[-0.322078,51.551164],[-0.312131,51.547919],[-0.311767,51.548004],[-0.311525,51.547724],[-0.311008,51.547454],[-0.309526,51.546991],[-0.308165,51.546343],[-0.307506,51.545847],[-0.306433,51.544834],[-0.305608,51.543734],[-0.305035,51.542817],[-0.304311,51.542078],[-0.30372,51.541647],[-0.302168,51.540847],[-0.301756,51.540725],[-0.301009,51.540234],[-0.300523,51.539731],[-0.300078,51.538888],[-0.299227,51.538111],[-0.298655,51.537213],[-0.29751,51.535829],[-0.295639,51.534201],[-0.295435,51.533857],[-0.295218,51.532739],[-0.294664,51.531741],[-0.29424,51.53151],[-0.293202,51.531495],[-0.292822,51.531247],[-0.29252,51.529687],[-0.292448,51.528186],[-0.292208,51.52597],[-0.292426,51.525058],[-0.292425,51.524778],[-0.291697,51.523437],[-0.291552,51.521652],[-0.291509,51.519519],[-0.291348,51.518241],[-0.291352,51.517285],[-0.291274,51.517236],[-0.291368,51.516733],[-0.291458,51.516698],[-0.291597,51.51623],[-0.291544,51.516108],[-0.291866,51.515102],[-0.292045,51.514233],[-0.292105,51.513595],[-0.29204,51.511767],[-0.291942,51.511693],[-0.291934,51.51148],[-0.29139,51.511257],[-0.288988,51.510617],[-0.283116,51.508714],[-0.276186,51.508316],[-0.274887,51.508351],[-0.274298,51.508615],[-0.274171,51.508223],[-0.276186,51.508316],[-0.276616,51.507981],[-0.277272,51.507019],[-0.278961,51.505408],[-0.280266,51.503277],[-0.281063,51.502776],[-0.283176,51.501764],[-0.285104,51.501046],[-0.284191,51.50043],[-0.283319,51.499491],[-0.282769,51.498782],[-0.282068,51.497494],[-0.282026,51.496712],[-0.282319,51.495421],[-0.282404,51.494685],[-0.282275,51.492768],[-0.282158,51.492415],[-0.281847,51.491898],[-0.281331,51.491809],[-0.280779,51.491936],[-0.275766,51.492396]]}},{"type":"Feature","properties":{"routeId":"UL5","direction":"2","sourceDate":"20261009"},"geometry":{"type":"LineString","coordinates":[[-0.276317,51.492313],[-0.280577,51.491951],[-0.280872,51.491758],[-0.281065,51.491239],[-0.281213,51.491133],[-0.282068,51.491002],[-0.282552,51.491102],[-0.282683,51.491307],[-0.282722,51.491614],[-0.282527,51.4918],[-0.282285,51.491881],[-0.282173,51.492038],[-0.282323,51.492633],[-0.282257,51.492857],[-0.282404,51.494685],[-0.282319,51.495421],[-0.282026,51.496712],[-0.28204,51.497098],[-0.283014,51.498767],[-0.283508,51.499449],[-0.284353,51.500352],[-0.285254,51.501006],[-0.283176,51.501764],[-0.280636,51.503004],[-0.280266,51.503277],[-0.278961,51.505408],[-0.278135,51.506285],[-0.277272,51.507019],[-0.276616,51.507981],[-0.276171,51.508316],[-0.274887,51.508351],[-0.274272,51.508621],[-0.274266,51.508387],[-0.274171,51.508223],[-0.274887,51.508351],[-0.276186,51.508316],[-0.283116,51.508714],[-0.28569,51.509633],[-0.291906,51.511395],[-0.292113,51.511532],[-0.292121,51.511696],[-0.29204,51.511767],[-0.292094,51.513819],[-0.291882,51.515038],[-0.291544,51.516108],[-0.291597,51.51623],[-0.291458,51.516698],[-0.29151,51.516757],[-0.291426,51.517243],[-0.291352,51.517285],[-0.291348,51.518241],[-0.291509,51.519519],[-0.291552,51.521652],[-0.291697,51.523437],[-0.292425,51.524778],[-0.292426,51.525058],[-0.292208,51.52597],[-0.292448,51.528186],[-0.292711,51.529582],[-0.292923,51.52972],[-0.293854,51.529859],[-0.294718,51.530285],[-0.294799,51.530439],[-0.294697,51.531444],[-0.295008,51.531947],[-0.295308,51.533028],[-0.295435,51.533857],[-0.295639,51.534201],[-0.29751,51.535829],[-0.299148,51.537912],[-0.299721,51.538406],[-0.299744,51.538568],[-0.300299,51.539152],[-0.301028,51.540134],[-0.301579,51.540493],[-0.301908,51.540604],[-0.302168,51.540847],[-0.30372,51.541647],[-0.304311,51.542078],[-0.305035,51.542817],[-0.305608,51.543734],[-0.306433,51.544834],[-0.307506,51.545847],[-0.308165,51.546343],[-0.30917,51.546851],[-0.311008,51.547454],[-0.311446,51.547703],[-0.312628,51.548115],[-0.322078,51.551164],[-0.327646,51.553114],[-0.32927,51.55329],[-0.332123,51.553376],[-0.337768,51.554013],[-0.336449,51.555766],[-0.335358,51.558017],[-0.335257,51.558798],[-0.335029,51.5591],[-0.3323,51.561543],[-0.332084,51.561927],[-0.332263,51.562172],[-0.334253,51.56336],[-0.334878,51.563648],[-0.336648,51.564177],[-0.337754,51.564696],[-0.338131,51.565816],[-0.338329,51.565927],[-0.339276,51.566084],[-0.339544,51.56625],[-0.339709,51.566477],[-0.339753,51.566846],[-0.339521,51.567688],[-0.339737,51.568087],[-0.339991,51.568244],[-0.34351,51.568689],[-0.346444,51.569351],[-0.346807,51.569284],[-0.350032,51.56709],[-0.350021,51.566991],[-0.352723,51.56488],[-0.353677,51.564453],[-0.354831,51.563642],[-0.359454,51.559471],[-0.362082,51.557395],[-0.362548,51.55768],[-0.363085,51.558389],[-0.364483,51.559244],[-0.365067,51.559846],[-0.365275,51.560469],[-0.365276,51.560856],[-0.364912,51.561741],[-0.364817,51.562378],[-0.365047,51.563209],[-0.370277,51.569873],[-0.370824,51.570708],[-0.371129,51.571458],[-0.371335,51.572567],[-0.371174,51.573833],[-0.370577,51.575201],[-0.370757,51.575419],[-0.370902,51.575786]]}}]}