{"type":"FeatureCollection","metadata":{"routeId":"UL50","sourceDate":"20260926","source":"https://bus.data.tfl.gov.uk/bus-geometry/"},"features":[{"type":"Feature","properties":{"routeId":"UL50","direction":"1","sourceDate":"20260926"},"geometry":{"type":"LineString","coordinates":[[-0.07534,51.581751],[-0.072379,51.583066],[-0.072184,51.584239],[-0.07152,51.586278],[-0.070604,51.588493],[-0.070378,51.589264],[-0.070114,51.590508],[-0.070146,51.59077],[-0.069855,51.592204],[-0.069859,51.592512],[-0.069465,51.594239],[-0.068542,51.596256],[-0.068131,51.597436],[-0.067811,51.601927],[-0.067861,51.603115],[-0.068182,51.605422],[-0.068098,51.607057],[-0.067937,51.607792],[-0.067561,51.608487],[-0.067007,51.60884],[-0.067025,51.608901],[-0.066863,51.608977],[-0.066587,51.609326],[-0.065806,51.610365],[-0.065137,51.611496],[-0.064872,51.612283],[-0.064817,51.612893],[-0.064453,51.614677],[-0.063659,51.617079],[-0.063696,51.617173],[-0.063278,51.617832],[-0.062613,51.619538],[-0.061736,51.621475],[-0.061357,51.622917],[-0.060916,51.623773],[-0.060588,51.624694],[-0.060623,51.624874],[-0.060974,51.625123],[-0.062383,51.6253],[-0.064069,51.625713],[-0.065808,51.626281],[-0.07224,51.627583],[-0.075849,51.628668],[-0.077112,51.629219],[-0.078312,51.629895],[-0.077624,51.630432],[-0.076869,51.63086],[-0.073745,51.631969],[-0.072491,51.632569],[-0.07126,51.633304],[-0.07002,51.634296],[-0.061707,51.641483],[-0.061031,51.642425],[-0.060802,51.643042],[-0.060599,51.644405],[-0.060301,51.649022],[-0.060771,51.649543],[-0.061255,51.649703],[-0.072416,51.652054],[-0.077127,51.652446],[-0.078629,51.652383]]}},{"type":"Feature","properties":{"routeId":"UL50","direction":"2","sourceDate":"20260926"},"geometry":{"type":"LineString","coordinates":[[-0.078722,51.652377],[-0.077473,51.652452],[-0.076187,51.652414],[-0.074852,51.652229],[-0.072675,51.652095],[-0.064508,51.650384],[-0.06327,51.65024],[-0.060064,51.649504],[-0.060437,51.643818],[-0.060531,51.643289],[-0.060921,51.642279],[-0.061216,51.641808],[-0.061763,51.641178],[-0.069175,51.634781],[-0.070971,51.633326],[-0.072039,51.632652],[-0.073501,51.63192],[-0.076699,51.630795],[-0.077737,51.630169],[-0.078157,51.629802],[-0.077112,51.629219],[-0.075622,51.628583],[-0.07164,51.627411],[-0.065808,51.626281],[-0.064069,51.625713],[-0.06254,51.625328],[-0.060642,51.625108],[-0.060043,51.625269],[-0.05983,51.625184],[-0.059779,51.625031],[-0.060655,51.62447],[-0.061357,51.622917],[-0.061736,51.621475],[-0.063521,51.617388],[-0.063474,51.617313],[-0.063817,51.616717],[-0.064453,51.614677],[-0.064817,51.612893],[-0.064872,51.612283],[-0.065137,51.611496],[-0.065806,51.610365],[-0.066846,51.608916],[-0.067561,51.608487],[-0.06776,51.608212],[-0.068003,51.607604],[-0.068182,51.605422],[-0.067751,51.602349],[-0.068131,51.597436],[-0.068542,51.596256],[-0.069465,51.594239],[-0.069823,51.592544],[-0.069818,51.592059],[-0.070003,51.590749],[-0.070094,51.590643],[-0.070208,51.589997],[-0.070153,51.589924],[-0.070378,51.589264],[-0.070389,51.588786],[-0.071547,51.586],[-0.071959,51.584433],[-0.072152,51.583179]]}}]}