{"type":"FeatureCollection","metadata":{"routeId":"UL53","sourceDate":"20260905","source":"https://bus.data.tfl.gov.uk/bus-geometry/"},"features":[{"type":"Feature","properties":{"routeId":"UL53","direction":"1","sourceDate":"20260905"},"geometry":{"type":"LineString","coordinates":[[-0.07538,51.548727],[-0.075646,51.547058],[-0.0757,51.546114],[-0.075983,51.544878],[-0.076708,51.539647],[-0.076947,51.535343],[-0.077175,51.533018],[-0.077063,51.531569],[-0.077339,51.530143],[-0.077583,51.529332],[-0.077869,51.528875],[-0.078024,51.528266],[-0.078067,51.526225],[-0.077471,51.525316],[-0.077368,51.525009],[-0.077246,51.524144],[-0.077296,51.52365],[-0.075437,51.523638],[-0.074553,51.523749],[-0.073559,51.524056],[-0.070297,51.525531],[-0.068041,51.526043],[-0.055804,51.527488],[-0.055503,51.527403],[-0.055559,51.527286],[-0.05551,51.526789],[-0.054929,51.524873],[-0.054944,51.523146],[-0.055487,51.522043],[-0.055684,51.521839],[-0.056413,51.520581],[-0.056499,51.520178],[-0.056383,51.519825],[-0.062769,51.518456],[-0.06558,51.517774],[-0.068026,51.516852],[-0.070307,51.515739],[-0.071756,51.515223],[-0.071403,51.514704],[-0.070728,51.513974],[-0.069111,51.511947],[-0.072668,51.511371],[-0.072772,51.511301],[-0.072753,51.510383],[-0.073692,51.509311],[-0.074039,51.508588],[-0.074426,51.506939],[-0.077495,51.502485],[-0.077515,51.502359],[-0.075759,51.501287],[-0.074474,51.500673],[-0.072724,51.50014],[-0.071105,51.499232],[-0.069065,51.498425],[-0.067394,51.498083],[-0.066244,51.49801],[-0.064988,51.498079],[-0.060438,51.498679],[-0.056893,51.499034],[-0.056073,51.499011],[-0.055288,51.499169],[-0.054993,51.499002],[-0.054969,51.498876],[-0.055091,51.498725],[-0.054976,51.498381],[-0.052521,51.496488],[-0.052163,51.496104],[-0.050109,51.494596],[-0.04774,51.493511],[-0.047361,51.493566],[-0.047393,51.49375],[-0.046564,51.493952],[-0.045586,51.493918],[-0.045446,51.493826],[-0.045699,51.493632],[-0.046563,51.493314],[-0.046757,51.493155],[-0.046765,51.492957],[-0.04481,51.491846],[-0.041541,51.489611],[-0.036097,51.486763],[-0.035452,51.486356],[-0.032956,51.484444],[-0.032534,51.484203],[-0.027638,51.481864],[-0.026401,51.481492],[-0.023144,51.480886],[-0.0231,51.48079],[-0.022956,51.478898],[-0.022522,51.477272],[-0.022496,51.476858],[-0.022709,51.476268],[-0.023931,51.474685],[-0.023986,51.474525],[-0.025478,51.474849],[-0.030211,51.475621],[-0.032606,51.47585],[-0.032811,51.475773],[-0.03281,51.475125],[-0.034082,51.475021],[-0.034828,51.474746],[-0.035597,51.47528],[-0.036134,51.475505],[-0.036663,51.475613],[-0.037309,51.475641],[-0.039496,51.475107]]}},{"type":"Feature","properties":{"routeId":"UL53","direction":"2","sourceDate":"20260905"},"geometry":{"type":"LineString","coordinates":[[-0.03926,51.475167],[-0.037222,51.475658],[-0.032876,51.475936],[-0.030353,51.475678],[-0.028246,51.475259],[-0.025478,51.474849],[-0.023921,51.474886],[-0.022834,51.476369],[-0.022626,51.476851],[-0.022637,51.477274],[-0.023086,51.478883],[-0.02325,51.480738],[-0.024744,51.481159],[-0.026401,51.481492],[-0.028189,51.482089],[-0.032956,51.484444],[-0.035452,51.486356],[-0.036097,51.486763],[-0.040583,51.489069],[-0.042195,51.490021],[-0.044468,51.490095],[-0.044758,51.49037],[-0.04537,51.491567],[-0.045781,51.491727],[-0.046939,51.491593],[-0.047124,51.491641],[-0.04734,51.492319],[-0.047985,51.493068],[-0.048129,51.493394],[-0.048555,51.493886],[-0.050109,51.494596],[-0.052163,51.496104],[-0.052328,51.496296],[-0.050764,51.497143],[-0.049696,51.497529],[-0.049452,51.49784],[-0.049397,51.498118],[-0.049884,51.498198],[-0.050134,51.4984],[-0.050266,51.498357],[-0.050285,51.498241],[-0.049889,51.497739],[-0.049621,51.4976],[-0.049932,51.497407],[-0.050764,51.497143],[-0.052087,51.496467],[-0.052725,51.496597],[-0.053219,51.497021],[-0.05557,51.498652],[-0.056522,51.498964],[-0.059776,51.498668],[-0.066335,51.497895],[-0.067612,51.498033],[-0.069665,51.498543],[-0.070671,51.498928],[-0.072615,51.499994],[-0.074154,51.500453],[-0.074829,51.500454],[-0.07585,51.500156],[-0.076022,51.500176],[-0.077376,51.500864],[-0.078092,51.501316],[-0.077841,51.501942],[-0.074389,51.507009],[-0.074294,51.507315],[-0.073866,51.509278],[-0.074881,51.510157],[-0.075161,51.511043],[-0.074937,51.511211],[-0.073306,51.511211],[-0.073012,51.511413],[-0.073296,51.513216],[-0.073635,51.514076],[-0.07405,51.514487],[-0.07004,51.515923],[-0.068026,51.516852],[-0.06558,51.517774],[-0.062636,51.518535],[-0.056904,51.51978],[-0.056638,51.519928],[-0.056486,51.520124],[-0.056478,51.520403],[-0.056348,51.520706],[-0.055354,51.522317],[-0.054944,51.523146],[-0.054929,51.524873],[-0.05551,51.526789],[-0.055559,51.527286],[-0.055503,51.527403],[-0.055804,51.527488],[-0.066605,51.526244],[-0.068782,51.525902],[-0.070297,51.525531],[-0.073764,51.523979],[-0.074553,51.523749],[-0.075437,51.523638],[-0.077296,51.52365],[-0.077719,51.522829],[-0.078243,51.523063],[-0.079325,51.523728],[-0.080397,51.523611],[-0.08034,51.5253],[-0.080441,51.527002],[-0.079899,51.527227],[-0.078385,51.52722],[-0.07818,51.527297],[-0.078088,51.527422],[-0.077986,51.528481],[-0.077678,51.529354],[-0.077593,51.529413],[-0.077201,51.530699],[-0.077046,51.531973],[-0.077175,51.533018],[-0.076947,51.535343],[-0.076708,51.539647],[-0.075983,51.544878],[-0.0757,51.546114],[-0.075626,51.547192],[-0.075414,51.548444]]}}]}