{"type":"FeatureCollection","metadata":{"routeId":"UL58A","sourceDate":"20260905","source":"https://bus.data.tfl.gov.uk/bus-geometry/"},"features":[{"type":"Feature","properties":{"routeId":"UL58A","direction":"1","sourceDate":"20260905"},"geometry":{"type":"LineString","coordinates":[[-0.134895,51.564842],[-0.135231,51.564215],[-0.136519,51.564487],[-0.137033,51.564954],[-0.137043,51.565089],[-0.136921,51.565231],[-0.135787,51.566157],[-0.13556,51.566055],[-0.135372,51.56607],[-0.134865,51.566475],[-0.135542,51.567196],[-0.137076,51.569199],[-0.138378,51.570542],[-0.1397,51.571741],[-0.139989,51.572087],[-0.140007,51.572339],[-0.143413,51.575891],[-0.143889,51.576249],[-0.154143,51.5807],[-0.154533,51.580698],[-0.155032,51.580481],[-0.15532,51.580503],[-0.155666,51.580859],[-0.157378,51.582082],[-0.161261,51.584202],[-0.162769,51.585116],[-0.163245,51.585474],[-0.163839,51.586131],[-0.16401,51.586206],[-0.164155,51.586532],[-0.164263,51.587082],[-0.164202,51.58789],[-0.163936,51.589451],[-0.165184,51.589668],[-0.167241,51.589844],[-0.167562,51.589768],[-0.168733,51.589004],[-0.169164,51.589047],[-0.170619,51.589492],[-0.171181,51.58987],[-0.171881,51.59006],[-0.174024,51.590975],[-0.175742,51.591334],[-0.17823,51.591571],[-0.179156,51.591873],[-0.181361,51.592699],[-0.183879,51.593988],[-0.185861,51.594261],[-0.190416,51.596264],[-0.190803,51.596343],[-0.195113,51.596508],[-0.196681,51.596658],[-0.198037,51.597047],[-0.197485,51.597866],[-0.196503,51.598975],[-0.193382,51.601562],[-0.191775,51.60276],[-0.188959,51.604578],[-0.188049,51.605319],[-0.186728,51.606216],[-0.182147,51.609167],[-0.178281,51.611957],[-0.177437,51.612816],[-0.177208,51.613146],[-0.176873,51.613923],[-0.17675,51.614469],[-0.176809,51.617312],[-0.176562,51.622416],[-0.176404,51.62411],[-0.176175,51.625206],[-0.175851,51.626074],[-0.174849,51.627649],[-0.174649,51.628312],[-0.17462,51.628671],[-0.174907,51.630177],[-0.175596,51.632383],[-0.175674,51.632412],[-0.175719,51.63259],[-0.175664,51.632628],[-0.176071,51.634296],[-0.176398,51.635137],[-0.177164,51.636197],[-0.178992,51.637885],[-0.180204,51.639693],[-0.180649,51.640859],[-0.181153,51.641623],[-0.187255,51.646627],[-0.188304,51.647128],[-0.190718,51.647858],[-0.196942,51.65129],[-0.198455,51.652341]]}},{"type":"Feature","properties":{"routeId":"UL58A","direction":"2","sourceDate":"20260905"},"geometry":{"type":"MultiLineString","coordinates":[[[-0.193314,51.649288],[-0.190803,51.647913],[-0.188304,51.647128],[-0.187255,51.646627],[-0.181153,51.641623],[-0.180649,51.640859],[-0.180204,51.639693],[-0.178992,51.637885],[-0.177164,51.636197],[-0.176793,51.635755],[-0.176198,51.634721],[-0.175062,51.63062],[-0.174616,51.629507],[-0.174512,51.62884],[-0.174571,51.628095],[-0.174671,51.627773],[-0.175871,51.625939],[-0.176175,51.625206],[-0.176428,51.623951],[-0.176562,51.622416],[-0.176809,51.617312],[-0.176745,51.615324],[-0.175896,51.613062],[-0.175812,51.612647],[-0.176123,51.612463],[-0.177335,51.612491],[-0.177877,51.612302],[-0.18295,51.608604],[-0.186728,51.606216],[-0.188049,51.605319],[-0.188959,51.604578],[-0.191775,51.60276],[-0.193382,51.601562],[-0.196158,51.599303],[-0.197485,51.597866],[-0.198037,51.597047],[-0.196681,51.596658],[-0.195113,51.596508],[-0.190803,51.596343],[-0.190416,51.596264],[-0.185861,51.594261],[-0.183879,51.593988],[-0.181361,51.592699],[-0.179156,51.591873],[-0.17823,51.591571],[-0.175742,51.591334],[-0.174024,51.590975],[-0.171881,51.59006],[-0.171181,51.58987],[-0.170619,51.589492],[-0.169164,51.589047],[-0.168733,51.589004],[-0.167562,51.589768],[-0.167241,51.589844],[-0.165184,51.589668],[-0.163936,51.589451],[-0.163901,51.589317],[-0.164202,51.58789],[-0.164208,51.587369],[-0.164071,51.587196],[-0.163777,51.586256],[-0.163839,51.586131],[-0.163245,51.585474],[-0.162769,51.585116],[-0.161261,51.584202],[-0.15725,51.582017],[-0.143889,51.576249],[-0.143413,51.575891],[-0.13933,51.571609],[-0.138273,51.570639],[-0.136958,51.569269],[-0.135574,51.567467],[-0.1348,51.566645],[-0.133735,51.566233],[-0.133742,51.566062],[-0.134428,51.565506],[-0.134895,51.564842]],[[-0.192286,51.601093],[-0.192284,51.601212],[-0.19313,51.601729],[-0.193382,51.601562],[-0.196503,51.598975],[-0.197485,51.597866],[-0.198037,51.597047],[-0.196681,51.596658],[-0.195113,51.596508],[-0.190803,51.596343],[-0.190416,51.596264],[-0.185861,51.594261],[-0.183879,51.593988],[-0.181361,51.592699],[-0.179156,51.591873],[-0.17823,51.591571],[-0.175742,51.591334],[-0.174024,51.590975],[-0.171881,51.59006],[-0.171181,51.58987],[-0.170619,51.589492],[-0.169164,51.589047],[-0.168733,51.589004],[-0.167562,51.589768],[-0.167241,51.589844],[-0.165184,51.589668],[-0.163936,51.589451],[-0.163901,51.589317],[-0.164202,51.58789],[-0.164208,51.587369],[-0.164071,51.587196],[-0.163777,51.586256],[-0.163839,51.586131],[-0.163245,51.585474],[-0.162769,51.585116],[-0.161261,51.584202],[-0.15725,51.582017],[-0.143889,51.576249],[-0.143413,51.575891],[-0.13933,51.571609],[-0.138273,51.570639],[-0.136958,51.569269],[-0.135574,51.567467],[-0.1348,51.566645],[-0.133735,51.566233],[-0.133742,51.566062],[-0.134428,51.565506],[-0.134895,51.564842]]]}}]}