{"type":"FeatureCollection","metadata":{"routeId":"UL62","sourceDate":"20260926","source":"https://bus.data.tfl.gov.uk/bus-geometry/"},"features":[{"type":"Feature","properties":{"routeId":"UL62","direction":"1","sourceDate":"20260926"},"geometry":{"type":"LineString","coordinates":[[-0.026855,51.508711],[-0.027189,51.507935],[-0.027308,51.507865],[-0.027413,51.507365],[-0.027402,51.506977],[-0.027068,51.506063],[-0.026638,51.506028],[-0.026188,51.505751],[-0.023636,51.505465],[-0.023491,51.50549],[-0.023411,51.505659],[-0.023265,51.505702],[-0.01489,51.504778],[-0.014548,51.504691],[-0.014215,51.504398],[-0.013211,51.5043],[-0.012538,51.504522],[-0.011379,51.50533],[-0.010913,51.505763],[-0.010681,51.506145],[-0.010591,51.506549],[-0.010783,51.506768],[-0.010733,51.506938],[-0.010543,51.506988],[-0.00993,51.506843],[-0.009182,51.506803],[-0.008803,51.506914],[-0.008677,51.507154],[-0.008914,51.507338],[-0.008976,51.507564],[-0.008729,51.507929],[-0.008727,51.508324],[-0.008779,51.508442],[-0.009225,51.508791],[-0.006914,51.508923],[-0.006831,51.508508],[-0.00699,51.508493],[-0.006972,51.50825],[-0.007064,51.508107],[-0.007195,51.508092],[-0.007308,51.508129],[-0.007341,51.508382],[-0.007308,51.508462],[-0.006831,51.508508],[-0.006914,51.508923],[-0.009225,51.508791],[-0.009455,51.509128],[-0.010138,51.50967],[-0.010325,51.510006],[-0.010718,51.511245],[-0.011307,51.511291],[-0.012491,51.51123],[-0.012051,51.509748],[-0.012119,51.508841],[-0.009052,51.508789],[-0.008863,51.508516],[-0.008265,51.508011],[-0.007643,51.507731],[-0.007554,51.50745],[-0.007685,51.507102],[-0.007664,51.506913],[-0.007453,51.50681],[-0.007005,51.50682],[-0.006613,51.506904],[-0.006624,51.507299],[-0.006531,51.507451],[-0.00452,51.507956],[-0.003932,51.508225],[-0.003041,51.508839],[-0.002374,51.509135],[0.000576,51.509821],[0.000691,51.510134],[0.000628,51.510341],[0.000287,51.510464],[0.000123,51.510656],[0.000175,51.510862],[0.000412,51.511011],[0.000452,51.511271],[-0.000173,51.512459],[-0.000198,51.512883],[0.002415,51.514286],[0.003131,51.514516],[0.007191,51.5154],[0.007575,51.515618],[0.007763,51.515957],[0.008155,51.516013],[0.008425,51.515928],[0.008648,51.515753],[0.008826,51.515543],[0.008805,51.515426],[0.008425,51.515236],[0.007596,51.515105],[0.007605,51.514988],[0.008734,51.513872]]}},{"type":"Feature","properties":{"routeId":"UL62","direction":"2","sourceDate":"20260926"},"geometry":{"type":"LineString","coordinates":[[0.00902,51.514083],[0.007905,51.515253],[0.003299,51.514414],[0.0027,51.514227],[0.001888,51.513782],[0.001346,51.513252],[0.001065,51.513095],[0.000146,51.512832],[0.000026,51.512717],[0.000711,51.511248],[0.000862,51.511093],[0.001219,51.511015],[0.001453,51.510768],[0.001444,51.510561],[0.000821,51.51014],[0.000831,51.509726],[0.000314,51.509753],[-0.002374,51.509135],[-0.003041,51.508839],[-0.003932,51.508225],[-0.00452,51.507956],[-0.006531,51.507451],[-0.006624,51.507299],[-0.006613,51.506904],[-0.007629,51.506723],[-0.007759,51.506707],[-0.007794,51.506897],[-0.007934,51.507007],[-0.008606,51.507126],[-0.008914,51.507338],[-0.008976,51.507564],[-0.008729,51.507929],[-0.008727,51.508324],[-0.008779,51.508442],[-0.009225,51.508791],[-0.006914,51.508923],[-0.006831,51.508508],[-0.00699,51.508493],[-0.006972,51.50825],[-0.007064,51.508107],[-0.007195,51.508092],[-0.007308,51.508129],[-0.007341,51.508382],[-0.007308,51.508462],[-0.006831,51.508508],[-0.006914,51.508923],[-0.009225,51.508791],[-0.009455,51.509128],[-0.010138,51.50967],[-0.010325,51.510006],[-0.010718,51.511245],[-0.011307,51.511291],[-0.012491,51.51123],[-0.012051,51.509748],[-0.012119,51.508841],[-0.009052,51.508789],[-0.008863,51.508516],[-0.008265,51.508011],[-0.007698,51.507785],[-0.007556,51.507405],[-0.007766,51.507211],[-0.008391,51.507087],[-0.00894,51.506736],[-0.010337,51.506751],[-0.010613,51.506036],[-0.010813,51.505743],[-0.011399,51.505186],[-0.012588,51.50437],[-0.0127,51.504111],[-0.012905,51.504034],[-0.013162,51.504079],[-0.013244,51.504201],[-0.014248,51.504308],[-0.014775,51.504111],[-0.015092,51.504107],[-0.023468,51.505022],[-0.023566,51.505086],[-0.023586,51.505293],[-0.023685,51.505331],[-0.026238,51.505608],[-0.026793,51.505428],[-0.027095,51.505451],[-0.027388,51.505672],[-0.027348,51.505914],[-0.027068,51.506063],[-0.027402,51.506977],[-0.027413,51.507365],[-0.027308,51.507865],[-0.027376,51.507947],[-0.02712,51.508536],[-0.026814,51.508936],[-0.026831,51.509193]]}}]}