{"type":"FeatureCollection","metadata":{"routeId":"UL63","sourceDate":"20260918","source":"https://bus.data.tfl.gov.uk/bus-geometry/"},"features":[{"type":"Feature","properties":{"routeId":"UL63","direction":"1","sourceDate":"20260918"},"geometry":{"type":"MultiLineString","coordinates":[[[-0.106586,51.563722],[-0.104212,51.564869],[-0.101308,51.566701],[-0.096317,51.570469],[-0.096205,51.571079],[-0.098381,51.574954],[-0.100293,51.585174],[-0.101042,51.58693],[-0.102564,51.589563],[-0.102907,51.589991],[-0.104813,51.591712],[-0.107481,51.593586],[-0.108691,51.594625],[-0.108921,51.595007],[-0.109032,51.595728],[-0.109241,51.596334],[-0.110518,51.597928],[-0.110828,51.598446],[-0.111019,51.598969],[-0.117501,51.601197],[-0.120388,51.602459],[-0.120684,51.602785],[-0.122061,51.6051],[-0.122696,51.605821],[-0.123482,51.606364],[-0.128181,51.609038],[-0.129339,51.609326],[-0.130917,51.609945],[-0.132061,51.610224],[-0.132995,51.610346],[-0.135107,51.610974],[-0.138096,51.612037],[-0.139864,51.612254],[-0.140917,51.612639],[-0.141225,51.612869],[-0.142889,51.614559],[-0.143879,51.615751],[-0.141848,51.616368],[-0.141676,51.616689],[-0.14168,51.61695],[-0.141428,51.617099],[-0.141055,51.61703],[-0.140356,51.616479],[-0.139439,51.616294],[-0.138934,51.616268],[-0.13666,51.61643],[-0.134609,51.616073],[-0.134046,51.616064],[-0.134008,51.616172],[-0.133458,51.61617]],[[-0.106586,51.563722],[-0.104212,51.564869],[-0.101308,51.566701],[-0.096317,51.570469],[-0.096205,51.571079],[-0.098381,51.574954],[-0.100293,51.585174],[-0.100802,51.586459],[-0.102172,51.588909],[-0.102907,51.589991],[-0.104813,51.591712],[-0.107481,51.593586],[-0.108691,51.594625],[-0.108921,51.595007],[-0.109032,51.595728],[-0.109241,51.596334],[-0.110518,51.597928],[-0.110828,51.598446],[-0.111019,51.598969],[-0.117501,51.601197],[-0.120388,51.602459],[-0.120684,51.602785],[-0.122061,51.6051],[-0.122696,51.605821],[-0.123482,51.606364],[-0.128181,51.609038],[-0.129339,51.609326],[-0.130917,51.609945],[-0.132061,51.610224],[-0.132995,51.610346],[-0.135107,51.610974],[-0.138096,51.612037],[-0.139864,51.612254],[-0.140917,51.612639],[-0.141225,51.612869],[-0.142889,51.614559],[-0.143879,51.615751],[-0.141848,51.616368],[-0.141743,51.616474],[-0.14168,51.61695],[-0.141603,51.617048],[-0.14124,51.617096],[-0.141055,51.61703],[-0.140568,51.616591],[-0.139898,51.616355],[-0.138934,51.616268],[-0.13666,51.61643],[-0.134609,51.616073],[-0.134046,51.616064],[-0.134008,51.616172],[-0.133103,51.616157],[-0.133023,51.615994],[-0.130978,51.615854],[-0.129011,51.615562],[-0.127691,51.614983],[-0.126026,51.615784],[-0.125093,51.616344],[-0.124089,51.6171],[-0.12408,51.617183],[-0.123058,51.618065],[-0.122917,51.618315],[-0.122498,51.61972],[-0.121721,51.621056],[-0.121667,51.621308],[-0.121762,51.621813],[-0.122036,51.622527],[-0.122566,51.623318],[-0.123956,51.624662],[-0.124213,51.624738],[-0.12417,51.624816],[-0.124676,51.625411],[-0.124893,51.626116],[-0.125482,51.626881],[-0.126536,51.627865],[-0.127409,51.628494],[-0.127628,51.628794],[-0.127928,51.630171],[-0.127746,51.631539],[-0.127558,51.631896],[-0.127683,51.632032],[-0.128151,51.632247],[-0.12817,51.632457],[-0.127948,51.632621],[-0.127484,51.63265],[-0.127074,51.632778],[-0.127393,51.633098],[-0.127429,51.636444],[-0.127975,51.638099],[-0.128313,51.638766],[-0.128469,51.639266],[-0.129743,51.641328],[-0.130343,51.642542],[-0.130483,51.642661],[-0.13053,51.642914],[-0.132877,51.647708],[-0.13779,51.646036],[-0.140178,51.645558],[-0.142545,51.645281],[-0.145696,51.645276],[-0.146242,51.644997],[-0.146575,51.644984],[-0.146898,51.645223],[-0.146699,51.645481],[-0.146601,51.645767],[-0.147573,51.648174],[-0.149743,51.651311],[-0.149823,51.651416],[-0.150018,51.651458]]]}},{"type":"Feature","properties":{"routeId":"UL63","direction":"2","sourceDate":"20260918"},"geometry":{"type":"MultiLineString","coordinates":[[[-0.133745,51.616044],[-0.134983,51.616106],[-0.13666,51.61643],[-0.138934,51.616268],[-0.139439,51.616294],[-0.140785,51.616576],[-0.141339,51.616504],[-0.143879,51.615751],[-0.142889,51.614559],[-0.141225,51.612869],[-0.140917,51.612639],[-0.140206,51.612376],[-0.138823,51.612274],[-0.137935,51.612089],[-0.135848,51.611201],[-0.132995,51.610346],[-0.132061,51.610224],[-0.130917,51.609945],[-0.129339,51.609326],[-0.128181,51.609038],[-0.123482,51.606364],[-0.122696,51.605821],[-0.122061,51.6051],[-0.120684,51.602785],[-0.120388,51.602459],[-0.117501,51.601197],[-0.111019,51.598969],[-0.110828,51.598446],[-0.110518,51.597928],[-0.109241,51.596334],[-0.109032,51.595728],[-0.108921,51.595007],[-0.108691,51.594625],[-0.107481,51.593586],[-0.105246,51.592061],[-0.102907,51.589991],[-0.102564,51.589563],[-0.101042,51.58693],[-0.100564,51.585933],[-0.10028,51.585128],[-0.098716,51.576947],[-0.098558,51.576594],[-0.098577,51.576126],[-0.098381,51.574954],[-0.096611,51.571724],[-0.095874,51.570705],[-0.096317,51.570469],[-0.100996,51.566912],[-0.102999,51.565587],[-0.104508,51.564712],[-0.106341,51.563837]],[[-0.149875,51.651485],[-0.147573,51.648174],[-0.146601,51.645758],[-0.146009,51.645389],[-0.143559,51.645234],[-0.140178,51.645558],[-0.13779,51.646036],[-0.132877,51.647708],[-0.13053,51.642914],[-0.130483,51.642661],[-0.130343,51.642542],[-0.129743,51.641328],[-0.128469,51.639266],[-0.128313,51.638766],[-0.127975,51.638099],[-0.127429,51.636444],[-0.127393,51.633098],[-0.127074,51.632778],[-0.127382,51.632684],[-0.127009,51.632256],[-0.127086,51.632131],[-0.127309,51.632088],[-0.127462,51.632137],[-0.127481,51.632362],[-0.127762,51.632564],[-0.127948,51.632621],[-0.128171,51.632463],[-0.128151,51.632247],[-0.127683,51.632032],[-0.127558,51.631896],[-0.127746,51.631539],[-0.127928,51.630171],[-0.127628,51.628794],[-0.127409,51.628494],[-0.126536,51.627865],[-0.125482,51.626881],[-0.124893,51.626116],[-0.124676,51.625411],[-0.124411,51.625048],[-0.12417,51.624816],[-0.124007,51.624816],[-0.124026,51.624708],[-0.122566,51.623318],[-0.122036,51.622527],[-0.121762,51.621813],[-0.121667,51.621308],[-0.121721,51.621056],[-0.122498,51.61972],[-0.122917,51.618315],[-0.123058,51.618065],[-0.12408,51.617183],[-0.124089,51.6171],[-0.125093,51.616344],[-0.126026,51.615784],[-0.127691,51.614983],[-0.129011,51.615562],[-0.130189,51.615759],[-0.134983,51.616106],[-0.13666,51.61643],[-0.139122,51.616271],[-0.139898,51.616355],[-0.140626,51.616564],[-0.141089,51.616563],[-0.143879,51.615751],[-0.142889,51.614559],[-0.141225,51.612869],[-0.140917,51.612639],[-0.140206,51.612376],[-0.138823,51.612274],[-0.137935,51.612089],[-0.135848,51.611201],[-0.132995,51.610346],[-0.132061,51.610224],[-0.130917,51.609945],[-0.129339,51.609326],[-0.128181,51.609038],[-0.123482,51.606364],[-0.122696,51.605821],[-0.122061,51.6051],[-0.120684,51.602785],[-0.120388,51.602459],[-0.117501,51.601197],[-0.111019,51.598969],[-0.110828,51.598446],[-0.110518,51.597928],[-0.109241,51.596334],[-0.109032,51.595728],[-0.108921,51.595007],[-0.108691,51.594625],[-0.107481,51.593586],[-0.105246,51.592061],[-0.102907,51.589991],[-0.102172,51.588909],[-0.100802,51.586459],[-0.10028,51.585128],[-0.098716,51.576947],[-0.098558,51.576594],[-0.098577,51.576126],[-0.098381,51.574954],[-0.096611,51.571724],[-0.095874,51.570705],[-0.096317,51.570469],[-0.100996,51.566912],[-0.102999,51.565587],[-0.104508,51.564712],[-0.106341,51.563837]]]}}]}