{"type":"FeatureCollection","metadata":{"routeId":"UL65","sourceDate":"20260905","source":"https://bus.data.tfl.gov.uk/bus-geometry/"},"features":[{"type":"Feature","properties":{"routeId":"UL65","direction":"1","sourceDate":"20260905"},"geometry":{"type":"LineString","coordinates":[[-0.07534,51.581751],[-0.072379,51.583066],[-0.072184,51.584239],[-0.07152,51.586278],[-0.070604,51.588493],[-0.070378,51.589264],[-0.070114,51.590508],[-0.070146,51.59077],[-0.069855,51.592204],[-0.069859,51.592512],[-0.069465,51.594239],[-0.068542,51.596256],[-0.068131,51.597436],[-0.067811,51.601927],[-0.067861,51.603115],[-0.068182,51.605422],[-0.068098,51.607057],[-0.067937,51.607792],[-0.067561,51.608487],[-0.067007,51.60884],[-0.067025,51.608901],[-0.066863,51.608977],[-0.066587,51.609326],[-0.065806,51.610365],[-0.065137,51.611496],[-0.064872,51.612283],[-0.064817,51.612893],[-0.064453,51.614677],[-0.063659,51.617079],[-0.063696,51.617173],[-0.063278,51.617832],[-0.062613,51.619538],[-0.061736,51.621475],[-0.061357,51.622917],[-0.060916,51.623773],[-0.060588,51.624694],[-0.060623,51.624874],[-0.060974,51.625123],[-0.062383,51.6253],[-0.064069,51.625713],[-0.065808,51.626281],[-0.07224,51.627583],[-0.075849,51.628668],[-0.077112,51.629219],[-0.078312,51.629895],[-0.077624,51.630432],[-0.076869,51.63086],[-0.073745,51.631969],[-0.072491,51.632569],[-0.07126,51.633304],[-0.07002,51.634296],[-0.061707,51.641483],[-0.061031,51.642425],[-0.060802,51.643042],[-0.060599,51.644405],[-0.060322,51.648528],[-0.060213,51.649389],[-0.060064,51.649504],[-0.058977,51.649234],[-0.057562,51.649119],[-0.056596,51.649161],[-0.046406,51.648441],[-0.046416,51.648656],[-0.046343,51.648772],[-0.046396,51.649682],[-0.047692,51.652482],[-0.048486,51.653512],[-0.048526,51.653926],[-0.04833,51.654795],[-0.047771,51.655685],[-0.047386,51.656578],[-0.047279,51.657053],[-0.047247,51.658122],[-0.047077,51.659063],[-0.045516,51.662733],[-0.045028,51.663669],[-0.044284,51.664484],[-0.043445,51.665828],[-0.041503,51.668278],[-0.041392,51.668519],[-0.041191,51.669819],[-0.040634,51.670988],[-0.040171,51.671753],[-0.038007,51.674217],[-0.036117,51.675795],[-0.035174,51.676859],[-0.034554,51.677811],[-0.034155,51.678676],[-0.033952,51.680363],[-0.03315,51.683515],[-0.033002,51.683594],[-0.032744,51.683535],[-0.031049,51.683588],[-0.030289,51.683764],[-0.029519,51.684165],[-0.029261,51.684448],[-0.029116,51.684788],[-0.029137,51.685309],[-0.029316,51.685528],[-0.029542,51.685649],[-0.029716,51.685976],[-0.031152,51.686539],[-0.03207,51.687067],[-0.032932,51.687864],[-0.03355,51.688962],[-0.034205,51.689216],[-0.034166,51.68944],[-0.033748,51.68973],[-0.03368,51.689981],[-0.034368,51.692165],[-0.034602,51.694069],[-0.034506,51.697953],[-0.034246,51.699604],[-0.034326,51.700432],[-0.034539,51.701208],[-0.034494,51.702612],[-0.032603,51.702804],[-0.031636,51.702734],[-0.030387,51.702838],[-0.027379,51.702788],[-0.024251,51.703167],[-0.024194,51.702991]]}},{"type":"Feature","properties":{"routeId":"UL65","direction":"2","sourceDate":"20260905"},"geometry":{"type":"LineString","coordinates":[[-0.024198,51.703002],[-0.024251,51.703167],[-0.027379,51.702788],[-0.030387,51.702838],[-0.031636,51.702734],[-0.032603,51.702804],[-0.034494,51.702612],[-0.034539,51.701208],[-0.034221,51.699768],[-0.034506,51.697953],[-0.034602,51.694069],[-0.034351,51.692211],[-0.033614,51.689836],[-0.033643,51.689485],[-0.033532,51.689376],[-0.033538,51.689241],[-0.033045,51.688261],[-0.032787,51.687879],[-0.032246,51.687331],[-0.03136,51.686749],[-0.030395,51.686329],[-0.029552,51.686081],[-0.029033,51.686036],[-0.028842,51.685781],[-0.028981,51.685576],[-0.028973,51.684749],[-0.029102,51.684446],[-0.029436,51.684083],[-0.030206,51.683682],[-0.031082,51.683489],[-0.032821,51.68342],[-0.032952,51.683395],[-0.033253,51.683139],[-0.034007,51.680094],[-0.033995,51.679689],[-0.034155,51.678676],[-0.034554,51.677811],[-0.035174,51.676859],[-0.035919,51.676008],[-0.036509,51.675424],[-0.038261,51.673962],[-0.040169,51.671709],[-0.040839,51.670605],[-0.041191,51.669819],[-0.041392,51.668519],[-0.041503,51.668278],[-0.043445,51.665828],[-0.044284,51.664484],[-0.045028,51.663669],[-0.045516,51.662733],[-0.047077,51.659063],[-0.047247,51.658122],[-0.047279,51.657053],[-0.047386,51.656578],[-0.047771,51.655685],[-0.04833,51.654795],[-0.048526,51.653926],[-0.048512,51.653584],[-0.047692,51.652482],[-0.046396,51.649682],[-0.046338,51.64858],[-0.046406,51.648441],[-0.048839,51.648661],[-0.055861,51.649084],[-0.057125,51.649042],[-0.059567,51.649289],[-0.059978,51.649143],[-0.060098,51.649055],[-0.060437,51.643818],[-0.060633,51.642931],[-0.060921,51.642279],[-0.061429,51.64155],[-0.062034,51.640931],[-0.069175,51.634781],[-0.070971,51.633326],[-0.072039,51.632652],[-0.073501,51.63192],[-0.076699,51.630795],[-0.077737,51.630169],[-0.078157,51.629802],[-0.077112,51.629219],[-0.075622,51.628583],[-0.07164,51.627411],[-0.065808,51.626281],[-0.064069,51.625713],[-0.06254,51.625328],[-0.060642,51.625108],[-0.060043,51.625269],[-0.05983,51.625184],[-0.059779,51.625031],[-0.060655,51.62447],[-0.061357,51.622917],[-0.061736,51.621475],[-0.063521,51.617388],[-0.063474,51.617313],[-0.063817,51.616717],[-0.064453,51.614677],[-0.064817,51.612893],[-0.064872,51.612283],[-0.065073,51.611648],[-0.065806,51.610365],[-0.066846,51.608916],[-0.067561,51.608487],[-0.06776,51.608212],[-0.068056,51.607362],[-0.068153,51.605089],[-0.067751,51.602349],[-0.068131,51.597436],[-0.068542,51.596256],[-0.069465,51.594239],[-0.069823,51.592544],[-0.069818,51.592059],[-0.070003,51.590749],[-0.070094,51.590643],[-0.070208,51.589997],[-0.070153,51.589924],[-0.070378,51.589264],[-0.070389,51.588786],[-0.071547,51.586],[-0.072196,51.583278],[-0.07247,51.583],[-0.080773,51.579451],[-0.081994,51.578554],[-0.083329,51.577335],[-0.086191,51.574486],[-0.081371,51.574839],[-0.079483,51.574763],[-0.078796,51.574696],[-0.072408,51.573487],[-0.072619,51.572268],[-0.072755,51.572117],[-0.072814,51.571731],[-0.072957,51.566662],[-0.073108,51.565478],[-0.073143,51.563626],[-0.073221,51.563483],[-0.072401,51.563083],[-0.071603,51.562836],[-0.071252,51.562623],[-0.070923,51.562222],[-0.070679,51.561157],[-0.069835,51.55894],[-0.069172,51.557913],[-0.068676,51.557347],[-0.06837,51.55674],[-0.068147,51.555549],[-0.068359,51.554617],[-0.065801,51.551679],[-0.065021,51.551028],[-0.064388,51.55064],[-0.063469,51.550211],[-0.062501,51.549899],[-0.061139,51.54964],[-0.059651,51.549591],[-0.059472,51.549228],[-0.055062,51.547114],[-0.055383,51.544331],[-0.055285,51.541884],[-0.055221,51.541694],[-0.055245,51.540795],[-0.055725,51.540021],[-0.056996,51.538621],[-0.057042,51.538208],[-0.056906,51.537684],[-0.057143,51.536177],[-0.057167,51.535269],[-0.057329,51.534508],[-0.05734,51.533582],[-0.057156,51.532701],[-0.056846,51.531694],[-0.056461,51.53086],[-0.056339,51.530753],[-0.056364,51.530662],[-0.055606,51.528598],[-0.055503,51.527403],[-0.055804,51.527488],[-0.068041,51.526043],[-0.070297,51.525531],[-0.073559,51.524056],[-0.074553,51.523749],[-0.075437,51.523638],[-0.077296,51.52365],[-0.07786,51.522571],[-0.0786,51.521441],[-0.078853,51.520906],[-0.079029,51.519803],[-0.079677,51.51834],[-0.08007,51.517928]]}}]}