{"type":"FeatureCollection","metadata":{"routeId":"UL67","sourceDate":"20260905","source":"https://bus.data.tfl.gov.uk/bus-geometry/"},"features":[{"type":"Feature","properties":{"routeId":"UL67","direction":"1","sourceDate":"20260905"},"geometry":{"type":"LineString","coordinates":[[-0.192087,51.602515],[-0.188959,51.604578],[-0.188049,51.605319],[-0.186728,51.606216],[-0.18295,51.608604],[-0.177877,51.612302],[-0.177335,51.612491],[-0.175474,51.612417],[-0.173851,51.612212],[-0.169879,51.611134],[-0.169061,51.610996],[-0.168395,51.611039],[-0.167271,51.611345],[-0.162679,51.611669],[-0.160335,51.612136],[-0.158473,51.61297],[-0.157125,51.613291],[-0.156071,51.613455],[-0.154481,51.613321],[-0.15328,51.613356],[-0.15067,51.614331],[-0.146407,51.615091],[-0.141921,51.616333],[-0.141743,51.616474],[-0.141649,51.617003],[-0.141341,51.617106],[-0.141055,51.61703],[-0.140356,51.616479],[-0.139898,51.616355],[-0.138934,51.616268],[-0.13666,51.61643],[-0.134609,51.616073],[-0.134041,51.616081],[-0.134013,51.616172],[-0.133103,51.616157],[-0.133023,51.615994],[-0.130978,51.615854],[-0.129011,51.615562],[-0.127691,51.614983],[-0.126026,51.615784],[-0.125093,51.616344],[-0.124089,51.6171],[-0.123058,51.618065],[-0.122917,51.618315],[-0.122498,51.61972],[-0.121672,51.621182],[-0.121762,51.621813],[-0.122142,51.622745],[-0.122676,51.623455],[-0.123956,51.624662],[-0.124213,51.624738],[-0.124166,51.624818],[-0.124676,51.625411],[-0.124893,51.626116],[-0.125206,51.626571],[-0.126536,51.627865],[-0.127409,51.628494],[-0.127628,51.628794],[-0.127928,51.630171],[-0.127746,51.631539],[-0.127558,51.631896],[-0.127683,51.632033],[-0.128151,51.632247],[-0.12817,51.632457],[-0.127948,51.632621],[-0.127484,51.63265],[-0.127074,51.632778],[-0.127393,51.633098],[-0.127429,51.636444],[-0.128469,51.639266],[-0.129743,51.641328],[-0.130343,51.642542],[-0.130483,51.642661],[-0.13053,51.642914],[-0.132877,51.647708],[-0.137875,51.646016],[-0.140629,51.645484],[-0.142545,51.645281],[-0.145696,51.645276],[-0.146242,51.644997],[-0.146489,51.644965],[-0.146703,51.64504],[-0.146898,51.645223],[-0.146864,51.645358],[-0.146699,51.645481],[-0.146601,51.645767],[-0.147573,51.648174],[-0.149743,51.651311],[-0.150018,51.651458]]}},{"type":"Feature","properties":{"routeId":"UL67","direction":"2","sourceDate":"20260905"},"geometry":{"type":"LineString","coordinates":[[-0.149873,51.651488],[-0.147573,51.648174],[-0.146601,51.645758],[-0.146009,51.645389],[-0.143559,51.645234],[-0.140178,51.645558],[-0.13779,51.646036],[-0.132877,51.647708],[-0.13053,51.642914],[-0.130265,51.642684],[-0.130249,51.642369],[-0.129971,51.641754],[-0.128254,51.638846],[-0.127429,51.636444],[-0.127393,51.633098],[-0.127074,51.632778],[-0.127215,51.632511],[-0.127009,51.632256],[-0.127058,51.63213],[-0.127291,51.63208],[-0.127461,51.632155],[-0.127564,51.632462],[-0.127762,51.632564],[-0.127948,51.632621],[-0.128171,51.632463],[-0.128151,51.632247],[-0.127683,51.632033],[-0.127558,51.631896],[-0.127746,51.631539],[-0.127928,51.630171],[-0.127628,51.628794],[-0.127409,51.628494],[-0.126536,51.627865],[-0.125206,51.626571],[-0.124893,51.626116],[-0.124676,51.625411],[-0.124499,51.625156],[-0.124166,51.624818],[-0.124007,51.624816],[-0.124026,51.624708],[-0.122676,51.623455],[-0.122142,51.622745],[-0.121762,51.621813],[-0.121672,51.621182],[-0.122498,51.61972],[-0.122917,51.618315],[-0.123058,51.618065],[-0.124083,51.617174],[-0.12436,51.616834],[-0.125093,51.616344],[-0.126026,51.615784],[-0.127691,51.614983],[-0.129011,51.615562],[-0.130978,51.615854],[-0.134983,51.616106],[-0.13666,51.61643],[-0.139122,51.616271],[-0.139898,51.616355],[-0.140626,51.616564],[-0.141089,51.616563],[-0.146407,51.615091],[-0.15067,51.614331],[-0.15328,51.613356],[-0.15412,51.613306],[-0.156378,51.613433],[-0.158473,51.61297],[-0.160012,51.612257],[-0.161036,51.611949],[-0.163462,51.611591],[-0.167271,51.611345],[-0.168642,51.610998],[-0.169879,51.611134],[-0.173493,51.612126],[-0.174582,51.61234],[-0.177335,51.612491],[-0.177877,51.612302],[-0.18295,51.608604],[-0.186728,51.606216],[-0.188049,51.605319],[-0.188959,51.604578],[-0.191775,51.60276],[-0.193382,51.601562],[-0.195923,51.599493]]}}]}