{"type":"FeatureCollection","metadata":{"routeId":"UL68","sourceDate":"20260926","source":"https://bus.data.tfl.gov.uk/bus-geometry/"},"features":[{"type":"Feature","properties":{"routeId":"UL68","direction":"1","sourceDate":"20260926"},"geometry":{"type":"LineString","coordinates":[[0.002287,51.499534],[0.002404,51.498935],[0.002639,51.498374],[0.003399,51.497633],[0.00375,51.497419],[0.005451,51.496788],[0.007098,51.495914],[0.007795,51.495381],[0.009552,51.493615],[0.009865,51.493637],[0.010175,51.49347],[0.010198,51.493353],[0.010105,51.493192],[0.009656,51.493128],[0.009522,51.49304],[0.009321,51.49272],[0.009164,51.492111],[0.008746,51.491777],[0.00868,51.491247],[0.008379,51.491297],[0.007453,51.492518],[0.006208,51.493691],[0.003933,51.495348],[0.002662,51.495928],[0.002413,51.496186],[0.002415,51.496473],[0.002524,51.496669],[0.003483,51.497274],[0.004825,51.498624],[0.005687,51.499099],[0.007343,51.499805],[0.009577,51.500567],[0.012372,51.501651],[0.01327,51.50223],[0.014423,51.503201],[0.014603,51.503882],[0.014939,51.506281],[0.01479,51.50671],[0.013594,51.507997],[0.013224,51.508194],[0.012828,51.508225],[0.012773,51.508338],[0.012921,51.508492],[0.013588,51.508816],[0.014126,51.508267],[0.014054,51.508242],[0.011384,51.511443],[0.011133,51.511637],[0.010884,51.51204],[0.009509,51.513697],[0.009266,51.513746],[0.009201,51.513909],[0.007905,51.515253],[0.007736,51.515337],[0.007577,51.515654],[0.007689,51.515904],[0.007808,51.515983],[0.008558,51.516064],[0.009263,51.516323],[0.013454,51.518179],[0.012648,51.518859],[0.012081,51.519732],[0.012334,51.520905],[0.012313,51.523693],[0.012484,51.523978],[0.013071,51.524553],[0.014178,51.525118],[0.017977,51.525629],[0.017543,51.527543],[0.019269,51.531029],[0.018354,51.531224],[0.015493,51.532371],[0.014159,51.533185],[0.013381,51.53354],[0.011958,51.53396],[0.008721,51.535104],[0.00739,51.535666],[0.006824,51.536224],[0.005645,51.537944],[0.005202,51.538374],[0.003978,51.539384],[0.00171,51.540811],[0.001618,51.540828],[0.000614,51.540278],[-0.000505,51.539101],[-0.00294,51.537164],[-0.005471,51.535346],[-0.005659,51.53534],[-0.006512,51.535939],[-0.008193,51.53675],[-0.009078,51.537278],[-0.009266,51.537596],[-0.009436,51.537661],[-0.009468,51.537797],[-0.009384,51.537868],[-0.009082,51.537853],[-0.007951,51.538976],[-0.007855,51.539208],[-0.007801,51.539765],[-0.007598,51.540121],[-0.007041,51.540669],[-0.005983,51.54111],[-0.00481,51.541881],[-0.004131,51.54258],[-0.003922,51.543399]]}},{"type":"Feature","properties":{"routeId":"UL68","direction":"2","sourceDate":"20260926"},"geometry":{"type":"LineString","coordinates":[[-0.003951,51.543179],[-0.004131,51.54258],[-0.00481,51.541881],[-0.005747,51.541241],[-0.007041,51.540669],[-0.007325,51.54044],[-0.007801,51.539765],[-0.007855,51.539208],[-0.007951,51.538976],[-0.009082,51.537853],[-0.009384,51.537868],[-0.009468,51.537797],[-0.009436,51.537661],[-0.009266,51.537596],[-0.009078,51.537278],[-0.008193,51.53675],[-0.006512,51.535939],[-0.005659,51.53534],[-0.005471,51.535346],[-0.00294,51.537164],[-0.000505,51.539101],[0.000614,51.540278],[0.001618,51.540828],[0.00171,51.540811],[0.003978,51.539384],[0.004883,51.538659],[0.005645,51.537944],[0.006988,51.536033],[0.007547,51.535628],[0.011958,51.53396],[0.013381,51.53354],[0.014159,51.533185],[0.015493,51.532371],[0.018354,51.531224],[0.019269,51.531029],[0.017543,51.527543],[0.017977,51.525629],[0.014178,51.525118],[0.013071,51.524553],[0.012621,51.524138],[0.012313,51.523693],[0.012334,51.520905],[0.012081,51.519732],[0.012648,51.518859],[0.013454,51.518179],[0.008699,51.516037],[0.008522,51.515845],[0.008804,51.515578],[0.008805,51.515426],[0.008425,51.515236],[0.007596,51.515105],[0.007605,51.514988],[0.008973,51.513652],[0.009187,51.513594],[0.00953,51.513664],[0.010753,51.512183],[0.011252,51.511716],[0.011384,51.511443],[0.014204,51.508165],[0.014636,51.508069],[0.015735,51.508149],[0.015977,51.508205],[0.016018,51.50836],[0.015937,51.508479],[0.01554,51.508638],[0.014723,51.508742],[0.014459,51.508639],[0.014393,51.508442],[0.014237,51.50831],[0.013578,51.508189],[0.013568,51.508011],[0.01479,51.50671],[0.014939,51.506281],[0.014603,51.503882],[0.014423,51.503201],[0.01327,51.50223],[0.012372,51.501651],[0.009577,51.500567],[0.007343,51.499805],[0.005687,51.499099],[0.004825,51.498624],[0.003483,51.497274],[0.002524,51.496669],[0.002415,51.496473],[0.0024,51.496361],[0.00283,51.495993],[0.004614,51.495121],[0.005369,51.494595],[0.006635,51.493899],[0.007556,51.493218],[0.008479,51.492914],[0.008992,51.493112],[0.009145,51.493316],[0.009089,51.493677],[0.008862,51.494086],[0.007608,51.495375],[0.006994,51.495835],[0.006039,51.496391],[0.003745,51.497312],[0.002766,51.497967],[0.002349,51.498666],[0.00221,51.499109],[0.002176,51.499632],[0.002324,51.500717],[0.002264,51.500979],[0.002137,51.501053],[0.002257,51.501159],[0.002413,51.501111],[0.00245,51.500625],[0.002287,51.499534]]}}]}