{"type":"FeatureCollection","metadata":{"routeId":"UL69","sourceDate":"20260905","source":"https://bus.data.tfl.gov.uk/bus-geometry/"},"features":[{"type":"Feature","properties":{"routeId":"UL69","direction":"1","sourceDate":"20260905"},"geometry":{"type":"LineString","coordinates":[[-0.061266,51.549662],[-0.062501,51.549899],[-0.063469,51.550211],[-0.065021,51.551028],[-0.065801,51.551679],[-0.068359,51.554617],[-0.068147,51.555549],[-0.06837,51.55674],[-0.06865,51.557284],[-0.07301,51.557203],[-0.074351,51.557234],[-0.074506,51.557317],[-0.074541,51.557516],[-0.074388,51.558394],[-0.073707,51.56189],[-0.073271,51.563331],[-0.073053,51.563372],[-0.071689,51.562864],[-0.067513,51.562328],[-0.06685,51.562317],[-0.065994,51.56242],[-0.065214,51.562785],[-0.064615,51.562964],[-0.063367,51.56279],[-0.061968,51.562794],[-0.061027,51.562509],[-0.060322,51.56247],[-0.059493,51.562627],[-0.058178,51.56301],[-0.057531,51.562262],[-0.056461,51.559628],[-0.055733,51.558761],[-0.055394,51.558603],[-0.054687,51.5586],[-0.053142,51.558979],[-0.045605,51.562246],[-0.034174,51.567053],[-0.030171,51.568553],[-0.027455,51.569476],[-0.025281,51.570357],[-0.025562,51.570541],[-0.026306,51.571345],[-0.027533,51.572337],[-0.029701,51.575269],[-0.029831,51.575604],[-0.029989,51.577279],[-0.030623,51.579313],[-0.031009,51.580066],[-0.030376,51.580361],[-0.028959,51.58076],[-0.028454,51.581066],[-0.028119,51.581492],[-0.028223,51.582087],[-0.029542,51.581948],[-0.031685,51.581462],[-0.031908,51.581637],[-0.032738,51.581471],[-0.032518,51.581233],[-0.03027,51.581816],[-0.028237,51.582097],[-0.027973,51.5822],[-0.024827,51.582507],[-0.018904,51.583288],[-0.019541,51.5849],[-0.015522,51.585704],[-0.012797,51.585955],[-0.011586,51.586582],[-0.010627,51.587393],[-0.010025,51.587625],[-0.008711,51.587963],[-0.008394,51.587948],[-0.008304,51.587362],[-0.007945,51.586655],[-0.00814,51.585822],[-0.004573,51.586202],[-0.003163,51.586412],[-0.002883,51.586551],[-0.003308,51.586843],[-0.003535,51.587146],[-0.0042,51.588444],[-0.00433,51.589759],[-0.005111,51.592371],[-0.005259,51.59418],[-0.00652,51.596127],[-0.007458,51.600193],[-0.007188,51.600329],[-0.005236,51.600394],[-0.005015,51.600481],[-0.004923,51.600875],[-0.003812,51.600928],[-0.002438,51.6046],[-0.001662,51.606152],[-0.001281,51.607269],[-0.001189,51.607367],[-0.001231,51.607421],[-0.000709,51.607736],[-0.001299,51.608502],[-0.001951,51.609772],[-0.002092,51.609837],[-0.002404,51.610292],[-0.002576,51.610664],[-0.002585,51.611104],[-0.002959,51.612118],[-0.002877,51.61235],[-0.002572,51.612723],[-0.000276,51.614015],[0.000164,51.614502],[0.000179,51.614843],[-0.000248,51.615984],[-0.000255,51.616478],[-0.000147,51.616953],[0.00054,51.617814],[0.000581,51.618083],[0.000273,51.618618],[-0.000091,51.618876],[-0.000293,51.618889],[-0.000404,51.61899],[-0.000399,51.619116],[-0.000098,51.61938],[-0.000315,51.620373],[-0.000158,51.620649],[0.000887,51.621746],[0.001271,51.622576],[0.001634,51.623946],[0.002044,51.624415],[0.003945,51.628196],[0.002571,51.628822],[0.000951,51.630432],[0.001779,51.630849],[0.002718,51.631184],[0.004146,51.631457],[0.007082,51.632486],[0.010119,51.633709]]}},{"type":"Feature","properties":{"routeId":"UL69","direction":"2","sourceDate":"20260905"},"geometry":{"type":"LineString","coordinates":[[0.008597,51.633088],[0.004146,51.631457],[0.002835,51.631218],[0.001276,51.630597],[0.001131,51.63024],[0.002418,51.62895],[0.002866,51.628646],[0.003945,51.628196],[0.002044,51.624415],[0.001634,51.623946],[0.001271,51.622576],[0.000887,51.621746],[-0.000158,51.620649],[-0.000315,51.620373],[-0.000098,51.61938],[0.000163,51.619079],[0.000099,51.618954],[0.000581,51.618083],[0.00054,51.617814],[-0.000147,51.616953],[-0.000255,51.616478],[-0.000248,51.615984],[0.000179,51.614843],[0.000164,51.614502],[-0.000276,51.614015],[-0.002572,51.612723],[-0.002877,51.61235],[-0.002959,51.612118],[-0.002585,51.611104],[-0.001299,51.608502],[-0.000709,51.607736],[-0.001281,51.607269],[-0.001742,51.605964],[-0.002438,51.6046],[-0.003812,51.600928],[-0.004825,51.600873],[-0.004881,51.600758],[-0.004944,51.600776],[-0.004942,51.600524],[-0.005236,51.600394],[-0.007188,51.600329],[-0.007441,51.600162],[-0.00652,51.596127],[-0.005259,51.59418],[-0.005111,51.592371],[-0.00433,51.589759],[-0.0042,51.588444],[-0.003535,51.587146],[-0.003345,51.586873],[-0.002883,51.586551],[-0.003367,51.58637],[-0.004573,51.586202],[-0.00814,51.585822],[-0.007945,51.586655],[-0.008304,51.587362],[-0.008394,51.587948],[-0.008711,51.587963],[-0.010025,51.587625],[-0.010627,51.587393],[-0.011586,51.586582],[-0.012797,51.585955],[-0.015522,51.585704],[-0.019541,51.5849],[-0.019071,51.583759],[-0.018657,51.583329],[-0.024827,51.582507],[-0.027973,51.5822],[-0.028237,51.582097],[-0.03027,51.581816],[-0.031685,51.581462],[-0.031908,51.581637],[-0.032738,51.581471],[-0.032518,51.581233],[-0.03027,51.581816],[-0.028223,51.582087],[-0.028119,51.581492],[-0.028365,51.581136],[-0.028959,51.58076],[-0.030699,51.580231],[-0.030879,51.580082],[-0.030903,51.579857],[-0.030623,51.579313],[-0.029989,51.577279],[-0.029831,51.575604],[-0.029701,51.575269],[-0.027533,51.572337],[-0.026306,51.571345],[-0.025562,51.570541],[-0.025281,51.570357],[-0.027455,51.569476],[-0.034174,51.567053],[-0.053142,51.558979],[-0.054804,51.558566],[-0.055748,51.558087],[-0.056049,51.558128],[-0.056401,51.558323],[-0.056423,51.558485],[-0.05611,51.558731],[-0.056132,51.559192],[-0.056541,51.559791],[-0.057545,51.562298],[-0.058178,51.56301],[-0.059493,51.562627],[-0.060322,51.56247],[-0.061027,51.562509],[-0.061968,51.562794],[-0.063367,51.56279],[-0.064615,51.562964],[-0.065214,51.562785],[-0.065994,51.56242],[-0.06685,51.562317],[-0.067801,51.562342],[-0.069161,51.561923],[-0.069989,51.561424],[-0.070508,51.560759],[-0.07039,51.560294],[-0.069835,51.55894],[-0.069172,51.557913],[-0.068731,51.557429],[-0.06837,51.55674],[-0.068147,51.555549],[-0.068359,51.554617],[-0.065801,51.551679],[-0.065021,51.551028],[-0.064388,51.55064],[-0.063142,51.550089],[-0.061139,51.54964]]}}]}