{"type":"FeatureCollection","metadata":{"routeId":"UL7","sourceDate":"20260905","source":"https://bus.data.tfl.gov.uk/bus-geometry/"},"features":[{"type":"Feature","properties":{"routeId":"UL7","direction":"1","sourceDate":"20260905"},"geometry":{"type":"LineString","coordinates":[[-0.018361,51.582973],[-0.018319,51.582784],[-0.018563,51.582168],[-0.0184,51.581589],[-0.018419,51.580834],[-0.018292,51.579762],[-0.017738,51.578898],[-0.016578,51.577692],[-0.015703,51.57658],[-0.014388,51.575946],[-0.013191,51.575593],[-0.012578,51.575106],[-0.009152,51.573582],[-0.008816,51.573352],[-0.008475,51.572878],[-0.008393,51.572445],[-0.008434,51.571502],[-0.008269,51.569673],[-0.00866,51.567998],[-0.008908,51.567607],[-0.009532,51.567186],[-0.010223,51.566559],[-0.010595,51.565639],[-0.011013,51.565008],[-0.011148,51.56456],[-0.010661,51.562484],[-0.009634,51.56033],[-0.009352,51.560088],[-0.007773,51.559234],[-0.006949,51.558474],[-0.004648,51.559432],[-0.002392,51.560554],[-0.002219,51.560528],[-0.001789,51.560139],[-0.001501,51.560134],[-0.000055,51.560874],[0.000209,51.560724],[0.002558,51.560263],[0.002719,51.560305],[0.003,51.560147],[0.004665,51.559624],[0.006295,51.558301],[0.006864,51.558121],[0.00597,51.55649],[0.005504,51.55541],[0.00525,51.554551],[0.005112,51.553656],[0.005553,51.552577],[0.00706,51.553064],[0.007664,51.553341],[0.009794,51.554869],[0.017314,51.557582],[0.018183,51.557989],[0.019686,51.55675],[0.021777,51.554771],[0.023354,51.553899],[0.024455,51.552702],[0.025271,51.552562],[0.025175,51.551186],[0.024801,51.549126],[0.024879,51.548603],[0.025609,51.546549],[0.03089,51.546916],[0.035823,51.547568],[0.039196,51.548166],[0.042665,51.548969],[0.045738,51.549949],[0.047561,51.550718],[0.048358,51.548564],[0.048965,51.546017],[0.049432,51.545182],[0.04972,51.544197],[0.04993,51.543096],[0.05053,51.541683],[0.050651,51.540529],[0.051067,51.539524],[0.051523,51.537798],[0.051799,51.5372],[0.051751,51.537093],[0.051063,51.536862],[0.050751,51.53667],[0.051427,51.535336],[0.05137,51.534384],[0.052101,51.532689],[0.052903,51.532863],[0.05892,51.533631],[0.06115,51.533844],[0.062706,51.533798],[0.063948,51.533903],[0.064452,51.534017],[0.067103,51.535376],[0.067719,51.53594],[0.068253,51.536296],[0.068403,51.536465],[0.068435,51.536733],[0.068895,51.537061],[0.069313,51.537045],[0.069681,51.536895],[0.070114,51.536905],[0.071252,51.537209],[0.071903,51.537575],[0.072132,51.53785],[0.071904,51.538852],[0.071915,51.539103],[0.072194,51.539521],[0.072845,51.539896],[0.074553,51.540352],[0.078337,51.541112],[0.080329,51.541149],[0.082102,51.540821],[0.082436,51.540858],[0.08288,51.54113],[0.083267,51.541072],[0.083355,51.540906],[0.083302,51.540826],[0.082987,51.540651],[0.081295,51.539275]]}},{"type":"Feature","properties":{"routeId":"UL7","direction":"2","sourceDate":"20260905"},"geometry":{"type":"LineString","coordinates":[[0.081314,51.53929],[0.082614,51.540335],[0.082635,51.540496],[0.082469,51.540706],[0.081089,51.541054],[0.080056,51.541163],[0.07867,51.541142],[0.077015,51.540893],[0.075029,51.540343],[0.073255,51.540024],[0.072492,51.539741],[0.072072,51.539388],[0.071915,51.539103],[0.071904,51.538852],[0.072079,51.538264],[0.072547,51.537779],[0.072472,51.537631],[0.070459,51.536899],[0.069816,51.536769],[0.069211,51.536408],[0.068053,51.536145],[0.067719,51.53594],[0.067103,51.535376],[0.064501,51.53394],[0.062387,51.533777],[0.06115,51.533844],[0.05892,51.533631],[0.054367,51.533063],[0.052101,51.532689],[0.05137,51.534384],[0.051427,51.535336],[0.050751,51.53667],[0.051063,51.536862],[0.051751,51.537093],[0.051799,51.5372],[0.051523,51.537798],[0.051067,51.539524],[0.050651,51.540529],[0.05053,51.541683],[0.04993,51.543096],[0.04972,51.544197],[0.049432,51.545182],[0.048965,51.546017],[0.048358,51.548564],[0.047561,51.550718],[0.045738,51.549949],[0.042665,51.548969],[0.039327,51.548191],[0.033689,51.547263],[0.03089,51.546916],[0.025635,51.546476],[0.025511,51.546604],[0.024879,51.548603],[0.024801,51.549126],[0.025198,51.551334],[0.025271,51.552562],[0.024455,51.552702],[0.023354,51.553899],[0.021777,51.554771],[0.019686,51.55675],[0.018183,51.557989],[0.017314,51.557582],[0.009794,51.554869],[0.007664,51.553341],[0.00706,51.553064],[0.005553,51.552577],[0.005112,51.553656],[0.00525,51.554551],[0.005504,51.55541],[0.00597,51.55649],[0.006864,51.558121],[0.006295,51.558301],[0.004524,51.559699],[0.003,51.560147],[0.002598,51.56019],[0.002558,51.560263],[-0.000092,51.560739],[-0.000981,51.560432],[-0.002623,51.55956],[-0.006592,51.557925],[-0.006949,51.558474],[-0.007773,51.559234],[-0.009352,51.560088],[-0.009634,51.56033],[-0.010661,51.562484],[-0.012552,51.564117],[-0.011976,51.564431],[-0.011126,51.564731],[-0.010595,51.565639],[-0.010223,51.566559],[-0.009532,51.567186],[-0.008908,51.567607],[-0.00874,51.56782],[-0.008551,51.568341],[-0.008269,51.569673],[-0.008434,51.571502],[-0.008393,51.572445],[-0.008475,51.572878],[-0.008816,51.573352],[-0.009152,51.573582],[-0.012578,51.575106],[-0.013191,51.575593],[-0.014388,51.575946],[-0.015703,51.57658],[-0.016578,51.577692],[-0.017738,51.578898],[-0.018292,51.579762],[-0.018419,51.580834],[-0.0184,51.581589],[-0.018627,51.582348],[-0.018319,51.582784],[-0.018411,51.583096]]}}]}