{"type":"FeatureCollection","metadata":{"routeId":"UL70","sourceDate":"20260926","source":"https://bus.data.tfl.gov.uk/bus-geometry/"},"features":[{"type":"Feature","properties":{"routeId":"UL70","direction":"1","sourceDate":"20260926"},"geometry":{"type":"MultiLineString","coordinates":[[[-0.00393,51.543326],[-0.003888,51.545499],[-0.010461,51.545574],[-0.011064,51.545315],[-0.011298,51.543907],[-0.011732,51.543878],[-0.012703,51.544111],[-0.014384,51.544238],[-0.018046,51.544191],[-0.018025,51.542771],[-0.018168,51.542476],[-0.018085,51.541414],[-0.020251,51.541089],[-0.020725,51.542025],[-0.020819,51.542863],[-0.024852,51.54237],[-0.025156,51.542679],[-0.025477,51.543193],[-0.025632,51.543277],[-0.025101,51.544212],[-0.026296,51.545932],[-0.0273,51.546066],[-0.029172,51.547122],[-0.028609,51.547463],[-0.027295,51.547846],[-0.031061,51.551138],[-0.033278,51.550258],[-0.039715,51.548876],[-0.041913,51.548684],[-0.045388,51.548032],[-0.047609,51.548042],[-0.047753,51.546785],[-0.04997,51.547128],[-0.050662,51.547131],[-0.053913,51.546286],[-0.054726,51.545858],[-0.055271,51.545891],[-0.055138,51.546674],[-0.059719,51.546471],[-0.063699,51.5458],[-0.067208,51.546038],[-0.069518,51.546336],[-0.070044,51.546165],[-0.071165,51.546256],[-0.074625,51.546248],[-0.077013,51.546091],[-0.083929,51.546608],[-0.085893,51.546542],[-0.09299,51.547215],[-0.096708,51.547284],[-0.100557,51.546294],[-0.102108,51.546104],[-0.102255,51.546034],[-0.102228,51.545656],[-0.102406,51.545515],[-0.103081,51.545598],[-0.103193,51.545672],[-0.103165,51.546004],[-0.103301,51.546195],[-0.104593,51.546914],[-0.106887,51.548402],[-0.109343,51.550402],[-0.112743,51.552922],[-0.113648,51.553736],[-0.117113,51.556111],[-0.117388,51.556089],[-0.124194,51.55301],[-0.129125,51.548831],[-0.137491,51.542813],[-0.135781,51.541949],[-0.13542,51.541611],[-0.137569,51.54089],[-0.139818,51.543389],[-0.140805,51.544295],[-0.14116,51.544786],[-0.141624,51.545064],[-0.141599,51.545342],[-0.141821,51.546304],[-0.141973,51.546449],[-0.142226,51.546547],[-0.143652,51.546642],[-0.145855,51.546516],[-0.148321,51.546024],[-0.150748,51.545936],[-0.153353,51.549628],[-0.153767,51.550075],[-0.154258,51.550425],[-0.154856,51.55064],[-0.156704,51.550913],[-0.157022,51.551259],[-0.158128,51.553156],[-0.159567,51.5529],[-0.161676,51.553527],[-0.164359,51.553901],[-0.165026,51.554182],[-0.167554,51.553718],[-0.169185,51.55321],[-0.167663,51.552433],[-0.164409,51.550134],[-0.162333,51.549041],[-0.159972,51.547502],[-0.162838,51.545461],[-0.162581,51.543604],[-0.170119,51.542643],[-0.171671,51.542047],[-0.174974,51.541693],[-0.175184,51.541832],[-0.175082,51.542936],[-0.1752,51.543594],[-0.175482,51.544129],[-0.175912,51.544559],[-0.176559,51.544955],[-0.178207,51.545574],[-0.179006,51.546162],[-0.179738,51.545895],[-0.180768,51.546459],[-0.184091,51.544515],[-0.185869,51.544039],[-0.192669,51.544224],[-0.192484,51.544527],[-0.191759,51.544984],[-0.191322,51.545855],[-0.19117,51.546378],[-0.191051,51.547923],[-0.192851,51.547995],[-0.194156,51.547826],[-0.196842,51.547086],[-0.198711,51.54679],[-0.201143,51.546198],[-0.202472,51.545769],[-0.200483,51.543922],[-0.196794,51.540907],[-0.192152,51.536879],[-0.193814,51.534593],[-0.1923,51.533149],[-0.192336,51.53297],[-0.192902,51.532142],[-0.201767,51.532566],[-0.202651,51.532814],[-0.205744,51.532934],[-0.208002,51.532769],[-0.211076,51.531944],[-0.213174,51.531769],[-0.214741,51.531505],[-0.21678,51.530997],[-0.218599,51.533516],[-0.218846,51.533474],[-0.219104,51.533721],[-0.218874,51.533861],[-0.215877,51.529742],[-0.216095,51.528972],[-0.216049,51.527928],[-0.21821,51.528699],[-0.221661,51.529309],[-0.223827,51.529962],[-0.225492,51.530158],[-0.228199,51.530235],[-0.229233,51.530709],[-0.231428,51.531363],[-0.234333,51.532665],[-0.23735,51.532207],[-0.239085,51.532458],[-0.240457,51.533144],[-0.244534,51.535858],[-0.245259,51.536111],[-0.245911,51.53604],[-0.248138,51.535489],[-0.24845,51.535251],[-0.248389,51.534962],[-0.247553,51.533835],[-0.2467,51.533139],[-0.246527,51.532767],[-0.24661,51.53249],[-0.24431,51.531934],[-0.244199,51.531806],[-0.244025,51.531831],[-0.244005,51.531974],[-0.24431,51.531934],[-0.24661,51.53249],[-0.247171,51.53177],[-0.248009,51.530964],[-0.248786,51.529888],[-0.250529,51.528403],[-0.250929,51.528139],[-0.252213,51.527735],[-0.256249,51.525116],[-0.257267,51.524124],[-0.258593,51.522228],[-0.25985,51.521401],[-0.261225,51.520882],[-0.261691,51.520377],[-0.262212,51.519188],[-0.261635,51.518065],[-0.261055,51.517391],[-0.260159,51.516694],[-0.258774,51.51599],[-0.256389,51.51501],[-0.254708,51.5145],[-0.251844,51.514016],[-0.249026,51.513968],[-0.248181,51.512964],[-0.249009,51.512796],[-0.249741,51.51287],[-0.251593,51.512682],[-0.252204,51.51252],[-0.252332,51.512585],[-0.254598,51.512106],[-0.256139,51.511961],[-0.256485,51.511766],[-0.256749,51.511266],[-0.257672,51.510479],[-0.25784,51.509861],[-0.25755,51.509156],[-0.256856,51.506556],[-0.260176,51.506416],[-0.266536,51.506654],[-0.266369,51.506121],[-0.267891,51.505865],[-0.267572,51.505168],[-0.266591,51.503687],[-0.26583,51.503244],[-0.265657,51.502864],[-0.265686,51.502478],[-0.258432,51.50264],[-0.257879,51.502425],[-0.257174,51.501246],[-0.256831,51.501169],[-0.255941,51.496938],[-0.255298,51.495679],[-0.255353,51.492712],[-0.26248,51.49244],[-0.270441,51.492944],[-0.274971,51.492393],[-0.280577,51.491951],[-0.280872,51.491758],[-0.281034,51.491284],[-0.281213,51.491133],[-0.282068,51.491002],[-0.282868,51.491158],[-0.283245,51.491091],[-0.284532,51.490579],[-0.287159,51.489296],[-0.287502,51.4886],[-0.287368,51.484488],[-0.286767,51.48285],[-0.289778,51.479362],[-0.290268,51.478559],[-0.291423,51.475798],[-0.292242,51.47429],[-0.293313,51.471455],[-0.293788,51.469519],[-0.294033,51.469136],[-0.297041,51.466851],[-0.299181,51.465425],[-0.299237,51.465084],[-0.299111,51.464984],[-0.299187,51.464877],[-0.300759,51.464423],[-0.301748,51.463738]],[[-0.00393,51.543326],[-0.003888,51.545499],[-0.010461,51.545574],[-0.011064,51.545315],[-0.011298,51.543907],[-0.011732,51.543878],[-0.012703,51.544111],[-0.014384,51.544238],[-0.018046,51.544191],[-0.018025,51.542771],[-0.018168,51.542476],[-0.018085,51.541414],[-0.020251,51.541089],[-0.020725,51.542025],[-0.020819,51.542863],[-0.024852,51.54237],[-0.025156,51.542679],[-0.025477,51.543193],[-0.025632,51.543277],[-0.025101,51.544212],[-0.026296,51.545932],[-0.0273,51.546066],[-0.029172,51.547122],[-0.028609,51.547463],[-0.027295,51.547846],[-0.031061,51.551138],[-0.033278,51.550258],[-0.039715,51.548876],[-0.041913,51.548684],[-0.045388,51.548032],[-0.047609,51.548042],[-0.047753,51.546785],[-0.04997,51.547128],[-0.050662,51.547131],[-0.053913,51.546286],[-0.054726,51.545858],[-0.055271,51.545891],[-0.055138,51.546674],[-0.059719,51.546471],[-0.063699,51.5458],[-0.067208,51.546038],[-0.069518,51.546336],[-0.070044,51.546165],[-0.071165,51.546256],[-0.074625,51.546248],[-0.077013,51.546091],[-0.083929,51.546608],[-0.085893,51.546542],[-0.09299,51.547215],[-0.096708,51.547284],[-0.100557,51.546294],[-0.102108,51.546104],[-0.102255,51.546034],[-0.102228,51.545656],[-0.102406,51.545515],[-0.103081,51.545598],[-0.103193,51.545672],[-0.103165,51.546004],[-0.103301,51.546195],[-0.104593,51.546914],[-0.106887,51.548402],[-0.109343,51.550402],[-0.112743,51.552922],[-0.113648,51.553736],[-0.117113,51.556111],[-0.117388,51.556089],[-0.124194,51.55301],[-0.129125,51.548831],[-0.136879,51.543316],[-0.137911,51.542359]]]}},{"type":"Feature","properties":{"routeId":"UL70","direction":"2","sourceDate":"20260926"},"geometry":{"type":"LineString","coordinates":[[-0.138854,51.541328],[-0.137491,51.542813],[-0.136983,51.543236],[-0.129229,51.548751],[-0.12516,51.552169],[-0.123758,51.55343],[-0.121073,51.556615],[-0.119406,51.557857],[-0.116544,51.555895],[-0.115382,51.555049],[-0.115343,51.55495],[-0.113086,51.553376],[-0.112239,51.552571],[-0.109343,51.550402],[-0.106887,51.548402],[-0.104951,51.547094],[-0.103538,51.546388],[-0.102812,51.54616],[-0.102353,51.546108],[-0.100557,51.546294],[-0.096534,51.547299],[-0.094995,51.547211],[-0.09299,51.547215],[-0.088032,51.546792],[-0.087087,51.546624],[-0.085893,51.546542],[-0.083929,51.546608],[-0.076711,51.546077],[-0.075858,51.546126],[-0.07552,51.546242],[-0.070446,51.546226],[-0.069518,51.546336],[-0.067208,51.546038],[-0.063699,51.5458],[-0.059719,51.546471],[-0.055138,51.546674],[-0.055164,51.545911],[-0.054879,51.545917],[-0.054135,51.546181],[-0.054001,51.546293],[-0.050662,51.547131],[-0.04997,51.547128],[-0.04785,51.546787],[-0.04786,51.547219],[-0.047724,51.548053],[-0.045388,51.548032],[-0.041913,51.548684],[-0.039988,51.548821],[-0.038273,51.549127],[-0.032942,51.550351],[-0.031061,51.551138],[-0.027295,51.547846],[-0.028609,51.547463],[-0.029172,51.547122],[-0.0273,51.546066],[-0.026296,51.545932],[-0.025101,51.544212],[-0.025632,51.543277],[-0.025477,51.543193],[-0.0254,51.542976],[-0.024852,51.54237],[-0.023919,51.542546],[-0.023416,51.542511],[-0.021483,51.542847],[-0.020819,51.542863],[-0.020751,51.542106],[-0.020251,51.541089],[-0.018085,51.541414],[-0.018168,51.542476],[-0.018025,51.542771],[-0.018046,51.544191],[-0.015393,51.544255],[-0.01355,51.544188],[-0.012202,51.544012],[-0.011348,51.543764],[-0.010613,51.543419],[-0.006673,51.540834],[-0.005407,51.541442],[-0.00454,51.542129],[-0.004131,51.54258],[-0.003922,51.543399]]}}]}