{"type":"FeatureCollection","metadata":{"routeId":"UL71","sourceDate":"20261009","source":"https://bus.data.tfl.gov.uk/bus-geometry/"},"features":[{"type":"Feature","properties":{"routeId":"UL71","direction":"1","sourceDate":"20261009"},"geometry":{"type":"MultiLineString","coordinates":[[[-0.222994,51.49278],[-0.222608,51.4924],[-0.222402,51.492388],[-0.222123,51.491538],[-0.222418,51.491345],[-0.22386,51.491322],[-0.22442,51.491357],[-0.224761,51.491488],[-0.224829,51.491588],[-0.224826,51.492784],[-0.225107,51.49295],[-0.228739,51.492529],[-0.23123,51.492557],[-0.234918,51.492843],[-0.238242,51.493409],[-0.242011,51.493547],[-0.247725,51.493291],[-0.251257,51.492858],[-0.261443,51.492434],[-0.26248,51.49244],[-0.266211,51.492655],[-0.269103,51.492916],[-0.270441,51.492944],[-0.271598,51.492844],[-0.273525,51.492531],[-0.280577,51.491951],[-0.280872,51.491758],[-0.281065,51.491239],[-0.281213,51.491133],[-0.282312,51.491015],[-0.282552,51.491102],[-0.282683,51.491307],[-0.282722,51.491614],[-0.282527,51.4918],[-0.282294,51.491869],[-0.282173,51.492038],[-0.282323,51.492633],[-0.282257,51.492857],[-0.282404,51.494685],[-0.282319,51.495421],[-0.282026,51.496712],[-0.28204,51.497098],[-0.283014,51.498767],[-0.283508,51.499449],[-0.284353,51.500352],[-0.285264,51.501003],[-0.283176,51.501764],[-0.280636,51.503004],[-0.280266,51.503277],[-0.278961,51.505408],[-0.278135,51.506285],[-0.277272,51.507019],[-0.276616,51.507981],[-0.276171,51.508316],[-0.274887,51.508351],[-0.274272,51.508621],[-0.274266,51.508387],[-0.274171,51.508223],[-0.274887,51.508351],[-0.276186,51.508316],[-0.283116,51.508714],[-0.287389,51.510158],[-0.29139,51.511257],[-0.291515,51.511359],[-0.292376,51.511608],[-0.292571,51.511599],[-0.297698,51.513396],[-0.299711,51.514027],[-0.300137,51.514079],[-0.301984,51.514007],[-0.303645,51.513527],[-0.304116,51.513273],[-0.304473,51.512964],[-0.304996,51.511694],[-0.305441,51.510995],[-0.305587,51.510525],[-0.305465,51.509543],[-0.305234,51.508757],[-0.305093,51.507532],[-0.305141,51.505465],[-0.305432,51.504992],[-0.306304,51.504393],[-0.306799,51.504257],[-0.306904,51.50415],[-0.306904,51.503377],[-0.307034,51.50221],[-0.305823,51.498335],[-0.306943,51.498054],[-0.309576,51.497732],[-0.311842,51.496857],[-0.312403,51.496883],[-0.312812,51.497123],[-0.313334,51.497804],[-0.314873,51.499427],[-0.315285,51.500386],[-0.315293,51.500944],[-0.315417,51.501476],[-0.315989,51.501988],[-0.316719,51.502889],[-0.319183,51.504858],[-0.31965,51.505862],[-0.319094,51.510018],[-0.319414,51.510724],[-0.319901,51.510794],[-0.321538,51.510583],[-0.327973,51.509569],[-0.329558,51.509592],[-0.330468,51.509506],[-0.334501,51.508781],[-0.338031,51.508795],[-0.33723,51.506257],[-0.336957,51.505839],[-0.333463,51.504063],[-0.330303,51.501815],[-0.329577,51.501166],[-0.328704,51.500228],[-0.326812,51.497998],[-0.326045,51.496908],[-0.325124,51.496094],[-0.321643,51.494785],[-0.319645,51.493858],[-0.319166,51.493563],[-0.317839,51.492438],[-0.317291,51.491674],[-0.316719,51.491181],[-0.314345,51.488746],[-0.313382,51.4883],[-0.313002,51.488457],[-0.312968,51.4886],[-0.31226,51.489048],[-0.311987,51.489026],[-0.311861,51.488935],[-0.311859,51.488814],[-0.323416,51.484137],[-0.326745,51.483285],[-0.329811,51.482942],[-0.344313,51.482168],[-0.347065,51.481748],[-0.351658,51.48073]],[[-0.279816,51.504006],[-0.278961,51.505408],[-0.278135,51.506285],[-0.277272,51.507019],[-0.276616,51.507981],[-0.276186,51.508316],[-0.274887,51.508351],[-0.274274,51.508573],[-0.274171,51.508223],[-0.274887,51.508351],[-0.276186,51.508316],[-0.283188,51.508724],[-0.28663,51.509926],[-0.29139,51.511257],[-0.291515,51.511359],[-0.292376,51.511608],[-0.292571,51.511599],[-0.299635,51.514009],[-0.300137,51.514079],[-0.301781,51.51404],[-0.303821,51.513449],[-0.304473,51.512964],[-0.304996,51.511694],[-0.305441,51.510995],[-0.305589,51.51048],[-0.305465,51.509543],[-0.305234,51.508757],[-0.305093,51.507532],[-0.305154,51.506274],[-0.305106,51.505608],[-0.305188,51.505339],[-0.305432,51.504992],[-0.306304,51.504393],[-0.306799,51.504257],[-0.306904,51.50415],[-0.306904,51.503377],[-0.307034,51.50221],[-0.305823,51.498335],[-0.306943,51.498054],[-0.309576,51.497732],[-0.311842,51.496857],[-0.31216,51.496834],[-0.312403,51.496883],[-0.312812,51.497123],[-0.313334,51.497804],[-0.314873,51.499427],[-0.315285,51.500386],[-0.315293,51.500944],[-0.315417,51.501476],[-0.315989,51.501988],[-0.316719,51.502889],[-0.319183,51.504858],[-0.31965,51.505862],[-0.319094,51.510018],[-0.319414,51.510724],[-0.319901,51.510794],[-0.321538,51.510583],[-0.327973,51.509569],[-0.329558,51.509592],[-0.330468,51.509506],[-0.334501,51.508781],[-0.338031,51.508795],[-0.33723,51.506257],[-0.336957,51.505839],[-0.333463,51.504063],[-0.330303,51.501815],[-0.329577,51.501166],[-0.328704,51.500228],[-0.326812,51.497998],[-0.326045,51.496908],[-0.325124,51.496094],[-0.321643,51.494785],[-0.319645,51.493858],[-0.319166,51.493563],[-0.317839,51.492438],[-0.317291,51.491674],[-0.316719,51.491181],[-0.314345,51.488746],[-0.313382,51.4883],[-0.313002,51.488457],[-0.312968,51.4886],[-0.31226,51.489048],[-0.311987,51.489026],[-0.311861,51.488935],[-0.311859,51.488814],[-0.323416,51.484137],[-0.326745,51.483285],[-0.329811,51.482942],[-0.344313,51.482168],[-0.347065,51.481748],[-0.351658,51.48073]],[[-0.222994,51.49278],[-0.222608,51.4924],[-0.222402,51.492388],[-0.222123,51.491538],[-0.222418,51.491345],[-0.22386,51.491322],[-0.22442,51.491357],[-0.224761,51.491488],[-0.224829,51.491588],[-0.224826,51.492784],[-0.225107,51.49295],[-0.228739,51.492529],[-0.23123,51.492557],[-0.234918,51.492843],[-0.238242,51.493409],[-0.242011,51.493547],[-0.247725,51.493291],[-0.251257,51.492858],[-0.259078,51.492515],[-0.26248,51.49244],[-0.266606,51.492672],[-0.269103,51.492916],[-0.270903,51.492924],[-0.273032,51.492623],[-0.280577,51.491951],[-0.280872,51.491758],[-0.281034,51.491284],[-0.281213,51.491133],[-0.282068,51.491002],[-0.282497,51.491071],[-0.282683,51.491307],[-0.282722,51.491614],[-0.282527,51.4918],[-0.282294,51.491869],[-0.282173,51.492038],[-0.282323,51.492633],[-0.282257,51.492857],[-0.282404,51.494685],[-0.282319,51.495421],[-0.282026,51.496712],[-0.28204,51.497098],[-0.283014,51.498767],[-0.283508,51.499449],[-0.284353,51.500352],[-0.285264,51.501003],[-0.283176,51.501764],[-0.280636,51.503004],[-0.280266,51.503277],[-0.278961,51.505408],[-0.278135,51.506285],[-0.277272,51.507019],[-0.276616,51.507981],[-0.276186,51.508316],[-0.274887,51.508351],[-0.274274,51.508573],[-0.274171,51.508223],[-0.274887,51.508351],[-0.276186,51.508316],[-0.283188,51.508724],[-0.28663,51.509926],[-0.29139,51.511257],[-0.291515,51.511359],[-0.292376,51.511608],[-0.292571,51.511599],[-0.299635,51.514009],[-0.300137,51.514079],[-0.301781,51.51404],[-0.303821,51.513449],[-0.304473,51.512964],[-0.304996,51.511694],[-0.305441,51.510995],[-0.305589,51.51048],[-0.305465,51.509543],[-0.305234,51.508757],[-0.305093,51.507532],[-0.305154,51.506274],[-0.305106,51.505608],[-0.305188,51.505339],[-0.305432,51.504992],[-0.306304,51.504393],[-0.306799,51.504257],[-0.306904,51.50415],[-0.306904,51.503377],[-0.307034,51.50221],[-0.305823,51.498335],[-0.306943,51.498054],[-0.309576,51.497732],[-0.311842,51.496857],[-0.312403,51.496883],[-0.312812,51.497123],[-0.313334,51.497804],[-0.314873,51.499427],[-0.315285,51.500386],[-0.315293,51.500944],[-0.315417,51.501476],[-0.315989,51.501988],[-0.316719,51.502889],[-0.319183,51.504858],[-0.31965,51.505862],[-0.319094,51.510018],[-0.319414,51.510724],[-0.319901,51.510794],[-0.321538,51.510583],[-0.327973,51.509569],[-0.329558,51.509592],[-0.330468,51.509506],[-0.334501,51.508781],[-0.338031,51.508795],[-0.33723,51.506257],[-0.336957,51.505839],[-0.333463,51.504063],[-0.330303,51.501815],[-0.329577,51.501166],[-0.328704,51.500228],[-0.326812,51.497998],[-0.326045,51.496908],[-0.325124,51.496094],[-0.321643,51.494785],[-0.319645,51.493858],[-0.319166,51.493563],[-0.317839,51.492438],[-0.317291,51.491674],[-0.316719,51.491181],[-0.314345,51.488746],[-0.313382,51.4883],[-0.313002,51.488457],[-0.312968,51.4886],[-0.31226,51.489048],[-0.311987,51.489026],[-0.311861,51.488935],[-0.311859,51.488814],[-0.323416,51.484137],[-0.326745,51.483285],[-0.329811,51.482942],[-0.344313,51.482168],[-0.347065,51.481748],[-0.351658,51.48073]]]}},{"type":"Feature","properties":{"routeId":"UL71","direction":"2","sourceDate":"20261009"},"geometry":{"type":"MultiLineString","coordinates":[[[-0.351831,51.480791],[-0.347134,51.481839],[-0.344498,51.482242],[-0.329375,51.483062],[-0.325885,51.483588],[-0.322944,51.484454],[-0.313748,51.488162],[-0.313708,51.48844],[-0.314458,51.488828],[-0.317291,51.491674],[-0.317839,51.492438],[-0.319166,51.493563],[-0.321643,51.494785],[-0.324893,51.495982],[-0.326045,51.496908],[-0.328981,51.500537],[-0.330933,51.50231],[-0.333463,51.504063],[-0.337636,51.506191],[-0.339067,51.506849],[-0.341169,51.507293],[-0.341722,51.507756],[-0.341927,51.508266],[-0.338637,51.508768],[-0.334081,51.508829],[-0.330468,51.509506],[-0.327973,51.509569],[-0.31948,51.510896],[-0.319094,51.510018],[-0.319651,51.505862],[-0.319558,51.505627],[-0.319044,51.504712],[-0.31672,51.502889],[-0.315417,51.501476],[-0.315233,51.500233],[-0.314873,51.499427],[-0.312714,51.49704],[-0.311842,51.496857],[-0.309576,51.497733],[-0.305823,51.498335],[-0.307034,51.50221],[-0.306904,51.50415],[-0.305565,51.504895],[-0.305312,51.505494],[-0.305101,51.506912],[-0.305234,51.508757],[-0.305589,51.51048],[-0.305441,51.510995],[-0.306194,51.5128],[-0.306115,51.512996],[-0.304361,51.513277],[-0.301781,51.51404],[-0.299635,51.514009],[-0.292571,51.511599],[-0.288988,51.510617],[-0.283116,51.508714],[-0.276186,51.508316],[-0.274887,51.508351],[-0.274298,51.508615],[-0.274171,51.508223],[-0.276186,51.508316],[-0.276616,51.507981],[-0.277272,51.507019],[-0.278961,51.505408],[-0.280266,51.503277],[-0.281063,51.502776],[-0.283176,51.501764],[-0.285104,51.501046],[-0.284191,51.50043],[-0.283319,51.499491],[-0.282769,51.498782],[-0.282068,51.497494],[-0.282026,51.496712],[-0.282319,51.495421],[-0.282404,51.494685],[-0.282275,51.492768],[-0.282158,51.492415],[-0.281847,51.491898],[-0.281331,51.491809],[-0.280779,51.491936],[-0.273032,51.492623],[-0.270441,51.492944],[-0.269103,51.492916],[-0.266606,51.492672],[-0.261443,51.492434],[-0.251257,51.492858],[-0.247725,51.493291],[-0.242011,51.493547],[-0.238242,51.493409],[-0.234794,51.492828],[-0.234354,51.492886],[-0.234312,51.492954],[-0.233954,51.494406],[-0.23179,51.494481],[-0.227428,51.494406],[-0.226461,51.493708],[-0.22524,51.493301]],[[-0.351831,51.480791],[-0.347134,51.481839],[-0.344498,51.482242],[-0.329375,51.483062],[-0.325885,51.483588],[-0.322944,51.484454],[-0.313748,51.488162],[-0.313708,51.48844],[-0.314458,51.488828],[-0.317291,51.491674],[-0.317839,51.492438],[-0.319166,51.493563],[-0.321643,51.494785],[-0.324893,51.495982],[-0.326045,51.496908],[-0.328981,51.500537],[-0.330933,51.50231],[-0.333463,51.504063],[-0.337636,51.506191],[-0.339067,51.506849],[-0.341169,51.507293],[-0.341722,51.507756],[-0.341927,51.508266],[-0.338637,51.508768],[-0.334081,51.508829],[-0.330468,51.509506],[-0.327973,51.509569],[-0.31948,51.510896],[-0.319094,51.510018],[-0.319651,51.505862],[-0.319558,51.505627],[-0.319044,51.504712],[-0.31672,51.502889],[-0.315417,51.501476],[-0.315233,51.500233],[-0.314873,51.499427],[-0.312714,51.49704],[-0.311842,51.496857],[-0.309576,51.497733],[-0.305823,51.498335],[-0.306653,51.500886],[-0.307041,51.502399],[-0.306904,51.503377],[-0.306904,51.50415],[-0.306799,51.504257],[-0.306304,51.504393],[-0.305565,51.504895],[-0.305312,51.505494],[-0.305101,51.506912],[-0.305083,51.507415],[-0.305234,51.508757],[-0.305465,51.509543],[-0.305589,51.51048],[-0.305441,51.510995],[-0.305591,51.511181],[-0.306194,51.5128],[-0.306115,51.512996],[-0.304535,51.513234],[-0.302872,51.513786],[-0.301781,51.51404],[-0.300137,51.514079],[-0.299635,51.514009],[-0.292571,51.511599],[-0.292376,51.511608],[-0.291515,51.511359],[-0.29139,51.511257],[-0.28663,51.509926],[-0.283188,51.508724],[-0.276186,51.508316],[-0.274887,51.508351],[-0.274274,51.508573],[-0.274171,51.508223],[-0.274887,51.508351],[-0.276186,51.508316],[-0.276616,51.507981],[-0.277272,51.507019],[-0.278135,51.506285],[-0.278961,51.505408],[-0.280266,51.503277],[-0.280636,51.503004],[-0.283176,51.501764],[-0.285104,51.501046],[-0.284191,51.50043],[-0.283319,51.499491],[-0.282769,51.498782],[-0.282068,51.497494],[-0.282026,51.496712],[-0.282319,51.495421],[-0.282404,51.494685],[-0.282275,51.492768],[-0.282158,51.492415],[-0.281847,51.491898],[-0.281331,51.491809],[-0.280779,51.491936],[-0.273032,51.492623],[-0.270441,51.492944],[-0.269103,51.492916],[-0.266606,51.492672],[-0.26248,51.49244],[-0.260563,51.492457],[-0.252784,51.492844],[-0.251257,51.492858],[-0.247725,51.493291],[-0.242011,51.493547],[-0.238242,51.493409],[-0.234794,51.492828],[-0.234354,51.492886],[-0.234312,51.492954],[-0.233954,51.494406],[-0.23179,51.494481],[-0.227428,51.494406],[-0.226461,51.493708],[-0.22524,51.493301]]]}}]}