{"type":"FeatureCollection","metadata":{"routeId":"UL8","sourceDate":"20260905","source":"https://bus.data.tfl.gov.uk/bus-geometry/"},"features":[{"type":"Feature","properties":{"routeId":"UL8","direction":"1","sourceDate":"20260905"},"geometry":{"type":"LineString","coordinates":[[-0.147138,51.557246],[-0.14512,51.555226],[-0.144561,51.554408],[-0.144032,51.553941],[-0.142623,51.553128],[-0.142189,51.552797],[-0.141915,51.552451],[-0.141029,51.55259],[-0.140946,51.553209],[-0.140631,51.553869],[-0.138337,51.557053],[-0.137888,51.558178],[-0.137381,51.560329],[-0.136289,51.562343],[-0.135042,51.562144],[-0.132315,51.562505],[-0.131947,51.56267],[-0.131484,51.563049],[-0.130614,51.564231],[-0.132383,51.564709],[-0.134428,51.565506],[-0.131622,51.567799],[-0.131757,51.568009],[-0.13162,51.568195],[-0.12984,51.569363],[-0.127549,51.570684],[-0.126243,51.569827],[-0.125789,51.569631],[-0.124766,51.569588],[-0.123939,51.569691],[-0.123876,51.569142],[-0.123768,51.568942],[-0.121864,51.566834],[-0.118854,51.563821],[-0.118652,51.563723],[-0.117164,51.5622],[-0.115234,51.560371],[-0.11512,51.560342],[-0.114757,51.560399],[-0.112519,51.561496],[-0.107334,51.563336],[-0.104212,51.564869],[-0.100803,51.567053],[-0.096317,51.570469],[-0.096205,51.571079],[-0.098381,51.574954],[-0.099758,51.582422],[-0.098121,51.582225],[-0.097406,51.581719],[-0.094524,51.581258],[-0.093946,51.581276],[-0.092217,51.581536],[-0.090265,51.581612],[-0.08626,51.581106],[-0.084893,51.581011],[-0.081688,51.579997],[-0.08104,51.579618],[-0.080782,51.579559],[-0.080288,51.57965],[-0.07534,51.581751]]}},{"type":"Feature","properties":{"routeId":"UL8","direction":"2","sourceDate":"20260905"},"geometry":{"type":"LineString","coordinates":[[-0.073458,51.582562],[-0.080288,51.57965],[-0.080782,51.579559],[-0.08104,51.579618],[-0.081688,51.579997],[-0.084763,51.580991],[-0.08626,51.581106],[-0.090006,51.581589],[-0.092217,51.581536],[-0.094206,51.581253],[-0.097148,51.581669],[-0.097426,51.581575],[-0.099554,51.58143],[-0.098716,51.576947],[-0.098558,51.576594],[-0.098565,51.576081],[-0.098381,51.574954],[-0.096611,51.571724],[-0.095874,51.570705],[-0.096317,51.570469],[-0.100996,51.566912],[-0.102999,51.565587],[-0.104508,51.564712],[-0.107398,51.563318],[-0.107684,51.56309],[-0.107917,51.562177],[-0.108485,51.561692],[-0.110045,51.559918],[-0.111108,51.559333],[-0.111189,51.559101],[-0.111165,51.558651],[-0.111277,51.558382],[-0.111544,51.558198],[-0.112557,51.557827],[-0.112802,51.557778],[-0.114013,51.5592],[-0.118371,51.563323],[-0.121006,51.565939],[-0.123768,51.568942],[-0.123876,51.569142],[-0.123939,51.569691],[-0.124766,51.569588],[-0.125789,51.569631],[-0.126243,51.569827],[-0.127549,51.570684],[-0.12984,51.569363],[-0.131664,51.56816],[-0.131757,51.568009],[-0.131622,51.567799],[-0.134085,51.565789],[-0.133648,51.565188],[-0.131743,51.564501],[-0.130614,51.564231],[-0.131484,51.563049],[-0.131947,51.56267],[-0.132315,51.562505],[-0.13484,51.562149],[-0.135488,51.562169],[-0.136289,51.562343],[-0.137381,51.560329],[-0.137888,51.558178],[-0.138337,51.557053],[-0.140631,51.553869],[-0.140946,51.553209],[-0.141029,51.55259],[-0.141915,51.552451],[-0.142189,51.552797],[-0.142623,51.553128],[-0.144032,51.553941],[-0.144561,51.554408],[-0.14512,51.555226],[-0.146062,51.556144]]}}]}