{"type":"FeatureCollection","metadata":{"routeId":"UL89","sourceDate":"20260926","source":"https://bus.data.tfl.gov.uk/bus-geometry/"},"features":[{"type":"Feature","properties":{"routeId":"UL89","direction":"1","sourceDate":"20260926"},"geometry":{"type":"LineString","coordinates":[[0.00922,51.569089],[0.008734,51.568475],[0.008799,51.568312],[0.009004,51.56841],[0.010903,51.56832],[0.012294,51.569349],[0.014954,51.570761],[0.01601,51.57148],[0.016035,51.571713],[0.015566,51.572531],[0.015637,51.572826],[0.015843,51.572922],[0.016418,51.572885],[0.017175,51.572044],[0.017719,51.571936],[0.018436,51.572003],[0.020075,51.572687],[0.024933,51.574501],[0.026675,51.575073],[0.027998,51.575599],[0.028768,51.576053],[0.030649,51.576479],[0.033539,51.576879],[0.034666,51.577219],[0.035393,51.577341],[0.036115,51.577356],[0.037005,51.577259],[0.038016,51.576936],[0.039318,51.576365],[0.040377,51.576176],[0.042188,51.576009],[0.042809,51.576128],[0.043388,51.576699],[0.043869,51.576789],[0.044142,51.576766],[0.04468,51.576532],[0.04508,51.576129],[0.045669,51.576056],[0.061933,51.576671],[0.065651,51.576543],[0.06584,51.576575],[0.066138,51.576786],[0.066441,51.576798],[0.066813,51.576702],[0.066895,51.57662],[0.066875,51.576485],[0.067189,51.576417],[0.083414,51.573648],[0.084703,51.573742],[0.090602,51.575125],[0.090704,51.575254],[0.090496,51.575437],[0.090508,51.575707],[0.090631,51.575875],[0.09083,51.5758],[0.090794,51.575324],[0.0909,51.575115],[0.090852,51.575017],[0.084479,51.573575],[0.083902,51.573576],[0.083804,51.573659],[0.083403,51.576858],[0.083679,51.580073],[0.084009,51.580966],[0.084199,51.58197],[0.08513,51.585596],[0.085437,51.586309],[0.085548,51.586829],[0.085443,51.587065],[0.084873,51.587543],[0.084407,51.587776],[0.083364,51.588001],[0.080949,51.588004],[0.080806,51.588041],[0.080704,51.588322],[0.081883,51.590024],[0.084689,51.59331],[0.08486,51.593568],[0.084858,51.593829],[0.085181,51.593958],[0.085303,51.594099],[0.085166,51.594264],[0.084375,51.594638],[0.084254,51.594829],[0.0848,51.59856],[0.084259,51.601879],[0.094788,51.604303]]}},{"type":"Feature","properties":{"routeId":"UL89","direction":"2","sourceDate":"20260926"},"geometry":{"type":"LineString","coordinates":[[0.090813,51.575515],[0.090794,51.575324],[0.0909,51.575115],[0.090852,51.575017],[0.085018,51.573682],[0.083755,51.573516],[0.082236,51.573685],[0.067466,51.576242],[0.066785,51.576415],[0.066159,51.5763],[0.06584,51.576575],[0.065041,51.576463],[0.062101,51.576551],[0.045653,51.575898],[0.045223,51.575768],[0.044945,51.575377],[0.044578,51.575239],[0.044304,51.575226],[0.042611,51.575777],[0.03944,51.576192],[0.037128,51.577086],[0.036297,51.577227],[0.035358,51.577216],[0.03463,51.577076],[0.032626,51.576472],[0.02966,51.575975],[0.029091,51.576002],[0.0232,51.573838],[0.023519,51.573545],[0.023597,51.573355],[0.023478,51.569743],[0.019056,51.569872],[0.018657,51.569996],[0.017232,51.570731],[0.01607,51.570876],[0.015645,51.571063],[0.013151,51.569811],[0.011928,51.570603],[0.010816,51.569869],[0.010127,51.56962],[0.009739,51.56933],[0.009345,51.569247],[0.00922,51.569089]]}}]}