{"type":"FeatureCollection","metadata":{"routeId":"UL9","sourceDate":"20261009","source":"https://bus.data.tfl.gov.uk/bus-geometry/"},"features":[{"type":"Feature","properties":{"routeId":"UL9","direction":"1","sourceDate":"20261009"},"geometry":{"type":"MultiLineString","coordinates":[[[-0.197245,51.491018],[-0.200086,51.492551],[-0.200565,51.492469],[-0.201376,51.491978],[-0.202516,51.491581],[-0.204556,51.491334],[-0.208969,51.490493],[-0.2107,51.490429],[-0.214116,51.490724],[-0.216666,51.490718],[-0.219273,51.491091],[-0.221244,51.491165],[-0.222418,51.491345],[-0.224162,51.491326],[-0.224634,51.491414],[-0.224829,51.491588],[-0.224826,51.492784],[-0.224572,51.493005],[-0.224338,51.493092],[-0.223775,51.493119],[-0.223597,51.492892],[-0.223095,51.49283],[-0.222608,51.4924],[-0.222392,51.492388],[-0.222123,51.491538],[-0.222184,51.491449],[-0.222418,51.491345],[-0.22275,51.491332],[-0.224162,51.491326],[-0.224634,51.491414],[-0.224829,51.491588],[-0.224826,51.492784],[-0.225107,51.49295],[-0.228739,51.492529],[-0.23123,51.492557],[-0.235806,51.492962],[-0.238242,51.493409],[-0.242011,51.493547],[-0.248,51.493268],[-0.251473,51.492843],[-0.252582,51.492851],[-0.261443,51.492434],[-0.266606,51.492672],[-0.269103,51.492916],[-0.270441,51.492944],[-0.271598,51.492844],[-0.273525,51.492531],[-0.280577,51.491951],[-0.280872,51.491758],[-0.281034,51.491284],[-0.281213,51.491133],[-0.282068,51.491002],[-0.282868,51.491158],[-0.283245,51.491091],[-0.284532,51.490579],[-0.287159,51.489296],[-0.287502,51.4886],[-0.287368,51.484488],[-0.286767,51.48285],[-0.289778,51.479362],[-0.290268,51.478559],[-0.291423,51.475798],[-0.292242,51.47429],[-0.293313,51.471455],[-0.293788,51.469519],[-0.294033,51.469136],[-0.297041,51.466851],[-0.299181,51.465425],[-0.299237,51.465084],[-0.299111,51.464984],[-0.299187,51.464877],[-0.300759,51.464423],[-0.301748,51.463738]],[[-0.255314,51.495174],[-0.255353,51.492712],[-0.260563,51.492457],[-0.26248,51.49244],[-0.266606,51.492672],[-0.269103,51.492916],[-0.270441,51.492944],[-0.271598,51.492844],[-0.273525,51.492531],[-0.280577,51.491951],[-0.280872,51.491758],[-0.281034,51.491284],[-0.281213,51.491133],[-0.282068,51.491002],[-0.282868,51.491158],[-0.283245,51.491091],[-0.284532,51.490579],[-0.287159,51.489296],[-0.287502,51.4886],[-0.287368,51.484488],[-0.286767,51.48285],[-0.289778,51.479362],[-0.290268,51.478559],[-0.291423,51.475798],[-0.292242,51.47429],[-0.293313,51.471455],[-0.293788,51.469519],[-0.294033,51.469136],[-0.297041,51.466851],[-0.299181,51.465425],[-0.299237,51.465084],[-0.299111,51.464984],[-0.299187,51.464877],[-0.300759,51.464423],[-0.301748,51.463738]]]}},{"type":"Feature","properties":{"routeId":"UL9","direction":"2","sourceDate":"20261009"},"geometry":{"type":"LineString","coordinates":[[-0.301748,51.463738],[-0.301989,51.463551],[-0.303359,51.461457],[-0.303293,51.461321],[-0.303021,51.461264],[-0.302957,51.461056],[-0.302079,51.460288],[-0.302099,51.460135],[-0.303112,51.459988],[-0.303884,51.459738],[-0.30497,51.459565],[-0.306379,51.459594],[-0.306345,51.459747],[-0.306181,51.459906],[-0.304117,51.460971],[-0.303359,51.461457],[-0.303043,51.461857],[-0.302744,51.462536],[-0.302133,51.463481],[-0.300685,51.464467],[-0.300627,51.46488],[-0.299684,51.465073],[-0.299463,51.465205],[-0.298604,51.465858],[-0.297041,51.466851],[-0.294033,51.469136],[-0.293788,51.469519],[-0.293313,51.471455],[-0.292242,51.47429],[-0.291423,51.475798],[-0.290268,51.478559],[-0.289687,51.479477],[-0.287683,51.481831],[-0.286829,51.482709],[-0.287368,51.484488],[-0.287502,51.4886],[-0.287616,51.488628],[-0.287668,51.488782],[-0.28763,51.489024],[-0.284558,51.49067],[-0.28269,51.491344],[-0.282722,51.491614],[-0.282367,51.491861],[-0.281847,51.491898],[-0.281331,51.491809],[-0.280779,51.491936],[-0.273032,51.492623],[-0.270441,51.492944],[-0.269103,51.492916],[-0.266606,51.492672],[-0.261443,51.492434],[-0.252784,51.492844],[-0.251473,51.492843],[-0.248,51.493268],[-0.242011,51.493547],[-0.238279,51.493413],[-0.235939,51.492979],[-0.234504,51.492849],[-0.234312,51.492954],[-0.233954,51.494406],[-0.229659,51.494458],[-0.227428,51.494406],[-0.226461,51.493708],[-0.224514,51.493023],[-0.224106,51.493124],[-0.222743,51.493004],[-0.222518,51.492866],[-0.222123,51.491538],[-0.221912,51.4914],[-0.219148,51.491349],[-0.216806,51.490819],[-0.214055,51.490813],[-0.210897,51.49054],[-0.209817,51.490524],[-0.208689,51.490641],[-0.204553,51.491424],[-0.202337,51.491722],[-0.201475,51.492042],[-0.200598,51.492739],[-0.200068,51.493018],[-0.197803,51.493829],[-0.196873,51.494039],[-0.195456,51.49453],[-0.194594,51.493366],[-0.194165,51.492937],[-0.193647,51.49256],[-0.192926,51.492198],[-0.192358,51.491756]]}}]}