{"type":"FeatureCollection","metadata":{"routeId":"UL90","sourceDate":"20260926","source":"https://bus.data.tfl.gov.uk/bus-geometry/"},"features":[{"type":"Feature","properties":{"routeId":"UL90","direction":"1","sourceDate":"20260926"},"geometry":{"type":"LineString","coordinates":[[-0.420888,51.503108],[-0.421479,51.502592],[-0.423305,51.501852],[-0.423971,51.501349],[-0.425454,51.5018],[-0.426869,51.502539],[-0.427796,51.50283],[-0.428532,51.502794],[-0.430156,51.502493],[-0.430585,51.502175],[-0.430999,51.502288],[-0.431053,51.502397],[-0.430991,51.502513],[-0.429923,51.503398],[-0.42973,51.50398],[-0.429738,51.504169],[-0.430888,51.505506],[-0.431051,51.505805],[-0.431031,51.505966],[-0.431139,51.506157],[-0.431281,51.506221],[-0.431169,51.506544],[-0.432439,51.508188],[-0.432475,51.508396],[-0.432604,51.508424],[-0.432663,51.508794],[-0.433244,51.510339],[-0.433388,51.512032],[-0.433563,51.512394],[-0.434335,51.512971],[-0.436678,51.514],[-0.437201,51.514304],[-0.438719,51.515861],[-0.440439,51.517386],[-0.444424,51.519291],[-0.444898,51.519774],[-0.44567,51.520378],[-0.446829,51.522309],[-0.447284,51.522669],[-0.4481,51.522746],[-0.449168,51.522214],[-0.451168,51.521476],[-0.45139,51.52129],[-0.451586,51.521041],[-0.451716,51.520611],[-0.451973,51.518132],[-0.452304,51.517694],[-0.452318,51.517534],[-0.452594,51.517391],[-0.452861,51.517443],[-0.45358,51.517972],[-0.454034,51.518123],[-0.456275,51.51836],[-0.457072,51.518217],[-0.457812,51.518497],[-0.458547,51.518516],[-0.460881,51.518124],[-0.461433,51.517996],[-0.461873,51.517768],[-0.462465,51.517722],[-0.464281,51.517305],[-0.464858,51.517294],[-0.466739,51.517481],[-0.468493,51.517207],[-0.470843,51.517175],[-0.471555,51.516986],[-0.472752,51.516103],[-0.474582,51.515367],[-0.474352,51.515202],[-0.473416,51.513935],[-0.472887,51.51338],[-0.472711,51.513018],[-0.47256,51.512368],[-0.472957,51.511276],[-0.473896,51.510336],[-0.473838,51.510384],[-0.473422,51.510293],[-0.472613,51.510373],[-0.472515,51.510273],[-0.472575,51.510201],[-0.473075,51.510219],[-0.473896,51.510336],[-0.474181,51.509998],[-0.474223,51.50962],[-0.473831,51.508851],[-0.472659,51.507638],[-0.471534,51.507293],[-0.470456,51.506775],[-0.470152,51.506393],[-0.469685,51.505281],[-0.469504,51.505074],[-0.467821,51.504564],[-0.467112,51.504231],[-0.466744,51.502743],[-0.466924,51.502538],[-0.467363,51.501465],[-0.467818,51.499924],[-0.468599,51.498136],[-0.468914,51.496045],[-0.469346,51.4924],[-0.469289,51.492321],[-0.47061,51.49185],[-0.471708,51.491324],[-0.474239,51.489712],[-0.476183,51.488969],[-0.476259,51.487454],[-0.476056,51.486624],[-0.476178,51.48427],[-0.476563,51.482225],[-0.476512,51.481814],[-0.476581,51.48167],[-0.47674,51.481661],[-0.478978,51.481923],[-0.486625,51.483227],[-0.488863,51.483499],[-0.49409,51.483539],[-0.497409,51.483779],[-0.501949,51.483667],[-0.503603,51.483724],[-0.504866,51.483866],[-0.533174,51.488576],[-0.534933,51.488957],[-0.534862,51.48937],[-0.534059,51.490178],[-0.533846,51.490508],[-0.533748,51.490867],[-0.533734,51.491775],[-0.533591,51.492186],[-0.533349,51.492534],[-0.532125,51.493886],[-0.531358,51.494434],[-0.531266,51.494612],[-0.531264,51.494948],[-0.530553,51.495287],[-0.530124,51.495632],[-0.528896,51.497064],[-0.528291,51.497983],[-0.527961,51.498815],[-0.527838,51.499524],[-0.527886,51.500694],[-0.528061,51.501514],[-0.530318,51.501237],[-0.531901,51.500861],[-0.535741,51.499722],[-0.537391,51.499482],[-0.538657,51.499524],[-0.543194,51.500074],[-0.542868,51.500881],[-0.542126,51.503254],[-0.542543,51.503718],[-0.543905,51.504391],[-0.544057,51.5046],[-0.544166,51.505222],[-0.544025,51.505589],[-0.542677,51.507658],[-0.542544,51.508637],[-0.541801,51.508466],[-0.541806,51.508308],[-0.541691,51.508276],[-0.541681,51.508168],[-0.541912,51.508152],[-0.541937,51.508261],[-0.541806,51.508308],[-0.541801,51.508466],[-0.542544,51.508637],[-0.542677,51.507658],[-0.544025,51.505589],[-0.544166,51.505222],[-0.544057,51.5046],[-0.543783,51.504138],[-0.543961,51.503988],[-0.54483,51.503836],[-0.546214,51.503809],[-0.547407,51.503904],[-0.549514,51.504236],[-0.551558,51.504783],[-0.552404,51.504901],[-0.553965,51.50475],[-0.55661,51.504935],[-0.560075,51.505634],[-0.5633,51.506177],[-0.563848,51.506157],[-0.565114,51.505777],[-0.566113,51.505618],[-0.570816,51.505909],[-0.572228,51.505899],[-0.57393,51.505381],[-0.574182,51.505188],[-0.578426,51.506289],[-0.580697,51.507873],[-0.581476,51.508287],[-0.582118,51.50851],[-0.587163,51.509381],[-0.587695,51.509411],[-0.588118,51.509322],[-0.588348,51.509423],[-0.588419,51.509575],[-0.592141,51.510124],[-0.592254,51.510188],[-0.59233,51.51038],[-0.59158,51.511484],[-0.591662,51.511629],[-0.592411,51.511761]]}},{"type":"Feature","properties":{"routeId":"UL90","direction":"2","sourceDate":"20260926"},"geometry":{"type":"LineString","coordinates":[[-0.592411,51.511761],[-0.593943,51.511953],[-0.594277,51.511885],[-0.594541,51.511268],[-0.594583,51.510854],[-0.594342,51.510717],[-0.592313,51.510377],[-0.592254,51.510188],[-0.592141,51.510124],[-0.588419,51.509575],[-0.588348,51.509423],[-0.588118,51.509322],[-0.587695,51.509411],[-0.587163,51.509381],[-0.582118,51.50851],[-0.581476,51.508287],[-0.580697,51.507873],[-0.578426,51.506289],[-0.574396,51.505243],[-0.572228,51.505899],[-0.571348,51.505934],[-0.566113,51.505618],[-0.565114,51.505777],[-0.563848,51.506157],[-0.5633,51.506177],[-0.560075,51.505634],[-0.55661,51.504935],[-0.553965,51.50475],[-0.552404,51.504901],[-0.551558,51.504783],[-0.549514,51.504236],[-0.547407,51.503904],[-0.546214,51.503809],[-0.54483,51.503836],[-0.543961,51.503988],[-0.543783,51.504138],[-0.544057,51.5046],[-0.544166,51.505222],[-0.544025,51.505589],[-0.542677,51.507658],[-0.542544,51.508637],[-0.541801,51.508466],[-0.541806,51.508308],[-0.541691,51.508276],[-0.541681,51.508168],[-0.541912,51.508152],[-0.541937,51.508261],[-0.541806,51.508308],[-0.541801,51.508466],[-0.542544,51.508637],[-0.542677,51.507658],[-0.544025,51.505589],[-0.544166,51.505222],[-0.544057,51.5046],[-0.543905,51.504391],[-0.542543,51.503718],[-0.542126,51.503254],[-0.542868,51.500881],[-0.543175,51.500156],[-0.53841,51.499584],[-0.537128,51.499586],[-0.535577,51.499882],[-0.530998,51.501137],[-0.528061,51.501514],[-0.527886,51.500694],[-0.527838,51.499524],[-0.527961,51.498815],[-0.528291,51.497983],[-0.528896,51.497064],[-0.530124,51.495632],[-0.530788,51.495128],[-0.5309,51.494788],[-0.532125,51.493886],[-0.533349,51.492534],[-0.533591,51.492186],[-0.533734,51.491775],[-0.533748,51.490867],[-0.533846,51.490508],[-0.534059,51.490178],[-0.534862,51.48937],[-0.534933,51.488957],[-0.533174,51.488576],[-0.504866,51.483866],[-0.503603,51.483724],[-0.501949,51.483667],[-0.497409,51.483779],[-0.493755,51.483634],[-0.489248,51.483612],[-0.487382,51.483426],[-0.483543,51.482801],[-0.481432,51.482612],[-0.480258,51.482426],[-0.478314,51.481969],[-0.476884,51.481793],[-0.476633,51.481874],[-0.476569,51.482054],[-0.476178,51.48427],[-0.476056,51.486624],[-0.476259,51.487454],[-0.476183,51.488969],[-0.474239,51.489712],[-0.471708,51.491324],[-0.47061,51.49185],[-0.469289,51.492321],[-0.469346,51.4924],[-0.468914,51.496045],[-0.468599,51.498136],[-0.467818,51.499924],[-0.467363,51.501465],[-0.466924,51.502538],[-0.466744,51.502743],[-0.467112,51.504231],[-0.467821,51.504564],[-0.469504,51.505074],[-0.469685,51.505281],[-0.470152,51.506393],[-0.470456,51.506775],[-0.471534,51.507293],[-0.472659,51.507638],[-0.473831,51.508851],[-0.474223,51.50962],[-0.474181,51.509998],[-0.473838,51.510384],[-0.473422,51.510293],[-0.472613,51.510373],[-0.472515,51.510273],[-0.472575,51.510201],[-0.473075,51.510219],[-0.473896,51.510336],[-0.472957,51.511276],[-0.47256,51.512368],[-0.47279,51.513244],[-0.473416,51.513935],[-0.474352,51.515202],[-0.474582,51.515367],[-0.474416,51.515495],[-0.473382,51.515814],[-0.472752,51.516103],[-0.471555,51.516986],[-0.470843,51.517175],[-0.468493,51.517207],[-0.466739,51.517481],[-0.464858,51.517294],[-0.464281,51.517305],[-0.4628,51.517618],[-0.461895,51.517957],[-0.461448,51.517978],[-0.458547,51.518516],[-0.457046,51.518559],[-0.456275,51.51836],[-0.454479,51.518192],[-0.453035,51.517841],[-0.452602,51.517826],[-0.452221,51.518037],[-0.451919,51.518446],[-0.451716,51.520611],[-0.451586,51.521041],[-0.45139,51.52129],[-0.450767,51.521712],[-0.449168,51.522214],[-0.447549,51.522994],[-0.447147,51.522726],[-0.446829,51.522309],[-0.44567,51.520378],[-0.444898,51.519774],[-0.444424,51.519291],[-0.440439,51.517386],[-0.438719,51.515861],[-0.437201,51.514304],[-0.436678,51.514],[-0.434335,51.512971],[-0.433563,51.512394],[-0.433388,51.512032],[-0.433244,51.510339],[-0.432663,51.508794],[-0.432604,51.508424],[-0.432475,51.508396],[-0.432439,51.508188],[-0.431696,51.507162],[-0.430961,51.506307],[-0.431051,51.505805],[-0.430888,51.505506],[-0.429738,51.504169],[-0.42973,51.50398],[-0.429923,51.503398],[-0.430412,51.503018],[-0.430334,51.502747],[-0.429643,51.502588],[-0.428532,51.502794],[-0.427583,51.502794],[-0.426869,51.502539],[-0.425454,51.5018],[-0.423971,51.501349],[-0.423305,51.501852],[-0.421479,51.502592],[-0.420677,51.503295]]}}]}