{"type":"FeatureCollection","metadata":{"routeId":"UL94","sourceDate":"20260918","source":"https://bus.data.tfl.gov.uk/bus-geometry/"},"features":[{"type":"Feature","properties":{"routeId":"UL94","direction":"1","sourceDate":"20260918"},"geometry":{"type":"LineString","coordinates":[[-0.154014,51.50265],[-0.156447,51.502313],[-0.158714,51.502187],[-0.16068,51.501688],[-0.161416,51.501285],[-0.162889,51.500043],[-0.167947,51.497233],[-0.168106,51.497227],[-0.169298,51.496607],[-0.171414,51.495929],[-0.18506,51.494825],[-0.188826,51.494608],[-0.192594,51.494765],[-0.194643,51.494698],[-0.195387,51.494448],[-0.194594,51.493366],[-0.194165,51.492937],[-0.193647,51.49256],[-0.192926,51.492198],[-0.191555,51.49117],[-0.190263,51.489621],[-0.190242,51.489503],[-0.192461,51.488675],[-0.193191,51.488794],[-0.193541,51.489042],[-0.200086,51.492551],[-0.200565,51.492469],[-0.201376,51.491978],[-0.202516,51.491581],[-0.204556,51.491334],[-0.208969,51.490493],[-0.2107,51.490429],[-0.214116,51.490724],[-0.216666,51.490718],[-0.219273,51.491091],[-0.221244,51.491165],[-0.222418,51.491345],[-0.224162,51.491326],[-0.224761,51.491488],[-0.224829,51.491588],[-0.224826,51.492784],[-0.224572,51.493005],[-0.224338,51.493092],[-0.223775,51.493119],[-0.223597,51.492892],[-0.222996,51.492781],[-0.222594,51.492391],[-0.222392,51.492388],[-0.222123,51.491538],[-0.222184,51.491449],[-0.222418,51.491345],[-0.22442,51.491357],[-0.224761,51.491488],[-0.224844,51.491939],[-0.224956,51.492031],[-0.22582,51.492035],[-0.226154,51.49195],[-0.227038,51.49146],[-0.227816,51.490716],[-0.227976,51.490656],[-0.228614,51.490926],[-0.231081,51.490829],[-0.23625,51.491275],[-0.239664,51.491273],[-0.241023,51.491149],[-0.244148,51.490413],[-0.245593,51.489914],[-0.249719,51.48824],[-0.251465,51.487403],[-0.251732,51.487209],[-0.251857,51.48695],[-0.252232,51.486659],[-0.252474,51.486644],[-0.253084,51.486896],[-0.257525,51.487511],[-0.267217,51.487555],[-0.268151,51.487623],[-0.270396,51.488052],[-0.273296,51.488319],[-0.276153,51.488937],[-0.278686,51.489756],[-0.281237,51.490873],[-0.282552,51.491102],[-0.282683,51.491307],[-0.282722,51.491614],[-0.282527,51.4918],[-0.282294,51.491869],[-0.282173,51.492038],[-0.282323,51.492633],[-0.282257,51.492857],[-0.282404,51.494685],[-0.282319,51.495421],[-0.282026,51.496712],[-0.28204,51.497098],[-0.283014,51.498767],[-0.283508,51.499449],[-0.284353,51.500352],[-0.285265,51.501003],[-0.28297,51.50186],[-0.280636,51.503004],[-0.280189,51.503402],[-0.279363,51.50276],[-0.278938,51.502305]]}},{"type":"Feature","properties":{"routeId":"UL94","direction":"2","sourceDate":"20260918"},"geometry":{"type":"LineString","coordinates":[[-0.281063,51.502776],[-0.283176,51.501764],[-0.285104,51.501046],[-0.284191,51.50043],[-0.283609,51.499828],[-0.282769,51.498782],[-0.282094,51.497567],[-0.282026,51.496712],[-0.282319,51.495421],[-0.282404,51.494685],[-0.282275,51.492768],[-0.282158,51.492415],[-0.281847,51.491898],[-0.281417,51.491838],[-0.281007,51.491625],[-0.280968,51.491516],[-0.281065,51.491239],[-0.280899,51.491039],[-0.278111,51.48973],[-0.276163,51.489054],[-0.273034,51.488378],[-0.270378,51.488159],[-0.268103,51.487739],[-0.258039,51.487635],[-0.253323,51.487053],[-0.252406,51.487299],[-0.252019,51.487609],[-0.249612,51.4884],[-0.244741,51.49035],[-0.241294,51.491216],[-0.240006,51.491368],[-0.237829,51.491407],[-0.235253,51.491341],[-0.231722,51.491018],[-0.229123,51.491168],[-0.227617,51.491379],[-0.225946,51.492118],[-0.225052,51.492158],[-0.224875,51.492263],[-0.224826,51.492784],[-0.224735,51.492891],[-0.224338,51.493092],[-0.224106,51.493124],[-0.223775,51.493119],[-0.223597,51.492892],[-0.223095,51.49283],[-0.222594,51.492391],[-0.222392,51.492388],[-0.222123,51.491538],[-0.221912,51.4914],[-0.219148,51.491349],[-0.216806,51.490819],[-0.214055,51.490813],[-0.210897,51.49054],[-0.209817,51.490524],[-0.208689,51.490641],[-0.204553,51.491424],[-0.202337,51.491722],[-0.201475,51.492042],[-0.200598,51.492739],[-0.200068,51.493018],[-0.195263,51.494689],[-0.192594,51.494765],[-0.188826,51.494608],[-0.188076,51.494641],[-0.179711,51.495222],[-0.17886,51.495361],[-0.17474,51.495612],[-0.172166,51.49586],[-0.170238,51.496322],[-0.168961,51.496745],[-0.167041,51.49792],[-0.165676,51.498538],[-0.164071,51.499412],[-0.162724,51.500299],[-0.161099,51.501658],[-0.160362,51.501903],[-0.158222,51.502251],[-0.157096,51.502297],[-0.154178,51.502877]]}}]}