{"type":"FeatureCollection","metadata":{"routeId":"UL95","sourceDate":"20260918","source":"https://bus.data.tfl.gov.uk/bus-geometry/"},"features":[{"type":"Feature","properties":{"routeId":"UL95","direction":"1","sourceDate":"20260918"},"geometry":{"type":"LineString","coordinates":[[-0.012339,51.465244],[-0.013441,51.465194],[-0.012923,51.464529],[-0.013411,51.464573],[-0.01373,51.464516],[-0.012923,51.464529],[-0.013441,51.465194],[-0.012241,51.465247],[-0.011303,51.465023],[-0.011352,51.464898],[-0.010814,51.463684],[-0.012224,51.463375],[-0.012519,51.463542],[-0.012615,51.464317],[-0.012823,51.464509],[-0.015371,51.464526],[-0.016643,51.464727],[-0.015887,51.465892],[-0.017897,51.466682],[-0.018433,51.467284],[-0.018429,51.467707],[-0.018608,51.468214],[-0.019126,51.468888],[-0.019572,51.469246],[-0.020542,51.469775],[-0.02175,51.470803],[-0.022401,51.471407],[-0.022862,51.472395],[-0.023505,51.472846],[-0.023878,51.473221],[-0.024192,51.473946],[-0.024151,51.474557],[-0.024044,51.474699],[-0.022244,51.474372],[-0.021283,51.474284],[-0.019439,51.475574],[-0.018628,51.475978],[-0.016786,51.476717],[-0.011828,51.478135],[-0.010378,51.479018],[-0.009288,51.480223],[-0.009246,51.480528],[-0.009504,51.480883],[-0.010005,51.481305],[-0.010316,51.481436],[-0.01406,51.481446],[-0.017695,51.481318],[-0.022208,51.480855],[-0.022718,51.480729],[-0.023366,51.48074],[-0.024744,51.481159],[-0.026401,51.481492],[-0.02785,51.481939],[-0.033123,51.484512],[-0.033903,51.485198],[-0.036097,51.486763],[-0.040583,51.489069],[-0.042195,51.490021],[-0.044468,51.490095],[-0.044758,51.49037],[-0.04537,51.491567],[-0.045781,51.491727],[-0.046939,51.491593],[-0.047124,51.491641],[-0.04734,51.492319],[-0.047985,51.493068],[-0.048129,51.493394],[-0.048555,51.493886],[-0.050109,51.494596],[-0.052163,51.496104],[-0.052328,51.496296],[-0.050764,51.497143],[-0.049696,51.497529],[-0.049452,51.49784],[-0.049397,51.498118],[-0.049884,51.498198]]}},{"type":"Feature","properties":{"routeId":"UL95","direction":"2","sourceDate":"20260918"},"geometry":{"type":"LineString","coordinates":[[-0.049884,51.498198],[-0.050077,51.49839],[-0.050221,51.498383],[-0.050297,51.498295],[-0.049889,51.497739],[-0.049621,51.4976],[-0.049696,51.497529],[-0.050764,51.497143],[-0.052328,51.496296],[-0.052163,51.496104],[-0.050109,51.494596],[-0.04727,51.49328],[-0.04481,51.491846],[-0.041541,51.489611],[-0.036097,51.486763],[-0.035452,51.486356],[-0.032956,51.484444],[-0.02785,51.481939],[-0.026401,51.481492],[-0.024788,51.481159],[-0.022612,51.480844],[-0.016683,51.4814],[-0.010215,51.481444],[-0.010096,51.481523],[-0.010086,51.481747],[-0.008844,51.482158],[-0.008123,51.481183],[-0.009221,51.480788],[-0.009313,51.480655],[-0.009235,51.480465],[-0.009288,51.480223],[-0.010378,51.479018],[-0.011739,51.478178],[-0.01186,51.478014],[-0.012297,51.477851],[-0.013155,51.477743],[-0.014232,51.477492],[-0.017486,51.476443],[-0.019439,51.475574],[-0.021283,51.474284],[-0.021818,51.474239],[-0.023986,51.474525],[-0.024158,51.474404],[-0.024192,51.473946],[-0.023878,51.473221],[-0.023505,51.472846],[-0.022862,51.472395],[-0.022401,51.471407],[-0.02175,51.470803],[-0.020542,51.469775],[-0.019572,51.469246],[-0.019126,51.468888],[-0.018608,51.468214],[-0.018429,51.467707],[-0.018433,51.467284],[-0.017897,51.466682],[-0.017093,51.466318],[-0.015036,51.46559],[-0.014713,51.465405],[-0.014618,51.465277],[-0.014549,51.464539],[-0.013563,51.464546]]}}]}