{"type":"FeatureCollection","metadata":{"routeId":"W11","sourceDate":"20261009","source":"https://bus.data.tfl.gov.uk/bus-geometry/"},"features":[{"type":"Feature","properties":{"routeId":"W11","direction":"1","sourceDate":"20261009"},"geometry":{"type":"LineString","coordinates":[[-0.025009,51.609347],[-0.025014,51.609802],[-0.024093,51.609724],[-0.023945,51.608489],[-0.02141,51.608663],[-0.017605,51.609479],[-0.017112,51.608536],[-0.017035,51.608216],[-0.01669,51.605615],[-0.016489,51.604919],[-0.016495,51.603085],[-0.016804,51.603009],[-0.017511,51.603003],[-0.019433,51.602658],[-0.020913,51.603493],[-0.020094,51.604063],[-0.019078,51.603506],[-0.019694,51.603292],[-0.020024,51.603324],[-0.020206,51.603148],[-0.019037,51.602463],[-0.018984,51.602336],[-0.017438,51.601374],[-0.017011,51.601241],[-0.017131,51.601126],[-0.017152,51.600974],[-0.016793,51.60059],[-0.017729,51.600669],[-0.018978,51.600492],[-0.020824,51.600388],[-0.021877,51.600244],[-0.024108,51.599743],[-0.025432,51.599586],[-0.030424,51.599615],[-0.033193,51.599356],[-0.033183,51.599238],[-0.032798,51.5988],[-0.032077,51.598446],[-0.029202,51.597823],[-0.028426,51.597405],[-0.027746,51.596764],[-0.027462,51.59631],[-0.027122,51.596169],[-0.027088,51.595278],[-0.026666,51.594372],[-0.026614,51.593901],[-0.026693,51.593401],[-0.026901,51.592937],[-0.027095,51.592788],[-0.02867,51.592436],[-0.02906,51.592083],[-0.02919,51.59142],[-0.029148,51.59007],[-0.029211,51.589604],[-0.029145,51.589468],[-0.023276,51.590295],[-0.021918,51.59065],[-0.020712,51.590837],[-0.020207,51.590828],[-0.017363,51.590159],[-0.018342,51.589564],[-0.020137,51.588786],[-0.020763,51.587996],[-0.020821,51.587655],[-0.020723,51.587267],[-0.020415,51.586704],[-0.019842,51.586272],[-0.019531,51.585358],[-0.019478,51.585016],[-0.01953,51.584828],[-0.018904,51.583288],[-0.020299,51.583078],[-0.020394,51.583214],[-0.020201,51.583346],[-0.02017,51.583629]]}},{"type":"Feature","properties":{"routeId":"W11","direction":"2","sourceDate":"20261009"},"geometry":{"type":"LineString","coordinates":[[-0.020518,51.584004],[-0.020523,51.583226],[-0.020428,51.583089],[-0.018904,51.583288],[-0.019623,51.585],[-0.019641,51.585594],[-0.019842,51.586272],[-0.020415,51.586704],[-0.020723,51.587267],[-0.020821,51.587655],[-0.020783,51.587888],[-0.020542,51.588345],[-0.019929,51.588917],[-0.018179,51.589661],[-0.017363,51.590159],[-0.020293,51.590838],[-0.021306,51.590784],[-0.023756,51.590213],[-0.029145,51.589468],[-0.029211,51.589604],[-0.029148,51.59007],[-0.02919,51.59142],[-0.02906,51.592083],[-0.02867,51.592436],[-0.027095,51.592788],[-0.026901,51.592937],[-0.026693,51.593401],[-0.026614,51.593901],[-0.026666,51.594372],[-0.027088,51.595278],[-0.027122,51.596169],[-0.027462,51.59631],[-0.027746,51.596764],[-0.028426,51.597405],[-0.029202,51.597823],[-0.032077,51.598446],[-0.032798,51.5988],[-0.033183,51.599238],[-0.033193,51.599356],[-0.030424,51.599615],[-0.025432,51.599586],[-0.024108,51.599743],[-0.021412,51.600318],[-0.017845,51.600644],[-0.017436,51.600745],[-0.017152,51.600974],[-0.017147,51.6011],[-0.017025,51.601233],[-0.016863,51.601311],[-0.016608,51.601855],[-0.01656,51.602637],[-0.016631,51.602665],[-0.016646,51.602971],[-0.017511,51.603003],[-0.019433,51.602658],[-0.020913,51.603493],[-0.020094,51.604063],[-0.019078,51.603506],[-0.019694,51.603292],[-0.020024,51.603324],[-0.020204,51.603184],[-0.02018,51.603076],[-0.019433,51.602658],[-0.016785,51.603099],[-0.016594,51.603204],[-0.016531,51.603326],[-0.016489,51.604919],[-0.01669,51.605615],[-0.017048,51.608309],[-0.017244,51.608799],[-0.020774,51.608346],[-0.020914,51.60878],[-0.022093,51.608575],[-0.024873,51.608415],[-0.025009,51.609347]]}}]}