{"type":"FeatureCollection","metadata":{"routeId":"W19","sourceDate":"20261009","source":"https://bus.data.tfl.gov.uk/bus-geometry/"},"features":[{"type":"Feature","properties":{"routeId":"W19","direction":"1","sourceDate":"20261009"},"geometry":{"type":"LineString","coordinates":[[-0.039674,51.569885],[-0.036299,51.570856],[-0.036251,51.570972],[-0.036834,51.571495],[-0.037791,51.572734],[-0.037059,51.572982],[-0.035993,51.573954],[-0.037765,51.574352],[-0.037389,51.575362],[-0.035008,51.577038],[-0.034094,51.577483],[-0.032553,51.578078],[-0.030394,51.578608],[-0.030903,51.579857],[-0.030879,51.580082],[-0.030376,51.580361],[-0.028959,51.58076],[-0.028198,51.581314],[-0.028119,51.581492],[-0.028134,51.581798],[-0.028237,51.582096],[-0.027973,51.5822],[-0.027892,51.582388],[-0.027925,51.582761],[-0.028349,51.583159],[-0.028496,51.583432],[-0.028789,51.584411],[-0.029147,51.585079],[-0.029255,51.585909],[-0.029586,51.586598],[-0.02977,51.587356],[-0.030642,51.58889],[-0.02995,51.589211],[-0.028824,51.589543],[-0.023276,51.590295],[-0.021221,51.590793],[-0.020207,51.590828],[-0.017363,51.590159],[-0.018342,51.589564],[-0.020137,51.588786],[-0.020763,51.587996],[-0.020821,51.587655],[-0.020723,51.587267],[-0.020415,51.586704],[-0.019842,51.586272],[-0.019531,51.585358],[-0.019478,51.585016],[-0.01953,51.584828],[-0.019071,51.583759],[-0.018866,51.583486],[-0.01842,51.583118],[-0.018319,51.582784],[-0.018563,51.582168],[-0.018868,51.583178],[-0.019431,51.583242],[-0.020341,51.583088],[-0.020394,51.583214],[-0.020169,51.583409],[-0.020181,51.584119],[-0.02025,51.584192],[-0.020497,51.584169],[-0.020523,51.583226],[-0.020428,51.583089],[-0.020299,51.583078],[-0.018686,51.583321],[-0.01842,51.583118],[-0.018319,51.582784],[-0.018563,51.582168],[-0.0184,51.581589],[-0.018419,51.580834],[-0.018292,51.579762],[-0.017532,51.578652],[-0.016465,51.577549],[-0.015648,51.576525],[-0.014132,51.575861],[-0.013079,51.575528],[-0.01236,51.575786],[-0.011297,51.576667],[-0.011017,51.576806],[-0.00758,51.577836],[-0.006474,51.578716],[-0.005972,51.578969],[-0.002624,51.580269],[-0.00003,51.581493],[0.001384,51.581829],[0.001467,51.581072],[0.00309,51.580235],[0.002095,51.579605],[0.001246,51.579655],[0.000162,51.579305],[0.002289,51.577785],[0.00315,51.577015],[0.003907,51.576507],[0.004366,51.576445],[0.004997,51.576021],[0.002742,51.574621],[-0.000451,51.573209],[0.001407,51.571829],[0.000446,51.571297],[0.002148,51.570296],[0.006943,51.56811],[0.007146,51.568448],[0.007544,51.568325],[0.007571,51.568146],[0.007415,51.568003],[0.006943,51.56811],[0.007624,51.569142],[0.008128,51.569439],[0.008958,51.569631],[0.009851,51.57044],[0.010621,51.571006],[0.010826,51.571074],[0.0113,51.571021],[0.013151,51.569811],[0.015518,51.571129],[0.01607,51.570876],[0.017232,51.570731],[0.018657,51.569996],[0.019056,51.569872],[0.02348,51.569733],[0.02366,51.568911],[0.024811,51.566248],[0.024939,51.564258],[0.02514,51.564236],[0.027288,51.562895],[0.027829,51.562733],[0.031462,51.562994],[0.033273,51.562837],[0.035446,51.561839],[0.04077,51.559164],[0.042873,51.558434],[0.044128,51.55781],[0.044504,51.557534],[0.044656,51.557028],[0.044818,51.556773],[0.046341,51.555029],[0.046641,51.553045],[0.046584,51.55274],[0.046761,51.55218],[0.047561,51.550727],[0.04884,51.551253],[0.052014,51.552223],[0.057335,51.554117],[0.059334,51.554622],[0.065009,51.556338],[0.067489,51.557581],[0.069688,51.558342],[0.070115,51.558218],[0.07018,51.557434],[0.070627,51.556797],[0.070796,51.556695],[0.071569,51.556564],[0.073572,51.557159],[0.073623,51.557319],[0.073464,51.557637],[0.074422,51.558107],[0.075576,51.5584],[0.075828,51.558531],[0.075911,51.55879],[0.075581,51.559443],[0.075922,51.559522]]}},{"type":"Feature","properties":{"routeId":"W19","direction":"2","sourceDate":"20261009"},"geometry":{"type":"LineString","coordinates":[[0.075931,51.559524],[0.075581,51.559443],[0.075911,51.55879],[0.075828,51.558531],[0.075576,51.5584],[0.074526,51.558158],[0.073083,51.557446],[0.072628,51.557337],[0.072226,51.55738],[0.071618,51.558587],[0.071403,51.558618],[0.070323,51.558358],[0.070115,51.558218],[0.070118,51.55766],[0.069702,51.557398],[0.069072,51.557175],[0.068452,51.557177],[0.067654,51.557477],[0.067266,51.557441],[0.066513,51.557058],[0.065899,51.556566],[0.065089,51.556193],[0.064022,51.555879],[0.063473,51.555862],[0.060974,51.555168],[0.059288,51.55461],[0.057335,51.554117],[0.052923,51.552549],[0.048625,51.551173],[0.047561,51.550727],[0.046769,51.552165],[0.046584,51.55274],[0.046641,51.553045],[0.046341,51.555029],[0.044913,51.556654],[0.044693,51.556969],[0.044532,51.557479],[0.044128,51.55781],[0.042589,51.558556],[0.040458,51.559295],[0.034997,51.562057],[0.033273,51.562837],[0.031462,51.562994],[0.027829,51.562733],[0.027288,51.562895],[0.02514,51.564236],[0.024939,51.564258],[0.02484,51.566107],[0.02366,51.568911],[0.02348,51.569733],[0.019056,51.569872],[0.018657,51.569996],[0.017232,51.570731],[0.01607,51.570876],[0.015645,51.571063],[0.014995,51.5708],[0.013151,51.569811],[0.0113,51.571021],[0.010928,51.571091],[0.010621,51.571006],[0.010011,51.570567],[0.008958,51.569631],[0.008128,51.569439],[0.007669,51.569186],[0.007146,51.568448],[0.007544,51.568325],[0.007596,51.568189],[0.007488,51.568038],[0.007253,51.568006],[0.00195,51.570399],[0.000446,51.571297],[0.001407,51.571829],[-0.000451,51.573209],[0.002226,51.574369],[0.003748,51.575188],[0.004997,51.576021],[0.004366,51.576445],[0.003907,51.576507],[0.00315,51.577015],[0.002289,51.577785],[0.000162,51.579305],[0.001246,51.579655],[0.002095,51.579605],[0.00309,51.580235],[0.001467,51.581072],[0.001384,51.581829],[-0.00003,51.581493],[-0.002624,51.580269],[-0.006237,51.578847],[-0.006867,51.578407],[-0.00758,51.577836],[-0.007741,51.577128],[-0.007568,51.575821],[-0.007618,51.575651],[-0.007755,51.575492],[-0.008449,51.575135],[-0.009052,51.574219],[-0.009466,51.573974],[-0.009843,51.573871],[-0.012761,51.575208],[-0.013191,51.575593],[-0.014272,51.575907],[-0.015648,51.576525],[-0.016578,51.577692],[-0.017738,51.578898],[-0.018292,51.579762],[-0.018406,51.580613],[-0.018423,51.581733],[-0.018868,51.583178],[-0.019431,51.583242],[-0.020341,51.583088],[-0.020394,51.583214],[-0.020169,51.583409],[-0.020174,51.583838],[-0.020208,51.584164],[-0.020365,51.584212],[-0.020497,51.584169],[-0.020523,51.583226],[-0.020428,51.583089],[-0.020299,51.583078],[-0.018904,51.583288],[-0.019623,51.585],[-0.019641,51.585594],[-0.019842,51.586272],[-0.020415,51.586704],[-0.020723,51.587267],[-0.020821,51.587655],[-0.020783,51.587888],[-0.020542,51.588345],[-0.019929,51.588917],[-0.018179,51.589661],[-0.017363,51.590159],[-0.020293,51.590838],[-0.021306,51.590784],[-0.023756,51.590213],[-0.028824,51.589543],[-0.02995,51.589211],[-0.030642,51.58889],[-0.02977,51.587356],[-0.029586,51.586598],[-0.029255,51.585909],[-0.029147,51.585079],[-0.028683,51.584128],[-0.028496,51.583432],[-0.028287,51.583085],[-0.027925,51.582761],[-0.027892,51.582388],[-0.027973,51.5822],[-0.028237,51.582096],[-0.028119,51.581492],[-0.028454,51.581066],[-0.028959,51.58076],[-0.030376,51.580361],[-0.030879,51.580082],[-0.030903,51.579857],[-0.030623,51.579313],[-0.030394,51.578608],[-0.032553,51.578078],[-0.034727,51.577197],[-0.037389,51.575362],[-0.037765,51.574352],[-0.035993,51.573954],[-0.037059,51.572982],[-0.037791,51.572734],[-0.036634,51.571317]]}}]}