{"type":"FeatureCollection","metadata":{"routeId":"W7","sourceDate":"20261009","source":"https://bus.data.tfl.gov.uk/bus-geometry/"},"features":[{"type":"Feature","properties":{"routeId":"W7","direction":"1","sourceDate":"20261009"},"geometry":{"type":"MultiLineString","coordinates":[[[-0.142063,51.591259],[-0.141865,51.59119],[-0.141841,51.591081],[-0.139677,51.590328],[-0.13718,51.589254],[-0.134496,51.587826],[-0.133973,51.587378],[-0.133652,51.586572],[-0.132469,51.585141],[-0.128245,51.582898],[-0.126605,51.58173],[-0.125195,51.580907],[-0.124047,51.580403],[-0.123866,51.579879],[-0.123676,51.579597],[-0.12379,51.579484],[-0.123939,51.578477],[-0.123019,51.576969],[-0.122621,51.576469],[-0.12126,51.574091],[-0.120361,51.572844],[-0.119364,51.572172],[-0.118036,51.571467],[-0.116477,51.570795],[-0.115184,51.570648],[-0.111897,51.569193],[-0.109074,51.567672],[-0.108036,51.566945],[-0.1072,51.56623],[-0.108219,51.565671],[-0.107864,51.565395]],[[-0.142063,51.591259],[-0.141865,51.59119],[-0.141841,51.591081],[-0.139677,51.590328],[-0.13718,51.589254],[-0.134496,51.587826],[-0.133973,51.587378],[-0.133652,51.586572],[-0.132469,51.585141],[-0.128245,51.582898],[-0.126605,51.58173],[-0.125195,51.580907],[-0.124047,51.580403],[-0.123866,51.579879],[-0.123676,51.579597],[-0.12379,51.579484],[-0.123863,51.578753],[-0.124001,51.578313],[-0.125018,51.577356],[-0.126296,51.575898],[-0.127088,51.574544],[-0.127221,51.574114],[-0.126975,51.573427],[-0.126838,51.573245],[-0.126505,51.572925],[-0.1251,51.572003],[-0.12466,51.571474],[-0.124014,51.570309],[-0.123948,51.569844],[-0.124018,51.569669],[-0.12393,51.569574],[-0.123863,51.569088],[-0.122066,51.567059],[-0.115362,51.570416],[-0.115114,51.570611],[-0.110624,51.568561],[-0.109074,51.567672],[-0.108036,51.566945],[-0.1072,51.56623],[-0.108219,51.565671],[-0.107864,51.565395]]]}},{"type":"Feature","properties":{"routeId":"W7","direction":"2","sourceDate":"20261009"},"geometry":{"type":"MultiLineString","coordinates":[[[-0.107063,51.565724],[-0.106722,51.565926],[-0.108905,51.567562],[-0.110624,51.568561],[-0.115184,51.570648],[-0.116719,51.570879],[-0.118951,51.571932],[-0.120361,51.572844],[-0.12126,51.574091],[-0.122621,51.576469],[-0.123019,51.576969],[-0.12375,51.57815],[-0.124003,51.578307],[-0.12385,51.578817],[-0.12379,51.579484],[-0.124047,51.580403],[-0.125195,51.580907],[-0.126548,51.581693],[-0.128245,51.582898],[-0.132469,51.585141],[-0.133652,51.586572],[-0.133973,51.587378],[-0.134496,51.587826],[-0.136514,51.588947],[-0.139677,51.590328],[-0.141413,51.59094],[-0.142176,51.590963]],[[-0.107063,51.565724],[-0.106722,51.565926],[-0.109074,51.567672],[-0.111897,51.569193],[-0.115114,51.570611],[-0.115362,51.570416],[-0.122066,51.567059],[-0.123863,51.569088],[-0.12393,51.569574],[-0.124018,51.569669],[-0.123948,51.569844],[-0.124015,51.570313],[-0.124173,51.570693],[-0.124746,51.571589],[-0.1251,51.572003],[-0.126505,51.572925],[-0.126975,51.573427],[-0.127221,51.574114],[-0.127088,51.574544],[-0.126086,51.576184],[-0.125144,51.577225],[-0.124001,51.578313],[-0.12385,51.578817],[-0.12379,51.579484],[-0.124047,51.580403],[-0.125195,51.580907],[-0.126548,51.581693],[-0.128245,51.582898],[-0.132469,51.585141],[-0.133652,51.586572],[-0.133973,51.587378],[-0.134496,51.587826],[-0.136514,51.588947],[-0.139677,51.590328],[-0.141413,51.59094],[-0.142176,51.590963]]]}}]}