{"type":"FeatureCollection","metadata":{"routeId":"Y228","sourceDate":"20260905","source":"https://bus.data.tfl.gov.uk/bus-geometry/"},"features":[{"type":"Feature","properties":{"routeId":"Y228","direction":"1","sourceDate":"20260905"},"geometry":{"type":"LineString","coordinates":[[-0.268338,51.530582],[-0.268094,51.530534],[-0.268027,51.530407],[-0.268265,51.530231],[-0.26877,51.530211],[-0.268654,51.529832],[-0.267828,51.529963],[-0.266409,51.5305],[-0.264784,51.531537],[-0.264593,51.531993],[-0.264325,51.532223],[-0.263037,51.532725],[-0.260234,51.53441],[-0.258132,51.535071],[-0.257735,51.535263],[-0.257238,51.53584],[-0.257054,51.536292],[-0.256666,51.536839],[-0.256166,51.537101],[-0.25507,51.537472],[-0.254427,51.537318],[-0.252849,51.536351],[-0.251862,51.536138],[-0.25078,51.53578],[-0.248892,51.53577],[-0.248138,51.535489],[-0.24845,51.535251],[-0.248389,51.534962],[-0.247553,51.533835],[-0.2467,51.533139],[-0.246527,51.532767],[-0.24661,51.53249],[-0.247171,51.53177],[-0.247949,51.531035],[-0.248786,51.529888],[-0.250929,51.528139],[-0.250453,51.527394],[-0.250493,51.527107],[-0.25125,51.526525],[-0.252511,51.525213],[-0.25273,51.524776],[-0.252756,51.524479],[-0.252201,51.52314],[-0.252046,51.522311],[-0.251441,51.521555],[-0.250445,51.520066],[-0.250436,51.519939],[-0.2507,51.519449],[-0.250699,51.51908],[-0.249132,51.514253],[-0.248941,51.51382],[-0.247172,51.511843],[-0.246462,51.510816],[-0.24599,51.50965],[-0.245148,51.506768],[-0.243404,51.506778],[-0.238791,51.506448],[-0.234553,51.506483],[-0.234546,51.508542],[-0.234626,51.509802],[-0.231758,51.509984],[-0.231228,51.510172],[-0.227751,51.512081],[-0.227453,51.512311],[-0.225226,51.512888],[-0.224808,51.511785],[-0.224675,51.511118],[-0.224558,51.509326],[-0.222958,51.509329],[-0.222745,51.509236],[-0.222591,51.509135],[-0.222554,51.508226],[-0.223524,51.508115],[-0.223941,51.508139],[-0.224052,51.508239],[-0.224053,51.508599],[-0.223933,51.509092],[-0.223597,51.509186],[-0.22292,51.509185],[-0.222824,51.509066],[-0.223087,51.508971],[-0.223805,51.509027],[-0.22388,51.508219],[-0.222652,51.50829],[-0.222561,51.508406],[-0.222591,51.509135],[-0.222958,51.509329],[-0.224558,51.509326],[-0.224675,51.511118],[-0.224808,51.511785],[-0.225226,51.512888],[-0.226886,51.512455],[-0.227751,51.512081],[-0.227453,51.512311],[-0.225226,51.512888],[-0.224808,51.511785],[-0.224675,51.511118],[-0.224558,51.509326],[-0.222958,51.509329],[-0.222591,51.509135],[-0.222561,51.508406],[-0.222623,51.508308],[-0.22378,51.508191],[-0.22388,51.508219],[-0.22389,51.508321]]}},{"type":"Feature","properties":{"routeId":"Y228","direction":"2","sourceDate":"20260905"},"geometry":{"type":"LineString","coordinates":[[-0.223963,51.509031],[-0.223844,51.509136],[-0.223597,51.509186],[-0.22292,51.509185],[-0.222822,51.509111],[-0.222986,51.508979],[-0.223805,51.509027],[-0.22388,51.508219],[-0.222652,51.50829],[-0.222561,51.508406],[-0.222591,51.509135],[-0.222745,51.509236],[-0.222958,51.509329],[-0.224558,51.509326],[-0.224675,51.511118],[-0.224808,51.511785],[-0.225226,51.512888],[-0.227309,51.512318],[-0.231564,51.510003],[-0.234626,51.509802],[-0.234553,51.506483],[-0.238359,51.506432],[-0.243404,51.506778],[-0.245148,51.506768],[-0.246129,51.510109],[-0.246883,51.511479],[-0.248181,51.512964],[-0.249009,51.512796],[-0.249118,51.512969],[-0.249153,51.513563],[-0.249022,51.513956],[-0.250675,51.518974],[-0.2507,51.519449],[-0.250436,51.519939],[-0.250445,51.520066],[-0.251441,51.521555],[-0.252046,51.522311],[-0.252201,51.52314],[-0.252756,51.524479],[-0.25273,51.524776],[-0.252511,51.525213],[-0.251295,51.526478],[-0.250493,51.527107],[-0.250453,51.527394],[-0.250929,51.528139],[-0.248786,51.529888],[-0.247949,51.531035],[-0.247171,51.53177],[-0.246579,51.532543],[-0.246527,51.532767],[-0.246659,51.533075],[-0.247553,51.533835],[-0.248389,51.534962],[-0.24845,51.535251],[-0.248138,51.535489],[-0.24886,51.535767],[-0.25078,51.53578],[-0.251862,51.536138],[-0.252849,51.536351],[-0.254427,51.537318],[-0.25507,51.537472],[-0.256166,51.537101],[-0.256666,51.536839],[-0.256815,51.536706],[-0.257273,51.535796],[-0.257735,51.535263],[-0.25803,51.535106],[-0.260234,51.53441],[-0.263037,51.532725],[-0.264443,51.532143],[-0.264593,51.531993],[-0.264784,51.531537],[-0.266409,51.5305],[-0.267434,51.530083],[-0.268673,51.529733],[-0.268814,51.529798],[-0.268985,51.53025],[-0.268685,51.53054]]}}]}