{"type":"FeatureCollection","metadata":{"routeId":"Y23","sourceDate":"20260905","source":"https://bus.data.tfl.gov.uk/bus-geometry/"},"features":[{"type":"Feature","properties":{"routeId":"Y23","direction":"1","sourceDate":"20260905"},"geometry":{"type":"LineString","coordinates":[[-0.200428,51.524557],[-0.201181,51.524392],[-0.201563,51.524209],[-0.200652,51.523898],[-0.194892,51.523028],[-0.194187,51.522721],[-0.193393,51.521916],[-0.19119,51.520417],[-0.190566,51.520164],[-0.188754,51.519678],[-0.188995,51.518692],[-0.189047,51.518109],[-0.188313,51.517369],[-0.187469,51.516097],[-0.180389,51.517993],[-0.179183,51.517156],[-0.179046,51.516983],[-0.176379,51.515179],[-0.169096,51.519256],[-0.162561,51.51479],[-0.160034,51.51323],[-0.158753,51.513374],[-0.158461,51.513326],[-0.158313,51.513215],[-0.1567,51.510339],[-0.154824,51.508969],[-0.151127,51.505608],[-0.150913,51.505059],[-0.151119,51.504028],[-0.150886,51.503377],[-0.150788,51.503303],[-0.150096,51.503311],[-0.149761,51.503404],[-0.141204,51.507589],[-0.139177,51.508367],[-0.134804,51.509759],[-0.13484,51.50993],[-0.134574,51.510097],[-0.1341,51.510053],[-0.133382,51.510116],[-0.132403,51.509262],[-0.131068,51.507748],[-0.128043,51.507463],[-0.127861,51.507586],[-0.127294,51.507697],[-0.12401,51.509407],[-0.122014,51.510314],[-0.119116,51.511379],[-0.118922,51.51223],[-0.118363,51.512814]]}},{"type":"Feature","properties":{"routeId":"Y23","direction":"2","sourceDate":"20260905"},"geometry":{"type":"MultiLineString","coordinates":[[[-0.117041,51.513266],[-0.117807,51.513075],[-0.118573,51.512665],[-0.118922,51.51223],[-0.11906,51.511693],[-0.119061,51.511306],[-0.123246,51.509665],[-0.12696,51.507763],[-0.127601,51.507226],[-0.127846,51.507219],[-0.128358,51.507408],[-0.129364,51.507554],[-0.131071,51.507658],[-0.132634,51.507134],[-0.134023,51.508942],[-0.134286,51.509085],[-0.134321,51.509229],[-0.134804,51.509759],[-0.139672,51.508161],[-0.141367,51.507498],[-0.144101,51.506156],[-0.145593,51.505272],[-0.146974,51.504601],[-0.148306,51.503759],[-0.149787,51.503108],[-0.149914,51.502471],[-0.151201,51.501997],[-0.151635,51.501959],[-0.152041,51.502235],[-0.152365,51.502789],[-0.152332,51.502887],[-0.152225,51.503047],[-0.151178,51.503274],[-0.151128,51.503435],[-0.151336,51.503996],[-0.152008,51.504123],[-0.152231,51.504324],[-0.151989,51.505073],[-0.151965,51.505543],[-0.15224,51.506222],[-0.154093,51.507798],[-0.157267,51.510213],[-0.158038,51.511233],[-0.158576,51.512419],[-0.158687,51.512519],[-0.158885,51.512612],[-0.160725,51.51238],[-0.161094,51.512512],[-0.16147,51.512833],[-0.161466,51.512941],[-0.161267,51.513104],[-0.160775,51.51316],[-0.160573,51.513295],[-0.16054,51.513384],[-0.160675,51.513611],[-0.167234,51.517896],[-0.167677,51.517984],[-0.171294,51.515961],[-0.172915,51.517103],[-0.176379,51.515179],[-0.180409,51.517858],[-0.182093,51.517551],[-0.187469,51.516097],[-0.189034,51.518432],[-0.188758,51.51957],[-0.189947,51.519768],[-0.190528,51.520011],[-0.193393,51.521916],[-0.194015,51.522609],[-0.194664,51.522961],[-0.197658,51.523439],[-0.197459,51.525227],[-0.198073,51.525084]],[[-0.181167,51.517746],[-0.187469,51.516097],[-0.189034,51.518432],[-0.188758,51.51957],[-0.189947,51.519768],[-0.190528,51.520011],[-0.193393,51.521916],[-0.194015,51.522609],[-0.194664,51.522961],[-0.197658,51.523439],[-0.197459,51.525227],[-0.198073,51.525084]]]}}]}