{"type":"FeatureCollection","metadata":{"routeId":"Y23X","sourceDate":"20260905","source":"https://bus.data.tfl.gov.uk/bus-geometry/"},"features":[{"type":"Feature","properties":{"routeId":"Y23X","direction":"1","sourceDate":"20260905"},"geometry":{"type":"LineString","coordinates":[[-0.200428,51.524557],[-0.201181,51.524392],[-0.201563,51.524209],[-0.200352,51.52384],[-0.194664,51.522961],[-0.194015,51.522609],[-0.193393,51.521916],[-0.191331,51.5205],[-0.190466,51.520127],[-0.189625,51.519889],[-0.187511,51.519766],[-0.183893,51.519773],[-0.182613,51.52005],[-0.180546,51.520926],[-0.180246,51.520859],[-0.179178,51.520265],[-0.177247,51.520156],[-0.177051,51.520009],[-0.177059,51.51982],[-0.180389,51.517993],[-0.179183,51.517156],[-0.179046,51.516983],[-0.176379,51.515179],[-0.169096,51.519256],[-0.166715,51.517519],[-0.164399,51.515972],[-0.160034,51.51323],[-0.158753,51.513374],[-0.158461,51.513326],[-0.158313,51.513215],[-0.1567,51.510339],[-0.154824,51.508969],[-0.153784,51.507964],[-0.151444,51.505958],[-0.151037,51.505486],[-0.150913,51.505059],[-0.151119,51.504028],[-0.150886,51.503377],[-0.150788,51.503303],[-0.150096,51.503311],[-0.149787,51.503108],[-0.14986,51.502498],[-0.151201,51.501997],[-0.151323,51.501837],[-0.151316,51.501657],[-0.148999,51.500155],[-0.147886,51.499166],[-0.147133,51.498263],[-0.146758,51.498213],[-0.145027,51.498267],[-0.143872,51.498076],[-0.145243,51.496157],[-0.144756,51.496059],[-0.144534,51.496209],[-0.144128,51.496219]]}}]}