{"type":"FeatureCollection","metadata":{"routeId":"Y27N","sourceDate":"20260905","source":"https://bus.data.tfl.gov.uk/bus-geometry/"},"features":[{"type":"Feature","properties":{"routeId":"Y27N","direction":"1","sourceDate":"20260905"},"geometry":{"type":"LineString","coordinates":[[-0.223931,51.492378],[-0.224226,51.492649],[-0.223244,51.493084],[-0.221516,51.493058],[-0.219362,51.49325],[-0.216664,51.493371],[-0.213064,51.494422],[-0.209902,51.495714],[-0.208003,51.496018],[-0.206461,51.496399],[-0.204603,51.497117],[-0.20444,51.49724],[-0.200762,51.498489],[-0.198693,51.499022],[-0.193022,51.501075],[-0.191688,51.501639],[-0.191232,51.501932],[-0.191058,51.502277],[-0.192238,51.504129],[-0.193229,51.504226],[-0.193619,51.504556],[-0.194442,51.506132],[-0.195363,51.509276],[-0.191575,51.509964],[-0.182053,51.510653],[-0.176309,51.511536],[-0.176012,51.511756],[-0.175703,51.513001],[-0.175882,51.513201],[-0.182093,51.517551],[-0.180389,51.517993],[-0.179183,51.517156],[-0.179046,51.516983],[-0.176379,51.515179],[-0.168993,51.519308],[-0.16575,51.520031],[-0.165425,51.520574],[-0.165517,51.520809],[-0.152538,51.523097],[-0.149525,51.52332],[-0.144843,51.52409],[-0.142549,51.52403],[-0.14085,51.524432],[-0.138659,51.525134],[-0.138477,51.525365],[-0.13847,51.525536],[-0.138641,51.525934],[-0.138688,51.530099],[-0.139411,51.532511],[-0.139206,51.534351],[-0.139066,51.534961],[-0.13939,51.535487],[-0.141513,51.537544],[-0.142244,51.538459]]}},{"type":"Feature","properties":{"routeId":"Y27N","direction":"2","sourceDate":"20260905"},"geometry":{"type":"LineString","coordinates":[[-0.141411,51.539839],[-0.14176,51.539625],[-0.141779,51.539491],[-0.13747,51.534854],[-0.137504,51.53472],[-0.138174,51.534551],[-0.138999,51.534483],[-0.139107,51.534314],[-0.139153,51.533892],[-0.138194,51.532995],[-0.138101,51.532823],[-0.138238,51.532645],[-0.139093,51.532515],[-0.139173,51.532345],[-0.138618,51.530394],[-0.138688,51.530099],[-0.138641,51.525934],[-0.138184,51.525109],[-0.138194,51.524884],[-0.142456,51.523936],[-0.143495,51.523916],[-0.144659,51.524006],[-0.148912,51.523273],[-0.152484,51.522988],[-0.161125,51.521415],[-0.165463,51.520709],[-0.165425,51.520574],[-0.166131,51.519155],[-0.167325,51.518187],[-0.171294,51.515961],[-0.172915,51.517103],[-0.177676,51.514461],[-0.176621,51.513715],[-0.176398,51.513632],[-0.175416,51.513671],[-0.175337,51.513499],[-0.175626,51.513117],[-0.175587,51.512999],[-0.174397,51.512135],[-0.174475,51.511975],[-0.174903,51.511721],[-0.178511,51.511237],[-0.182239,51.510629],[-0.191118,51.510005],[-0.194145,51.509483],[-0.193833,51.508614],[-0.194872,51.508217],[-0.194996,51.508003],[-0.194345,51.505871],[-0.193536,51.504455],[-0.193086,51.504188],[-0.192238,51.504129],[-0.191125,51.502413],[-0.190914,51.501915],[-0.191423,51.501788],[-0.192237,51.501407],[-0.198826,51.498952],[-0.200366,51.498625],[-0.206427,51.496417],[-0.207917,51.495999],[-0.209684,51.495773],[-0.212962,51.494457],[-0.215998,51.493577],[-0.216852,51.493347],[-0.222179,51.493059],[-0.222441,51.492973],[-0.222518,51.492866],[-0.222123,51.491538],[-0.222418,51.491345],[-0.2236,51.491327],[-0.223557,51.491695],[-0.223337,51.491799],[-0.2238,51.492258]]}}]}