{"type":"FeatureCollection","metadata":{"routeId":"Y28","sourceDate":"20260905","source":"https://bus.data.tfl.gov.uk/bus-geometry/"},"features":[{"type":"Feature","properties":{"routeId":"Y28","direction":"1","sourceDate":"20260905"},"geometry":{"type":"LineString","coordinates":[[-0.223679,51.508567],[-0.223591,51.508988],[-0.223805,51.509027],[-0.22388,51.508219],[-0.223693,51.508216],[-0.223659,51.508341],[-0.223489,51.508276],[-0.222836,51.508374],[-0.222822,51.509111],[-0.222958,51.509329],[-0.222009,51.50927],[-0.221408,51.509521],[-0.220033,51.50968],[-0.219746,51.50964],[-0.218901,51.507298],[-0.218178,51.505801],[-0.217947,51.505539],[-0.218079,51.504372],[-0.217494,51.50457],[-0.217277,51.504971],[-0.217086,51.505068],[-0.215666,51.504893],[-0.214781,51.505041],[-0.209926,51.506026],[-0.200767,51.50855],[-0.197873,51.508847],[-0.194145,51.509483],[-0.193833,51.508614],[-0.194872,51.508217],[-0.194996,51.508003],[-0.194345,51.505871],[-0.193536,51.504455],[-0.193086,51.504188],[-0.192238,51.504129],[-0.191125,51.502413],[-0.190914,51.501915],[-0.191423,51.501788],[-0.193434,51.500866],[-0.198826,51.498952],[-0.200366,51.498625],[-0.206427,51.496417],[-0.207917,51.495999],[-0.209684,51.495773],[-0.211455,51.495054],[-0.210563,51.494379],[-0.208236,51.493018],[-0.207803,51.49263],[-0.207381,51.492061],[-0.207246,51.491438],[-0.205964,51.489242],[-0.205533,51.488858],[-0.204266,51.488461],[-0.20414,51.48836],[-0.203395,51.48717],[-0.202474,51.485313],[-0.199894,51.482072],[-0.199297,51.481505],[-0.198862,51.480114],[-0.198639,51.47993],[-0.198134,51.480309],[-0.197595,51.480481],[-0.195669,51.480002],[-0.195563,51.479784],[-0.191679,51.477116],[-0.192802,51.476406],[-0.192814,51.476082],[-0.192122,51.474291],[-0.191714,51.472954],[-0.190819,51.469001],[-0.190533,51.468241],[-0.190116,51.467498],[-0.189514,51.466706],[-0.186047,51.463001],[-0.185793,51.462871],[-0.185033,51.462797],[-0.184697,51.462549],[-0.184776,51.462019],[-0.184939,51.461905],[-0.185215,51.461837],[-0.187316,51.461861],[-0.187469,51.461629],[-0.187234,51.461365],[-0.188432,51.460206],[-0.190234,51.459424],[-0.190486,51.459239],[-0.190549,51.459105],[-0.1904,51.4585],[-0.189833,51.457188],[-0.189814,51.456918],[-0.190209,51.45678],[-0.190988,51.45672],[-0.192745,51.456775],[-0.192809,51.456541],[-0.192643,51.456017],[-0.192746,51.454868],[-0.192428,51.454161],[-0.192988,51.454063]]}},{"type":"Feature","properties":{"routeId":"Y28","direction":"2","sourceDate":"20260905"},"geometry":{"type":"LineString","coordinates":[[-0.192153,51.453892],[-0.192523,51.454298],[-0.192746,51.454868],[-0.192769,51.455138],[-0.192632,51.455927],[-0.192875,51.456725],[-0.192754,51.456755],[-0.192306,51.45738],[-0.191976,51.458686],[-0.192099,51.458859],[-0.191796,51.458854],[-0.189108,51.459874],[-0.188432,51.460206],[-0.18731,51.461267],[-0.187218,51.461419],[-0.187469,51.461629],[-0.187406,51.461763],[-0.187316,51.461861],[-0.186923,51.461911],[-0.186267,51.462168],[-0.186174,51.462688],[-0.186363,51.463366],[-0.189514,51.466706],[-0.190116,51.467498],[-0.190533,51.468241],[-0.190819,51.469001],[-0.191714,51.472954],[-0.192122,51.474291],[-0.192814,51.476082],[-0.192994,51.476264],[-0.191679,51.477116],[-0.195563,51.479784],[-0.195669,51.480002],[-0.197595,51.480481],[-0.197973,51.480397],[-0.198639,51.47993],[-0.198862,51.480114],[-0.19927,51.48146],[-0.199657,51.481815],[-0.201337,51.483829],[-0.202474,51.485313],[-0.203394,51.487179],[-0.20414,51.48836],[-0.204465,51.488536],[-0.205533,51.488858],[-0.205964,51.489242],[-0.207246,51.491438],[-0.207381,51.492061],[-0.207859,51.492697],[-0.208152,51.492953],[-0.210546,51.494366],[-0.211455,51.495054],[-0.209902,51.495714],[-0.208885,51.495923],[-0.207917,51.495999],[-0.206621,51.496347],[-0.204603,51.497117],[-0.20444,51.49724],[-0.200762,51.498489],[-0.198693,51.499022],[-0.193022,51.501075],[-0.191688,51.501639],[-0.191232,51.501932],[-0.191058,51.502277],[-0.192238,51.504129],[-0.193229,51.504226],[-0.193619,51.504556],[-0.194345,51.505871],[-0.1953,51.50906],[-0.195526,51.509171],[-0.19821,51.508718],[-0.200767,51.50855],[-0.203875,51.507626],[-0.209508,51.50613],[-0.214738,51.505059],[-0.215935,51.504645],[-0.21606,51.504395],[-0.216487,51.504177],[-0.217159,51.504304],[-0.218126,51.504274],[-0.218353,51.504358],[-0.218072,51.505649],[-0.219152,51.507886],[-0.219746,51.50964],[-0.220033,51.50968],[-0.221408,51.509521],[-0.222009,51.50927],[-0.222958,51.509329],[-0.222591,51.509135],[-0.222554,51.508226],[-0.222801,51.508176],[-0.223524,51.508115],[-0.224011,51.508185],[-0.224063,51.508321],[-0.224003,51.509042]]}}]}