{"type":"FeatureCollection","metadata":{"routeId":"Y31","sourceDate":"20260905","source":"https://bus.data.tfl.gov.uk/bus-geometry/"},"features":[{"type":"Feature","properties":{"routeId":"Y31","direction":"1","sourceDate":"20260905"},"geometry":{"type":"MultiLineString","coordinates":[[[-0.140539,51.538163],[-0.140066,51.537674],[-0.140055,51.537575],[-0.141098,51.537115],[-0.143643,51.540123],[-0.144252,51.540744],[-0.146587,51.542193],[-0.148009,51.542701],[-0.151026,51.543324],[-0.153219,51.544024],[-0.153482,51.543929],[-0.160888,51.543758],[-0.163155,51.543529],[-0.170337,51.542601],[-0.171468,51.542088],[-0.174973,51.541693],[-0.175157,51.541786],[-0.175204,51.542066],[-0.175093,51.54316],[-0.175373,51.543975],[-0.175758,51.544421],[-0.17622,51.544779],[-0.177724,51.545396],[-0.178099,51.544891],[-0.179626,51.542197],[-0.179589,51.542026],[-0.179349,51.541896],[-0.179383,51.541771],[-0.187333,51.539853],[-0.191203,51.538276],[-0.191346,51.537945],[-0.192724,51.537355],[-0.192152,51.536879],[-0.193814,51.534593],[-0.1923,51.533149],[-0.192336,51.53297],[-0.193193,51.531724],[-0.196318,51.528006],[-0.196557,51.527585],[-0.1972,51.527721],[-0.197457,51.525243],[-0.201181,51.524392],[-0.201563,51.524209],[-0.203218,51.524999],[-0.205378,51.526174],[-0.209362,51.526774],[-0.212537,51.527057],[-0.213969,51.527285],[-0.215594,51.527769],[-0.217639,51.528546],[-0.221661,51.529309],[-0.223827,51.529962],[-0.225492,51.530158],[-0.227626,51.530154],[-0.228199,51.530235],[-0.229233,51.530709],[-0.23049,51.531016],[-0.231428,51.531363],[-0.234333,51.532665],[-0.23735,51.532207],[-0.23703,51.529658],[-0.235915,51.528301],[-0.235419,51.52737],[-0.235915,51.528301],[-0.23703,51.529658],[-0.23735,51.532207],[-0.234333,51.532665],[-0.231428,51.531363],[-0.23049,51.531016],[-0.229233,51.530709],[-0.228199,51.530235],[-0.227626,51.530154],[-0.225492,51.530158],[-0.223827,51.529962],[-0.221661,51.529309],[-0.217639,51.528546],[-0.215594,51.527769],[-0.213969,51.527285],[-0.212537,51.527057],[-0.209362,51.526774],[-0.205378,51.526174],[-0.203218,51.524999],[-0.201563,51.524209],[-0.201181,51.524392],[-0.197457,51.525243],[-0.197658,51.523439],[-0.200288,51.523831],[-0.201293,51.524097],[-0.203254,51.525018],[-0.205378,51.526174],[-0.209362,51.526774],[-0.213296,51.527167],[-0.214901,51.52754],[-0.217415,51.528475],[-0.21821,51.528699],[-0.221661,51.529309],[-0.223495,51.529886],[-0.225492,51.530158],[-0.228013,51.530196],[-0.22837,51.530282],[-0.229233,51.530709],[-0.23049,51.531016],[-0.231428,51.531363],[-0.234034,51.53258],[-0.234419,51.532676],[-0.23735,51.532207],[-0.23703,51.529658],[-0.235915,51.528301],[-0.23535,51.527249],[-0.234548,51.526356],[-0.234385,51.525355],[-0.234206,51.525146],[-0.232646,51.524106],[-0.232277,51.523228],[-0.231123,51.522483],[-0.228148,51.520028],[-0.22816,51.519353],[-0.228067,51.518881],[-0.227296,51.51711],[-0.226567,51.515831],[-0.226277,51.515503],[-0.225812,51.514498],[-0.225847,51.514346],[-0.225691,51.513903],[-0.225027,51.512445],[-0.224767,51.511579],[-0.224577,51.510334],[-0.224558,51.509326],[-0.222958,51.509329],[-0.222591,51.509135],[-0.222554,51.508226],[-0.223524,51.508115],[-0.223941,51.508139],[-0.224052,51.508239],[-0.223963,51.509031]],[[-0.140539,51.538163],[-0.140066,51.537674],[-0.140055,51.537575],[-0.141098,51.537115],[-0.143643,51.540123],[-0.144252,51.540744],[-0.146587,51.542193],[-0.148009,51.542701],[-0.151026,51.543324],[-0.153219,51.544024],[-0.153482,51.543929],[-0.160888,51.543758],[-0.163155,51.543529],[-0.170337,51.542601],[-0.171468,51.542088],[-0.174973,51.541693],[-0.175157,51.541786],[-0.175204,51.542066],[-0.175093,51.54316],[-0.175373,51.543975],[-0.175758,51.544421],[-0.17622,51.544779],[-0.177724,51.545396],[-0.178099,51.544891],[-0.179626,51.542197],[-0.179589,51.542026],[-0.179349,51.541896],[-0.179383,51.541771],[-0.187333,51.539853],[-0.191203,51.538276],[-0.191346,51.537945],[-0.192724,51.537355],[-0.192152,51.536879],[-0.193814,51.534593],[-0.1923,51.533149],[-0.192336,51.53297],[-0.192763,51.532374],[-0.192783,51.53223],[-0.193163,51.531751],[-0.192336,51.53297],[-0.1923,51.533149],[-0.193774,51.534521],[-0.193798,51.534638],[-0.193902,51.534568],[-0.193921,51.534442],[-0.193876,51.533767],[-0.193093,51.53389],[-0.1923,51.533149],[-0.192383,51.532872],[-0.193163,51.531751],[-0.196318,51.528006],[-0.196557,51.527585],[-0.1972,51.527721],[-0.197457,51.525243],[-0.200428,51.524557]]]}},{"type":"Feature","properties":{"routeId":"Y31","direction":"2","sourceDate":"20260905"},"geometry":{"type":"MultiLineString","coordinates":[[[-0.223679,51.508567],[-0.223591,51.508988],[-0.223805,51.509027],[-0.22388,51.508219],[-0.222652,51.50829],[-0.222561,51.508406],[-0.222591,51.509135],[-0.222958,51.509329],[-0.224558,51.509326],[-0.224675,51.511118],[-0.225027,51.512445],[-0.225845,51.514353],[-0.226269,51.514981],[-0.226628,51.515953],[-0.227296,51.51711],[-0.228083,51.518848],[-0.228148,51.520028],[-0.230871,51.522299],[-0.232277,51.523228],[-0.232646,51.524106],[-0.234206,51.525146],[-0.234385,51.525355],[-0.234548,51.526356],[-0.235461,51.527388],[-0.235915,51.528301],[-0.23703,51.529658],[-0.23735,51.532207],[-0.234333,51.532665],[-0.231362,51.531338],[-0.23049,51.531016],[-0.229003,51.530611],[-0.22837,51.530282],[-0.228013,51.530196],[-0.225492,51.530158],[-0.223527,51.529894],[-0.221661,51.529309],[-0.21821,51.528699],[-0.21474,51.527486],[-0.212921,51.527113],[-0.209029,51.526714],[-0.20562,51.526232],[-0.205207,51.526108],[-0.202554,51.524665],[-0.201563,51.524209],[-0.201181,51.524392],[-0.197457,51.525243],[-0.1972,51.527721],[-0.196557,51.527585],[-0.195953,51.528456],[-0.193193,51.531724],[-0.192383,51.532872],[-0.1923,51.533149],[-0.193814,51.534593],[-0.192152,51.536879],[-0.192724,51.537355],[-0.191346,51.537945],[-0.191188,51.538285],[-0.187333,51.539853],[-0.180228,51.541568],[-0.179662,51.542009],[-0.179404,51.54196],[-0.179368,51.541798],[-0.177267,51.542044],[-0.177081,51.541996],[-0.176648,51.541656],[-0.176274,51.541624],[-0.175333,51.541726],[-0.175204,51.542066],[-0.175089,51.543143],[-0.174897,51.543248],[-0.174694,51.543272],[-0.174483,51.543134],[-0.173544,51.542094],[-0.173319,51.541956],[-0.172918,51.541895],[-0.171468,51.542088],[-0.170483,51.54255],[-0.169914,51.542669],[-0.161436,51.54372],[-0.153482,51.543929],[-0.153144,51.544077],[-0.151026,51.543324],[-0.14908,51.54296],[-0.147643,51.542594],[-0.146587,51.542193],[-0.145893,51.541773],[-0.144384,51.542805],[-0.144063,51.542899],[-0.141864,51.542729],[-0.139922,51.540496],[-0.141007,51.540054],[-0.14176,51.539625],[-0.141779,51.539491],[-0.141516,51.539191]],[[-0.200632,51.524518],[-0.197457,51.525243],[-0.1972,51.527721],[-0.196557,51.527585],[-0.195953,51.528456],[-0.193193,51.531724],[-0.192383,51.532872],[-0.1923,51.533149],[-0.193814,51.534593],[-0.192152,51.536879],[-0.192724,51.537355],[-0.191346,51.537945],[-0.191188,51.538285],[-0.187333,51.539853],[-0.180228,51.541568],[-0.179662,51.542009],[-0.179404,51.54196],[-0.179368,51.541798],[-0.177267,51.542044],[-0.177081,51.541996],[-0.176648,51.541656],[-0.176274,51.541624],[-0.175333,51.541726],[-0.175204,51.542066],[-0.175089,51.543143],[-0.174897,51.543248],[-0.174694,51.543272],[-0.174483,51.543134],[-0.173544,51.542094],[-0.173319,51.541956],[-0.172918,51.541895],[-0.171468,51.542088],[-0.170483,51.54255],[-0.169914,51.542669],[-0.161436,51.54372],[-0.153482,51.543929],[-0.153144,51.544077],[-0.151026,51.543324],[-0.14908,51.54296],[-0.147709,51.542615],[-0.146587,51.542193],[-0.145893,51.541773],[-0.144252,51.542866],[-0.141864,51.542729],[-0.139922,51.540496],[-0.141007,51.540054],[-0.14176,51.539625],[-0.141779,51.539491],[-0.141516,51.539191]]]}}]}