{"type":"FeatureCollection","metadata":{"routeId":"Y316","sourceDate":"20260905","source":"https://bus.data.tfl.gov.uk/bus-geometry/"},"features":[{"type":"Feature","properties":{"routeId":"Y316","direction":"1","sourceDate":"20260905"},"geometry":{"type":"LineString","coordinates":[[-0.227986,51.56874],[-0.228453,51.569005],[-0.229221,51.569246],[-0.229546,51.569084],[-0.229537,51.568958],[-0.228675,51.5681],[-0.226119,51.566338],[-0.22138,51.562396],[-0.218959,51.559767],[-0.217858,51.558764],[-0.215702,51.557076],[-0.215383,51.556748],[-0.21517,51.556664],[-0.2118,51.553582],[-0.207231,51.550194],[-0.200483,51.543922],[-0.197102,51.541161],[-0.192152,51.536879],[-0.193814,51.534593],[-0.1923,51.533149],[-0.192336,51.53297],[-0.192902,51.532142],[-0.201709,51.532565],[-0.202651,51.532814],[-0.203068,51.532838],[-0.202031,51.530628],[-0.20142,51.528559],[-0.1972,51.527721],[-0.197457,51.525243],[-0.198076,51.525087]]}},{"type":"Feature","properties":{"routeId":"Y316","direction":"2","sourceDate":"20260905"},"geometry":{"type":"LineString","coordinates":[[-0.200428,51.524557],[-0.201181,51.524392],[-0.201563,51.524209],[-0.200652,51.523898],[-0.197658,51.523439],[-0.1972,51.527721],[-0.20142,51.528559],[-0.202031,51.530628],[-0.203068,51.532838],[-0.204666,51.532916],[-0.204518,51.533004],[-0.204478,51.533291],[-0.204198,51.53344],[-0.20401,51.533446],[-0.203546,51.533142],[-0.202296,51.532673],[-0.201709,51.532565],[-0.200789,51.532603],[-0.198111,51.532393],[-0.192902,51.532142],[-0.192383,51.532872],[-0.1923,51.533149],[-0.193814,51.534593],[-0.192152,51.536879],[-0.196948,51.541035],[-0.200483,51.543922],[-0.207231,51.550194],[-0.2118,51.553582],[-0.212828,51.554578],[-0.214717,51.556217],[-0.215987,51.557171],[-0.218335,51.559178],[-0.219,51.559806],[-0.22138,51.562396],[-0.225925,51.566199],[-0.224777,51.566683],[-0.226176,51.567801],[-0.226999,51.568155],[-0.227986,51.56874]]}}]}