{"type":"FeatureCollection","metadata":{"routeId":"Y328","sourceDate":"20260905","source":"https://bus.data.tfl.gov.uk/bus-geometry/"},"features":[{"type":"Feature","properties":{"routeId":"Y328","direction":"1","sourceDate":"20260905"},"geometry":{"type":"MultiLineString","coordinates":[[[-0.193884,51.571614],[-0.193924,51.571509],[-0.195017,51.571616],[-0.195352,51.571171],[-0.194798,51.568411],[-0.194867,51.567996],[-0.196514,51.564768],[-0.19717,51.56316],[-0.197339,51.562155],[-0.197097,51.560983],[-0.197046,51.559797],[-0.196804,51.559269],[-0.196598,51.559014],[-0.196615,51.558934],[-0.195871,51.55805],[-0.195783,51.557743],[-0.196292,51.556528],[-0.196592,51.555507],[-0.196859,51.554963],[-0.196812,51.554539],[-0.196616,51.554186],[-0.194989,51.553369],[-0.1931,51.55263],[-0.192918,51.552133],[-0.191864,51.551433],[-0.19156,51.551087],[-0.191423,51.550554],[-0.19152,51.549548],[-0.191093,51.548669],[-0.191038,51.548264],[-0.191239,51.546091],[-0.191759,51.544984],[-0.192424,51.544571],[-0.192636,51.544323],[-0.19272,51.544028],[-0.192679,51.543604],[-0.193198,51.542506],[-0.193108,51.542235],[-0.192645,51.541904],[-0.192199,51.541151],[-0.195443,51.539726],[-0.192152,51.536879],[-0.193814,51.534593],[-0.1923,51.533149],[-0.192336,51.53297],[-0.193193,51.531724],[-0.196318,51.528006],[-0.196557,51.527585],[-0.1972,51.527721],[-0.197457,51.525243],[-0.201181,51.524392],[-0.201563,51.524209],[-0.200652,51.523898],[-0.194892,51.523028],[-0.194187,51.522721],[-0.193393,51.521916],[-0.19119,51.520417],[-0.190109,51.519831],[-0.189519,51.519654],[-0.188758,51.51957],[-0.189034,51.518432],[-0.187469,51.516097],[-0.182093,51.517551],[-0.179278,51.515636],[-0.179405,51.515621],[-0.182093,51.517551],[-0.187469,51.516097],[-0.189034,51.518432],[-0.188758,51.51957],[-0.189947,51.519768],[-0.190783,51.520141],[-0.191158,51.520404],[-0.189947,51.519768],[-0.188758,51.51957],[-0.189034,51.518432],[-0.187469,51.516097],[-0.182093,51.517551],[-0.176653,51.513744],[-0.176225,51.513621],[-0.175645,51.51371],[-0.175416,51.513671],[-0.175337,51.513499],[-0.175626,51.513117],[-0.175587,51.512999],[-0.174397,51.512135],[-0.174475,51.511975],[-0.174903,51.511721],[-0.178511,51.511237],[-0.182239,51.510629],[-0.191118,51.510005],[-0.194145,51.509483],[-0.193833,51.508614],[-0.194872,51.508217],[-0.194996,51.508003],[-0.194345,51.505871],[-0.193536,51.504455],[-0.193086,51.504188],[-0.192238,51.504129],[-0.191125,51.502413],[-0.190914,51.501915],[-0.191423,51.501788],[-0.193434,51.500866],[-0.198693,51.499022],[-0.197725,51.497623],[-0.196807,51.496071],[-0.195948,51.495109],[-0.19451,51.493286],[-0.193816,51.492661],[-0.192926,51.492198],[-0.191555,51.49117],[-0.190263,51.489621],[-0.190218,51.489279],[-0.187,51.486163],[-0.184303,51.484089],[-0.184214,51.48415],[-0.183793,51.483865],[-0.181575,51.48169],[-0.180646,51.481874],[-0.178601,51.482597],[-0.179087,51.483064],[-0.178326,51.483366],[-0.178042,51.483094]],[[-0.193884,51.571614],[-0.193924,51.571509],[-0.195017,51.571616],[-0.195352,51.571171],[-0.194798,51.568411],[-0.194867,51.567996],[-0.196514,51.564768],[-0.19717,51.56316],[-0.197339,51.562155],[-0.197097,51.560983],[-0.197046,51.559797],[-0.196804,51.559269],[-0.196598,51.559014],[-0.196615,51.558934],[-0.195871,51.55805],[-0.195783,51.557743],[-0.196292,51.556528],[-0.196592,51.555507],[-0.196859,51.554963],[-0.196812,51.554539],[-0.196616,51.554186],[-0.194989,51.553369],[-0.1931,51.55263],[-0.192918,51.552133],[-0.191864,51.551433],[-0.19156,51.551087],[-0.191423,51.550554],[-0.19152,51.549548],[-0.191093,51.548669],[-0.191038,51.548264],[-0.191239,51.546091],[-0.191759,51.544984],[-0.192424,51.544571],[-0.192636,51.544323],[-0.19272,51.544028],[-0.192679,51.543604],[-0.193198,51.542506],[-0.193108,51.542235],[-0.192645,51.541904],[-0.192199,51.541151],[-0.195443,51.539726],[-0.192152,51.536879],[-0.193814,51.534593],[-0.1923,51.533149],[-0.192336,51.53297],[-0.193193,51.531724],[-0.196318,51.528006],[-0.196557,51.527585],[-0.1972,51.527721],[-0.197658,51.523439],[-0.200288,51.523831]],[[-0.193884,51.571614],[-0.193924,51.571509],[-0.195017,51.571616],[-0.195352,51.571171],[-0.194798,51.568411],[-0.194867,51.567996],[-0.196514,51.564768],[-0.19717,51.56316],[-0.197339,51.562155],[-0.197097,51.560983],[-0.197046,51.559797],[-0.196804,51.559269],[-0.196598,51.559014],[-0.196615,51.558934],[-0.195871,51.55805],[-0.195783,51.557743],[-0.196292,51.556528],[-0.196592,51.555507],[-0.196859,51.554963],[-0.196812,51.554539],[-0.196616,51.554186],[-0.194989,51.553369],[-0.1931,51.55263],[-0.192918,51.552133],[-0.191864,51.551433],[-0.19156,51.551087],[-0.191423,51.550554],[-0.19152,51.549548],[-0.191093,51.548669],[-0.191038,51.548264],[-0.191239,51.546091],[-0.191759,51.544984],[-0.192424,51.544571],[-0.192636,51.544323],[-0.19272,51.544028],[-0.192679,51.543604],[-0.193198,51.542506],[-0.193108,51.542235],[-0.192645,51.541904],[-0.192199,51.541151],[-0.195443,51.539726],[-0.192152,51.536879],[-0.193814,51.534593],[-0.1923,51.533149],[-0.192336,51.53297],[-0.193193,51.531724],[-0.196318,51.528006],[-0.196557,51.527585],[-0.1972,51.527721],[-0.197457,51.525243],[-0.201181,51.524392],[-0.201563,51.524209],[-0.200652,51.523898],[-0.194892,51.523028],[-0.194187,51.522721],[-0.193393,51.521916],[-0.19119,51.520417],[-0.190109,51.519831],[-0.189519,51.519654],[-0.188758,51.51957],[-0.189034,51.518432],[-0.187469,51.516097],[-0.182093,51.517551],[-0.179278,51.515636],[-0.179405,51.515621],[-0.182093,51.517551],[-0.187469,51.516097],[-0.189034,51.518432],[-0.188758,51.51957],[-0.189947,51.519768],[-0.190783,51.520141],[-0.191158,51.520404],[-0.189947,51.519768],[-0.188758,51.51957],[-0.189034,51.518432],[-0.187469,51.516097],[-0.182093,51.517551],[-0.176653,51.513744],[-0.176225,51.513621],[-0.175645,51.51371],[-0.175416,51.513671],[-0.175337,51.513499],[-0.175626,51.513117],[-0.175587,51.512999],[-0.174397,51.512135],[-0.174475,51.511975],[-0.174903,51.511721],[-0.178511,51.511237],[-0.182239,51.510629],[-0.191118,51.510005],[-0.194145,51.509483],[-0.193833,51.508614],[-0.194872,51.508217],[-0.194996,51.508003],[-0.194345,51.505871],[-0.193536,51.504455],[-0.193086,51.504188],[-0.192238,51.504129],[-0.191125,51.502413],[-0.190914,51.501915],[-0.191423,51.501788],[-0.193434,51.500866],[-0.198693,51.499022],[-0.197725,51.497623],[-0.196807,51.496071],[-0.195948,51.495109],[-0.19451,51.493286],[-0.193816,51.492661],[-0.192926,51.492198],[-0.191264,51.490896],[-0.190792,51.490189],[-0.190263,51.489621],[-0.190218,51.489279],[-0.187,51.486163],[-0.184303,51.484089],[-0.184214,51.48415],[-0.183793,51.483865],[-0.181575,51.48169],[-0.180646,51.481874],[-0.179094,51.482403]],[[-0.191139,51.546714],[-0.19132,51.545858],[-0.191759,51.544984],[-0.192424,51.544571],[-0.192636,51.544323],[-0.19272,51.544028],[-0.192679,51.543604],[-0.193198,51.542506],[-0.193108,51.542235],[-0.192645,51.541904],[-0.192199,51.541151],[-0.195443,51.539726],[-0.192152,51.536879],[-0.193814,51.534593],[-0.1923,51.533149],[-0.192336,51.53297],[-0.193193,51.531724],[-0.196318,51.528006],[-0.196557,51.527585],[-0.1972,51.527721],[-0.197658,51.523439],[-0.200288,51.523831]]]}},{"type":"Feature","properties":{"routeId":"Y328","direction":"2","sourceDate":"20260905"},"geometry":{"type":"MultiLineString","coordinates":[[[-0.178042,51.483094],[-0.17784,51.4829],[-0.179279,51.482333],[-0.180646,51.481874],[-0.182346,51.481496],[-0.183294,51.481195],[-0.186522,51.484429],[-0.189978,51.486631],[-0.190655,51.486984],[-0.192461,51.488675],[-0.193191,51.488794],[-0.193541,51.489042],[-0.200002,51.492496],[-0.20083,51.493052],[-0.201958,51.494037],[-0.196715,51.495853],[-0.197265,51.496878],[-0.198693,51.499022],[-0.193022,51.501075],[-0.191688,51.501639],[-0.191232,51.501932],[-0.191062,51.502178],[-0.191058,51.502277],[-0.192238,51.504129],[-0.193229,51.504226],[-0.193619,51.504556],[-0.194442,51.506132],[-0.195363,51.509276],[-0.191575,51.509964],[-0.182053,51.510653],[-0.176309,51.511536],[-0.176012,51.511756],[-0.175705,51.512947],[-0.175882,51.513201],[-0.182093,51.517551],[-0.187469,51.516097],[-0.189034,51.518432],[-0.188758,51.51957],[-0.189947,51.519768],[-0.190528,51.520011],[-0.193393,51.521916],[-0.194015,51.522609],[-0.19451,51.522894],[-0.195249,51.523096],[-0.200288,51.523831],[-0.201563,51.524209],[-0.201181,51.524392],[-0.197457,51.525243],[-0.1972,51.527721],[-0.196557,51.527585],[-0.195953,51.528456],[-0.193193,51.531724],[-0.192383,51.532872],[-0.1923,51.533149],[-0.193814,51.534593],[-0.192152,51.536879],[-0.195443,51.539726],[-0.192199,51.541151],[-0.192645,51.541904],[-0.193149,51.542281],[-0.193198,51.542506],[-0.192679,51.543604],[-0.19272,51.544028],[-0.192636,51.544323],[-0.192484,51.544527],[-0.191759,51.544984],[-0.191189,51.546252],[-0.191038,51.548264],[-0.191158,51.548868],[-0.19152,51.549548],[-0.191423,51.550554],[-0.19156,51.551087],[-0.19203,51.551598],[-0.192918,51.552133],[-0.1931,51.55263],[-0.194989,51.553369],[-0.196588,51.554168],[-0.196881,51.554763],[-0.196122,51.55699],[-0.195783,51.557743],[-0.195871,51.55805],[-0.196615,51.558934],[-0.196598,51.559014],[-0.196804,51.559269],[-0.197046,51.559797],[-0.197097,51.560983],[-0.197334,51.562281],[-0.19717,51.56316],[-0.196349,51.565131],[-0.194856,51.568025],[-0.194798,51.568411],[-0.195478,51.571631],[-0.194841,51.572063]],[[-0.179279,51.482333],[-0.180646,51.481874],[-0.182346,51.481496],[-0.183294,51.481195],[-0.186522,51.484429],[-0.189978,51.486631],[-0.190655,51.486984],[-0.192461,51.488675],[-0.193191,51.488794],[-0.193541,51.489042],[-0.200002,51.492496],[-0.20083,51.493052],[-0.201958,51.494037],[-0.196715,51.495853],[-0.197265,51.496878],[-0.198693,51.499022],[-0.193022,51.501075],[-0.191688,51.501639],[-0.191232,51.501932],[-0.191062,51.502178],[-0.191058,51.502277],[-0.192238,51.504129],[-0.193229,51.504226],[-0.193619,51.504556],[-0.194442,51.506132],[-0.195363,51.509276],[-0.191575,51.509964],[-0.182053,51.510653],[-0.176309,51.511536],[-0.176012,51.511756],[-0.175705,51.512947],[-0.175882,51.513201],[-0.177676,51.514461],[-0.176379,51.515179],[-0.180324,51.517821],[-0.180553,51.51786],[-0.180224,51.518161],[-0.177981,51.519457],[-0.178003,51.519628],[-0.178981,51.520048],[-0.179858,51.520098],[-0.180725,51.520058],[-0.184883,51.519528],[-0.189357,51.519628],[-0.189947,51.519768],[-0.190528,51.520011],[-0.193393,51.521916],[-0.194015,51.522609],[-0.19451,51.522894],[-0.195249,51.523096],[-0.200288,51.523831],[-0.201563,51.524209],[-0.201181,51.524392],[-0.197457,51.525243],[-0.1972,51.527721],[-0.196557,51.527585],[-0.195953,51.528456],[-0.193193,51.531724],[-0.192383,51.532872],[-0.1923,51.533149],[-0.193814,51.534593],[-0.192152,51.536879],[-0.195443,51.539726],[-0.192199,51.541151],[-0.192645,51.541904],[-0.193149,51.542281],[-0.193198,51.542506],[-0.192679,51.543604],[-0.19272,51.544028],[-0.192636,51.544323],[-0.192484,51.544527],[-0.191759,51.544984],[-0.191189,51.546252],[-0.191038,51.548264],[-0.191158,51.548868],[-0.19152,51.549548],[-0.191423,51.550554],[-0.19156,51.551087],[-0.19203,51.551598],[-0.192918,51.552133],[-0.1931,51.55263],[-0.194989,51.553369],[-0.196588,51.554168],[-0.196881,51.554763],[-0.196122,51.55699],[-0.195783,51.557743],[-0.195871,51.55805],[-0.196615,51.558934],[-0.196598,51.559014],[-0.196804,51.559269],[-0.197046,51.559797],[-0.197097,51.560983],[-0.197334,51.562281],[-0.19717,51.56316],[-0.196349,51.565131],[-0.194856,51.568025],[-0.194798,51.568411],[-0.195478,51.571631],[-0.194841,51.572063]]]}}]}