{"type":"FeatureCollection","metadata":{"routeId":"Y36S","sourceDate":"20260905","source":"https://bus.data.tfl.gov.uk/bus-geometry/"},"features":[{"type":"Feature","properties":{"routeId":"Y36S","direction":"1","sourceDate":"20260905"},"geometry":{"type":"LineString","coordinates":[[-0.200428,51.524557],[-0.201181,51.524392],[-0.201527,51.524196],[-0.200352,51.52384],[-0.194664,51.522961],[-0.193945,51.522545],[-0.193393,51.521916],[-0.19119,51.520417],[-0.190566,51.520164],[-0.188754,51.519678],[-0.188995,51.518692],[-0.189047,51.518109],[-0.188313,51.517369],[-0.187469,51.516097],[-0.180389,51.517993],[-0.179183,51.517156],[-0.179046,51.516983],[-0.176379,51.515179],[-0.169096,51.519256],[-0.162561,51.51479],[-0.160034,51.51323],[-0.158753,51.513374],[-0.158461,51.513326],[-0.158313,51.513215],[-0.1567,51.510339],[-0.154824,51.508969],[-0.153784,51.507964],[-0.151444,51.505958],[-0.151037,51.505486],[-0.150913,51.505059],[-0.151119,51.504028],[-0.150886,51.503377],[-0.150788,51.503303],[-0.149996,51.503291],[-0.149787,51.503108],[-0.149869,51.502498],[-0.151201,51.501997],[-0.151323,51.501837],[-0.151316,51.501657],[-0.149097,51.500228],[-0.147967,51.499241],[-0.147144,51.4983],[-0.146758,51.498213],[-0.145027,51.498267],[-0.143872,51.498076],[-0.145212,51.496192],[-0.144756,51.496059],[-0.144433,51.496234],[-0.14321,51.496188],[-0.142817,51.496289],[-0.142661,51.496233],[-0.142396,51.495995],[-0.141961,51.495285],[-0.14076,51.494089],[-0.133081,51.490383],[-0.125525,51.486896],[-0.12483,51.486633],[-0.124059,51.486477],[-0.123925,51.486214],[-0.12487,51.48461],[-0.124756,51.484581],[-0.123922,51.485944],[-0.123641,51.486128],[-0.123161,51.486246],[-0.121233,51.486189],[-0.119192,51.486434],[-0.118484,51.484724],[-0.116999,51.484079],[-0.116895,51.483808],[-0.116592,51.483461],[-0.115716,51.482979],[-0.114619,51.482755],[-0.113566,51.482801],[-0.113146,51.482601],[-0.112376,51.481964],[-0.106583,51.479599],[-0.10549,51.479245],[-0.104574,51.478762],[-0.093575,51.474178],[-0.091748,51.474148],[-0.091235,51.474014],[-0.087987,51.473563],[-0.086692,51.47349],[-0.083297,51.473758],[-0.080517,51.473767],[-0.078456,51.474143],[-0.075454,51.474323],[-0.072304,51.473542],[-0.070432,51.473364],[-0.068502,51.473911],[-0.062316,51.474106],[-0.059936,51.473869],[-0.058439,51.473502],[-0.056439,51.473372],[-0.055074,51.473051],[-0.053394,51.472942],[-0.05276,51.472967],[-0.052005,51.473117],[-0.049817,51.473764],[-0.048455,51.473976],[-0.047646,51.474015],[-0.046178,51.474333],[-0.044897,51.474338]]}}]}