{"type":"FeatureCollection","metadata":{"routeId":"Y52C","sourceDate":"20260905","source":"https://bus.data.tfl.gov.uk/bus-geometry/"},"features":[{"type":"Feature","properties":{"routeId":"Y52C","direction":"1","sourceDate":"20260905"},"geometry":{"type":"LineString","coordinates":[[-0.144007,51.49593],[-0.143445,51.496074],[-0.143077,51.496258],[-0.142944,51.496354],[-0.142921,51.49657],[-0.145088,51.496757],[-0.146322,51.497235],[-0.146909,51.498044],[-0.14817,51.499426],[-0.149097,51.500228],[-0.151596,51.501859],[-0.152041,51.502235],[-0.152349,51.502824],[-0.152648,51.502901],[-0.156447,51.502313],[-0.158714,51.502187],[-0.160841,51.501609],[-0.164441,51.501666],[-0.170641,51.501933],[-0.173308,51.501828],[-0.176605,51.501586],[-0.178781,51.501565],[-0.181208,51.501423],[-0.182922,51.501547],[-0.185563,51.502048],[-0.188014,51.502365],[-0.188777,51.502386],[-0.190533,51.502071],[-0.190914,51.501915],[-0.191125,51.502413],[-0.192238,51.504129],[-0.193229,51.504226],[-0.193619,51.504556],[-0.194345,51.505871],[-0.195054,51.508149]]}},{"type":"Feature","properties":{"routeId":"Y52C","direction":"2","sourceDate":"20260905"},"geometry":{"type":"LineString","coordinates":[[-0.194029,51.509086],[-0.193833,51.508614],[-0.194872,51.508217],[-0.194996,51.508003],[-0.194345,51.505871],[-0.193536,51.504455],[-0.193086,51.504188],[-0.192238,51.504129],[-0.191125,51.502413],[-0.190968,51.502015],[-0.188777,51.502386],[-0.188251,51.502375],[-0.186084,51.502154],[-0.182531,51.501489],[-0.181315,51.501428],[-0.178983,51.501578],[-0.176384,51.5016],[-0.17104,51.501929],[-0.167142,51.50183],[-0.164974,51.501683],[-0.162279,51.501677],[-0.161508,51.501871],[-0.160529,51.501856],[-0.158336,51.502271],[-0.157096,51.502297],[-0.153698,51.502954],[-0.152225,51.503047],[-0.151019,51.503298],[-0.150096,51.503311],[-0.149787,51.503108],[-0.149869,51.502498],[-0.151201,51.501997],[-0.151323,51.501837],[-0.151316,51.501657],[-0.149097,51.500228],[-0.147734,51.499011],[-0.147144,51.4983],[-0.146768,51.498215],[-0.145027,51.498267],[-0.143872,51.498076],[-0.145212,51.496192],[-0.144007,51.49593]]}}]}