{"type":"FeatureCollection","metadata":{"routeId":"Y52K","sourceDate":"20260905","source":"https://bus.data.tfl.gov.uk/bus-geometry/"},"features":[{"type":"Feature","properties":{"routeId":"Y52K","direction":"1","sourceDate":"20260905"},"geometry":{"type":"LineString","coordinates":[[-0.219104,51.533721],[-0.218874,51.533861],[-0.219449,51.534643],[-0.21995,51.53511],[-0.221369,51.536804],[-0.224727,51.539813],[-0.225681,51.540871],[-0.225956,51.541576],[-0.225811,51.542537],[-0.225467,51.542758],[-0.224511,51.543146],[-0.227099,51.545937],[-0.227107,51.546108],[-0.227958,51.546453],[-0.229057,51.547144],[-0.230721,51.547008],[-0.23401,51.547354],[-0.23576,51.547596],[-0.236472,51.547777],[-0.239056,51.548904],[-0.239418,51.548865],[-0.240075,51.548614]]}},{"type":"Feature","properties":{"routeId":"Y52K","direction":"2","sourceDate":"20260905"},"geometry":{"type":"LineString","coordinates":[[-0.240123,51.547734],[-0.24071,51.548264],[-0.239812,51.548736],[-0.239056,51.548904],[-0.23683,51.547891],[-0.23576,51.547596],[-0.230721,51.547008],[-0.229057,51.547144],[-0.228266,51.546627],[-0.227107,51.546108],[-0.227099,51.545937],[-0.224511,51.543146],[-0.22558,51.542704],[-0.225774,51.542553],[-0.225856,51.542356],[-0.225946,51.541468],[-0.225816,51.541098],[-0.225557,51.540707],[-0.224087,51.53921],[-0.22148,51.536913],[-0.219263,51.534384]]}}]}