{"type":"FeatureCollection","metadata":{"routeId":"Y52N","sourceDate":"20260905","source":"https://bus.data.tfl.gov.uk/bus-geometry/"},"features":[{"type":"Feature","properties":{"routeId":"Y52N","direction":"1","sourceDate":"20260905"},"geometry":{"type":"LineString","coordinates":[[-0.144007,51.49593],[-0.143445,51.496074],[-0.143077,51.496258],[-0.142944,51.496354],[-0.142921,51.49657],[-0.145088,51.496757],[-0.146322,51.497235],[-0.146909,51.498044],[-0.14817,51.499426],[-0.149097,51.500228],[-0.150966,51.5014],[-0.152041,51.502235],[-0.152365,51.502789],[-0.1523,51.502959],[-0.152225,51.503047],[-0.151178,51.503274],[-0.151128,51.503435],[-0.151336,51.503996],[-0.152008,51.504123],[-0.152258,51.50437],[-0.151989,51.505073],[-0.151965,51.505543],[-0.15224,51.506222],[-0.154093,51.507798],[-0.157267,51.510213],[-0.158038,51.511233],[-0.158576,51.512419],[-0.158885,51.512612],[-0.160725,51.51238],[-0.161094,51.512512],[-0.16147,51.512833],[-0.161466,51.512941],[-0.161267,51.513104],[-0.160775,51.51316],[-0.160573,51.513295],[-0.16054,51.513384],[-0.160675,51.513611],[-0.165117,51.516458],[-0.166715,51.517519],[-0.168254,51.518685],[-0.170054,51.519819],[-0.176811,51.519897],[-0.17766,51.519569],[-0.177933,51.5196],[-0.178981,51.520048],[-0.180204,51.520094],[-0.184883,51.519528],[-0.189357,51.519628],[-0.189947,51.519768],[-0.190528,51.520011],[-0.193393,51.521916],[-0.194015,51.522609],[-0.19451,51.522894],[-0.195249,51.523096],[-0.200288,51.523831],[-0.201293,51.524097],[-0.203254,51.525018],[-0.205378,51.526174],[-0.209362,51.526774],[-0.213296,51.527167],[-0.214901,51.52754],[-0.216049,51.527928],[-0.216095,51.528972],[-0.215913,51.529775],[-0.218599,51.533516],[-0.218846,51.533474],[-0.219137,51.533758],[-0.218874,51.533861],[-0.219449,51.534643],[-0.21995,51.53511],[-0.221369,51.536804],[-0.224727,51.539813],[-0.225681,51.540871],[-0.225956,51.541576],[-0.225811,51.542537],[-0.225467,51.542758],[-0.224511,51.543146],[-0.227099,51.545937],[-0.227107,51.546108],[-0.227958,51.546453],[-0.229057,51.547144],[-0.230721,51.547008],[-0.23401,51.547354],[-0.23576,51.547596],[-0.236472,51.547777],[-0.239056,51.548904],[-0.239418,51.548865],[-0.240075,51.548614]]}},{"type":"Feature","properties":{"routeId":"Y52N","direction":"2","sourceDate":"20260905"},"geometry":{"type":"LineString","coordinates":[[-0.240123,51.547734],[-0.24071,51.548264],[-0.239812,51.548736],[-0.239056,51.548904],[-0.23683,51.547891],[-0.23576,51.547596],[-0.230721,51.547008],[-0.229057,51.547144],[-0.228266,51.546627],[-0.227107,51.546108],[-0.227099,51.545937],[-0.224511,51.543146],[-0.22558,51.542704],[-0.225774,51.542553],[-0.225956,51.541576],[-0.225816,51.541098],[-0.225557,51.540707],[-0.224727,51.539813],[-0.22148,51.536913],[-0.21995,51.53511],[-0.219449,51.534643],[-0.218378,51.533212],[-0.215913,51.529775],[-0.216095,51.528972],[-0.216049,51.527928],[-0.214341,51.527372],[-0.212921,51.527113],[-0.209029,51.526714],[-0.20562,51.526232],[-0.205207,51.526108],[-0.202554,51.524665],[-0.201293,51.524097],[-0.200652,51.523898],[-0.194664,51.522961],[-0.193945,51.522545],[-0.193393,51.521916],[-0.19119,51.520417],[-0.190566,51.520164],[-0.188754,51.519678],[-0.188995,51.518692],[-0.189047,51.518109],[-0.188313,51.517369],[-0.187468,51.516091],[-0.182093,51.517551],[-0.176653,51.513744],[-0.176372,51.513623],[-0.175645,51.51371],[-0.175416,51.513671],[-0.175337,51.513499],[-0.175626,51.513117],[-0.175587,51.512999],[-0.174397,51.512135],[-0.174475,51.511975],[-0.174878,51.511723],[-0.178511,51.511237],[-0.182239,51.510629],[-0.191118,51.510005],[-0.194145,51.509483],[-0.193833,51.508614],[-0.194872,51.508217],[-0.194996,51.508003],[-0.195363,51.509276],[-0.191575,51.509964],[-0.183021,51.510528],[-0.176309,51.511536],[-0.176012,51.511756],[-0.175705,51.512947],[-0.175882,51.513201],[-0.182093,51.517551],[-0.187468,51.516091],[-0.188313,51.517369],[-0.189047,51.518109],[-0.188995,51.518692],[-0.188758,51.51957],[-0.189947,51.519768],[-0.190783,51.520141],[-0.19119,51.520417],[-0.190466,51.520127],[-0.189448,51.519861],[-0.184443,51.519728],[-0.183211,51.519889],[-0.182248,51.520179],[-0.180808,51.520868],[-0.180546,51.520926],[-0.180317,51.520887],[-0.179351,51.520341],[-0.178787,51.520225],[-0.170245,51.520083],[-0.169065,51.519311],[-0.169096,51.519256],[-0.167587,51.518185],[-0.167298,51.518086],[-0.162561,51.51479],[-0.160034,51.51323],[-0.158753,51.513374],[-0.158461,51.513326],[-0.158313,51.513215],[-0.1567,51.510339],[-0.154824,51.508969],[-0.153784,51.507964],[-0.151444,51.505958],[-0.151037,51.505486],[-0.150913,51.505059],[-0.151119,51.504028],[-0.150886,51.503377],[-0.150788,51.503303],[-0.149996,51.503291],[-0.149787,51.503108],[-0.149869,51.502498],[-0.151201,51.501997],[-0.151323,51.501837],[-0.151316,51.501657],[-0.149097,51.500228],[-0.147967,51.499241],[-0.147144,51.4983],[-0.146758,51.498213],[-0.145027,51.498267],[-0.143872,51.498076],[-0.145212,51.496192],[-0.144007,51.49593]]}}]}