{"type":"FeatureCollection","metadata":{"routeId":"Y70","sourceDate":"20260905","source":"https://bus.data.tfl.gov.uk/bus-geometry/"},"features":[{"type":"Feature","properties":{"routeId":"Y70","direction":"1","sourceDate":"20260905"},"geometry":{"type":"LineString","coordinates":[[-0.273371,51.496629],[-0.273405,51.496855],[-0.272473,51.497506],[-0.273573,51.498143],[-0.275493,51.49881],[-0.276785,51.499683],[-0.2773,51.500158],[-0.278506,51.501795],[-0.27921,51.502614],[-0.280189,51.503402],[-0.278961,51.505408],[-0.278199,51.506221],[-0.277272,51.507019],[-0.276751,51.50783],[-0.276185,51.508316],[-0.274887,51.508351],[-0.274171,51.508223],[-0.273734,51.507974],[-0.272392,51.507503],[-0.269528,51.506806],[-0.260561,51.506414],[-0.256856,51.506556],[-0.25755,51.509156],[-0.257819,51.509663],[-0.257821,51.510076],[-0.257687,51.510471],[-0.256749,51.511266],[-0.256485,51.511766],[-0.256139,51.511961],[-0.254613,51.512106],[-0.252272,51.512647],[-0.252129,51.5126],[-0.249262,51.512971],[-0.249144,51.513092],[-0.249153,51.513563],[-0.249022,51.513956],[-0.249436,51.515213],[-0.238082,51.515861],[-0.233292,51.516364],[-0.230099,51.51655],[-0.227214,51.516983],[-0.226567,51.515831],[-0.226277,51.515503],[-0.225812,51.514498],[-0.225847,51.514346],[-0.225691,51.513903],[-0.225027,51.512445],[-0.224767,51.511579]]}},{"type":"Feature","properties":{"routeId":"Y70","direction":"2","sourceDate":"20260905"},"geometry":{"type":"LineString","coordinates":[[-0.225506,51.513531],[-0.225845,51.514353],[-0.226269,51.514981],[-0.226628,51.515953],[-0.227214,51.516983],[-0.230099,51.51655],[-0.233292,51.516364],[-0.238082,51.515861],[-0.249436,51.515213],[-0.248941,51.51382],[-0.248181,51.512964],[-0.248879,51.512812],[-0.249741,51.51287],[-0.252129,51.5126],[-0.252204,51.51252],[-0.252332,51.512585],[-0.253332,51.512438],[-0.254837,51.512084],[-0.256139,51.511961],[-0.256485,51.511766],[-0.256749,51.511266],[-0.257687,51.510471],[-0.257815,51.51014],[-0.257793,51.509573],[-0.25755,51.509156],[-0.256856,51.506556],[-0.260996,51.50642],[-0.269528,51.506806],[-0.271353,51.507301],[-0.272312,51.507477],[-0.273854,51.50804],[-0.274171,51.508223],[-0.274887,51.508351],[-0.276185,51.508316],[-0.276751,51.50783],[-0.277272,51.507019],[-0.278825,51.505567],[-0.280189,51.503402],[-0.27921,51.502614],[-0.278506,51.501795],[-0.2773,51.500158],[-0.276535,51.499493],[-0.27562,51.498875],[-0.273515,51.498115],[-0.272473,51.497506],[-0.273405,51.496855],[-0.273343,51.496602],[-0.273029,51.496139],[-0.273444,51.496108]]}}]}