{"type":"FeatureCollection","metadata":{"routeId":"Y7N","sourceDate":"20260905","source":"https://bus.data.tfl.gov.uk/bus-geometry/"},"features":[{"type":"Feature","properties":{"routeId":"Y7N","direction":"1","sourceDate":"20260905"},"geometry":{"type":"LineString","coordinates":[[-0.367455,51.548504],[-0.368778,51.547633],[-0.37211,51.545215],[-0.373917,51.544287],[-0.376934,51.543393],[-0.377159,51.543145],[-0.377041,51.542801],[-0.377236,51.542588],[-0.378728,51.542402],[-0.379326,51.54223],[-0.380813,51.54137],[-0.384371,51.539645],[-0.386482,51.538867],[-0.387247,51.538437],[-0.39001,51.536551],[-0.390238,51.536221],[-0.390146,51.535968],[-0.389814,51.535559],[-0.389128,51.534978],[-0.388101,51.534267],[-0.387294,51.533834],[-0.386453,51.533561],[-0.383232,51.532914],[-0.381867,51.532779],[-0.379749,51.532741],[-0.376413,51.532901],[-0.372282,51.5327],[-0.371915,51.532884],[-0.371698,51.532908],[-0.370974,51.532601],[-0.367454,51.532246],[-0.365405,51.531498],[-0.365024,51.531268],[-0.364561,51.530902],[-0.363368,51.529599],[-0.362971,51.529423],[-0.361494,51.529178],[-0.359366,51.528666],[-0.357512,51.528484],[-0.355638,51.528458],[-0.352158,51.527438],[-0.350142,51.527364],[-0.348609,51.5271],[-0.346968,51.527032],[-0.344501,51.527087],[-0.338595,51.527688],[-0.337099,51.527656],[-0.335189,51.527845],[-0.334145,51.52801],[-0.332733,51.528386],[-0.331009,51.528613],[-0.326866,51.528761],[-0.325615,51.526315],[-0.324874,51.525684],[-0.323946,51.524655],[-0.323776,51.524598],[-0.318596,51.5251],[-0.313827,51.526065],[-0.311418,51.526642],[-0.308985,51.526949],[-0.308891,51.525985],[-0.308614,51.524516],[-0.308329,51.52363],[-0.308504,51.522814],[-0.308375,51.522795],[-0.308265,51.522649],[-0.306949,51.521881],[-0.306953,51.521791],[-0.306669,51.521527],[-0.306404,51.521121],[-0.306274,51.52075],[-0.306158,51.520002],[-0.306464,51.516401],[-0.305533,51.516261],[-0.304505,51.515986],[-0.303488,51.516214],[-0.302185,51.516267],[-0.302084,51.516147],[-0.302262,51.516035],[-0.302306,51.51465],[-0.301947,51.514231],[-0.301565,51.514037],[-0.299878,51.514066],[-0.298737,51.513744],[-0.292571,51.511599],[-0.292376,51.511608],[-0.291515,51.511359],[-0.29139,51.511257],[-0.28569,51.509633],[-0.283188,51.508724],[-0.276186,51.508316],[-0.274887,51.508351],[-0.274171,51.508223],[-0.273734,51.507974],[-0.272392,51.507503],[-0.269528,51.506806],[-0.260561,51.506414],[-0.256856,51.506556],[-0.25755,51.509156],[-0.257819,51.509663],[-0.257821,51.510076],[-0.257687,51.510471],[-0.256749,51.511266],[-0.256485,51.511766],[-0.256139,51.511961],[-0.254613,51.512106],[-0.252272,51.512647],[-0.252129,51.5126],[-0.249262,51.512971],[-0.249144,51.513092],[-0.249153,51.513563],[-0.249022,51.513956],[-0.249436,51.515213],[-0.238082,51.515861],[-0.233292,51.516364],[-0.230099,51.51655],[-0.227214,51.516983],[-0.226567,51.515831],[-0.226269,51.514981],[-0.225845,51.514353],[-0.225027,51.512445],[-0.224767,51.511579],[-0.224577,51.510334],[-0.224558,51.509326],[-0.222714,51.509298],[-0.222529,51.509233],[-0.222352,51.508978],[-0.222272,51.509166],[-0.222011,51.509225],[-0.221167,51.509059],[-0.219618,51.509251],[-0.218901,51.507298],[-0.218114,51.505677],[-0.217947,51.505539],[-0.218079,51.504372],[-0.217494,51.504588],[-0.217277,51.504971],[-0.217086,51.505068],[-0.215666,51.504893],[-0.209926,51.506026],[-0.200767,51.50855],[-0.198364,51.508791],[-0.191575,51.509964],[-0.182053,51.510653],[-0.176309,51.511536],[-0.176132,51.511632],[-0.176012,51.511756],[-0.175705,51.512947],[-0.175882,51.513201],[-0.182089,51.517548],[-0.180389,51.517993],[-0.179183,51.517156],[-0.179046,51.516983],[-0.176379,51.515179],[-0.169096,51.519256],[-0.162561,51.51479],[-0.160034,51.51323],[-0.156069,51.513762],[-0.154497,51.513847],[-0.149153,51.514383],[-0.14473,51.514923]]}},{"type":"Feature","properties":{"routeId":"Y7N","direction":"2","sourceDate":"20260905"},"geometry":{"type":"LineString","coordinates":[[-0.145339,51.514846],[-0.149153,51.514383],[-0.157739,51.513521],[-0.158248,51.513394],[-0.158313,51.513215],[-0.158138,51.512906],[-0.158275,51.512719],[-0.160811,51.512382],[-0.161094,51.512512],[-0.16147,51.512833],[-0.161466,51.512941],[-0.161267,51.513104],[-0.160775,51.51316],[-0.160573,51.513295],[-0.16054,51.513384],[-0.160675,51.513611],[-0.167234,51.517896],[-0.167677,51.517984],[-0.171294,51.515961],[-0.172915,51.517103],[-0.177676,51.514461],[-0.176621,51.513715],[-0.176398,51.513632],[-0.175416,51.513671],[-0.175337,51.513499],[-0.175626,51.513117],[-0.175587,51.512999],[-0.174397,51.512135],[-0.174475,51.511975],[-0.174903,51.511721],[-0.178511,51.511237],[-0.182239,51.510629],[-0.191118,51.510005],[-0.197873,51.508848],[-0.199786,51.50858],[-0.200767,51.50855],[-0.203875,51.507626],[-0.209508,51.50613],[-0.214738,51.505059],[-0.215935,51.504645],[-0.21606,51.504395],[-0.216487,51.504177],[-0.217073,51.504285],[-0.218283,51.504303],[-0.218353,51.504358],[-0.218116,51.505641],[-0.219152,51.507886],[-0.219618,51.509251],[-0.221167,51.509059],[-0.222011,51.509225],[-0.222272,51.509166],[-0.222352,51.508978],[-0.222529,51.509233],[-0.222714,51.509298],[-0.224558,51.509326],[-0.224577,51.510334],[-0.224808,51.511785],[-0.225027,51.512445],[-0.225845,51.514353],[-0.226269,51.514981],[-0.226628,51.515953],[-0.227214,51.516983],[-0.230099,51.51655],[-0.233292,51.516364],[-0.238082,51.515861],[-0.249436,51.515213],[-0.248941,51.51382],[-0.248181,51.512964],[-0.248879,51.512812],[-0.249741,51.51287],[-0.252129,51.5126],[-0.252204,51.51252],[-0.252332,51.512585],[-0.253332,51.512438],[-0.254837,51.512084],[-0.256139,51.511961],[-0.256485,51.511766],[-0.256749,51.511266],[-0.257687,51.510471],[-0.257815,51.51014],[-0.257793,51.509573],[-0.25755,51.509156],[-0.256856,51.506556],[-0.260996,51.50642],[-0.269528,51.506806],[-0.271353,51.507301],[-0.272312,51.507477],[-0.273854,51.50804],[-0.274171,51.508223],[-0.274887,51.508351],[-0.276186,51.508316],[-0.283116,51.508714],[-0.287389,51.510158],[-0.290209,51.510958],[-0.292489,51.511505],[-0.292571,51.511599],[-0.297698,51.513396],[-0.299711,51.514027],[-0.301781,51.51404],[-0.303338,51.51364],[-0.304116,51.513273],[-0.304244,51.513311],[-0.30437,51.513412],[-0.304443,51.513773],[-0.304735,51.515998],[-0.303329,51.516229],[-0.302281,51.516283],[-0.302083,51.516156],[-0.302262,51.516035],[-0.302326,51.514911],[-0.302784,51.514971],[-0.303451,51.515251],[-0.304706,51.515998],[-0.305533,51.516261],[-0.306464,51.516401],[-0.306158,51.520002],[-0.306239,51.520567],[-0.306404,51.521121],[-0.306718,51.521593],[-0.306953,51.521791],[-0.307068,51.521801],[-0.307221,51.522032],[-0.307499,51.522222],[-0.308492,51.522743],[-0.308326,51.523711],[-0.308656,51.524755],[-0.308985,51.526949],[-0.311418,51.526642],[-0.31331,51.526166],[-0.318233,51.525193],[-0.318618,51.524902],[-0.31958,51.525006],[-0.323776,51.524598],[-0.323865,51.524519],[-0.323994,51.524548],[-0.323946,51.524655],[-0.324874,51.525684],[-0.325615,51.526315],[-0.326734,51.528453],[-0.326953,51.528708],[-0.327746,51.528746],[-0.331009,51.528613],[-0.332865,51.528353],[-0.33474,51.527911],[-0.337323,51.527652],[-0.338626,51.527687],[-0.343649,51.527138],[-0.346968,51.527032],[-0.348609,51.5271],[-0.350142,51.527364],[-0.352158,51.527438],[-0.355868,51.528488],[-0.357512,51.528484],[-0.358949,51.528612],[-0.359795,51.528746],[-0.36128,51.52913],[-0.362799,51.529376],[-0.363255,51.529526],[-0.363633,51.529837],[-0.364495,51.530827],[-0.365405,51.531498],[-0.367126,51.532152],[-0.367956,51.532325],[-0.371305,51.532624],[-0.371812,51.53255],[-0.372167,51.532689],[-0.376413,51.532901],[-0.37981,51.53274],[-0.381867,51.532779],[-0.383232,51.532914],[-0.386456,51.533562],[-0.387294,51.533834],[-0.38896,51.534837],[-0.389828,51.535586],[-0.390341,51.535746],[-0.39082,51.535653],[-0.391246,51.535839],[-0.391326,51.536029],[-0.391203,51.536252],[-0.390867,51.536383],[-0.39055,51.536369],[-0.390257,51.5365],[-0.387361,51.538466],[-0.385964,51.539173],[-0.384434,51.539702],[-0.380957,51.541372],[-0.379573,51.54218],[-0.378548,51.542606],[-0.378458,51.542722],[-0.378536,51.542957],[-0.378251,51.543241],[-0.377457,51.543275],[-0.374107,51.544208],[-0.37279,51.544851],[-0.37183,51.545382],[-0.368765,51.547656]]}}]}