{"type":"FeatureCollection","metadata":{"routeId":"Y7X","sourceDate":"20260905","source":"https://bus.data.tfl.gov.uk/bus-geometry/"},"features":[{"type":"Feature","properties":{"routeId":"Y7X","direction":"1","sourceDate":"20260905"},"geometry":{"type":"LineString","coordinates":[[-0.251476,51.51989],[-0.251104,51.519814],[-0.250668,51.519511],[-0.250727,51.519271],[-0.250601,51.518647],[-0.249422,51.515176],[-0.238082,51.515861],[-0.233292,51.516364],[-0.230099,51.51655],[-0.227214,51.516983],[-0.226567,51.515831],[-0.226277,51.515503],[-0.225812,51.514498],[-0.225847,51.514346],[-0.225691,51.513903],[-0.225027,51.512445],[-0.224808,51.511785],[-0.224629,51.51082],[-0.224558,51.509326],[-0.222628,51.509279],[-0.222363,51.50905],[-0.222272,51.508797],[-0.222029,51.508748],[-0.221712,51.508762],[-0.221186,51.508943],[-0.219578,51.509143],[-0.218901,51.507298],[-0.218114,51.505676],[-0.217947,51.505539],[-0.218079,51.504372],[-0.217494,51.50457],[-0.217277,51.504971],[-0.217086,51.505068],[-0.215594,51.504901],[-0.209916,51.506028],[-0.200767,51.50855],[-0.199598,51.508604],[-0.194145,51.509483],[-0.193833,51.508614],[-0.194872,51.508217],[-0.195055,51.508336],[-0.1953,51.50906],[-0.195526,51.509171],[-0.191575,51.509964],[-0.187218,51.510213],[-0.182818,51.510566],[-0.176309,51.511536],[-0.176012,51.511756],[-0.175703,51.513001],[-0.175869,51.513147],[-0.175832,51.513196],[-0.177676,51.514461],[-0.169096,51.519256],[-0.162561,51.51479],[-0.160034,51.51323],[-0.156069,51.513762],[-0.154497,51.513847],[-0.149153,51.514383],[-0.14473,51.514923]]}},{"type":"Feature","properties":{"routeId":"Y7X","direction":"2","sourceDate":"20260905"},"geometry":{"type":"MultiLineString","coordinates":[[[-0.145339,51.514846],[-0.149153,51.514383],[-0.1582,51.51351],[-0.158753,51.513374],[-0.160034,51.51323],[-0.162561,51.51479],[-0.167234,51.517896],[-0.167677,51.517984],[-0.171294,51.515961],[-0.172916,51.517103],[-0.177676,51.514461],[-0.176621,51.513715],[-0.176398,51.513632],[-0.175416,51.513671],[-0.175337,51.513499],[-0.175626,51.513117],[-0.175587,51.512999],[-0.174397,51.512135],[-0.174475,51.511975],[-0.174903,51.511721],[-0.182818,51.510566],[-0.187218,51.510213],[-0.191575,51.509964],[-0.197873,51.508848],[-0.199786,51.50858],[-0.200767,51.50855],[-0.209916,51.506028],[-0.214738,51.505059],[-0.215935,51.504645],[-0.216194,51.504289],[-0.216631,51.504179],[-0.217591,51.50432],[-0.218126,51.504274],[-0.218353,51.504358],[-0.218114,51.505676],[-0.219152,51.507886],[-0.219578,51.509143],[-0.221186,51.508943],[-0.221712,51.508762],[-0.222029,51.508748],[-0.222272,51.508797],[-0.222363,51.50905],[-0.222628,51.509279],[-0.224558,51.509326],[-0.224629,51.51082],[-0.224808,51.511785],[-0.225027,51.512445],[-0.225847,51.514346],[-0.226269,51.514981],[-0.226567,51.515831],[-0.227214,51.516983],[-0.230099,51.51655],[-0.233292,51.516364],[-0.238082,51.515861],[-0.249422,51.515176],[-0.250601,51.518647],[-0.250727,51.519271],[-0.250668,51.519511],[-0.25092,51.519722],[-0.251361,51.519881],[-0.25351,51.519863]],[[-0.175762,51.51553],[-0.177676,51.514461],[-0.176621,51.513715],[-0.176398,51.513632],[-0.175416,51.513671],[-0.175337,51.513499],[-0.175626,51.513117],[-0.175587,51.512999],[-0.174397,51.512135],[-0.174475,51.511975],[-0.174903,51.511721],[-0.178511,51.511237],[-0.182239,51.510629],[-0.187218,51.510213],[-0.191054,51.51001],[-0.192883,51.509724]]]}}]}